{
"type": "FeatureCollection",
"name": "cuerpos de agua",
"crs": { "type": "name", "properties": { "name": "urn:ogc:def:crs:OGC:1.3:CRS84" } },
"features": [
{ "type": "Feature", "properties": { "objectid": "3", "id": "5966", "objectid_1": "", "clave": "HIA_6292", "descripcio": "CUERPO DE AGUA, Perenne", "nombre": "Endho", "tipo": "Presa", "estado": "Hidalgo", "clave_esta": "13", "clave_rha": "XIII", "nombre_rha": "Valle de M¿xico", "shape_leng": "38420.596090", "prueba": " ", "zona": "Tula", "SHAPE__Length": "0.358179", "SHAPE__Area": "0.001107" }, "geometry": { "type": "MultiPolygon", "coordinates": [ [ [ [ -99.363122028999953, 20.158788337000033 ], [ -99.359920274, 20.156345938000015 ], [ -99.358175738, 20.155021104000014 ], [ -99.356385899999964, 20.154798797000012 ], [ -99.355540492999978, 20.153327534000027 ], [ -99.35577738, 20.15231492800001 ], [ -99.356970891, 20.151182862000041 ], [ -99.35792497, 20.149933904000022 ], [ -99.358638672999973, 20.148242494000044 ], [ -99.358517744999972, 20.145531722000044 ], [ -99.358031318999963, 20.142026393000037 ], [ -99.358141953999962, 20.140218770000047 ], [ -99.357178769999962, 20.137401228000044 ], [ -99.357173883999963, 20.13525046 ], [ -99.356209198999977, 20.131755149000014 ], [ -99.356570762, 20.130850739000039 ], [ -99.357526470999971, 20.130396924000024 ], [ -99.35728085, 20.127568950000011 ], [ -99.357152905999953, 20.125987708000025 ], [ -99.357747845, 20.122597651000035 ], [ -99.357858863, 20.120907588000023 ], [ -99.357378994999976, 20.120230745000015 ], [ -99.355703764, 20.119782273 ], [ -99.354657896, 20.118401773000016 ], [ -99.353880712999967, 20.117382140000018 ], [ -99.352138812999954, 20.117051257000014 ], [ -99.350464103999968, 20.116765416000021 ], [ -99.349268855, 20.117057034000027 ], [ -99.347537214999988, 20.116997137 ], [ -99.345680988999959, 20.116838107000035 ], [ -99.34466605, 20.116442497000037 ], [ -99.343945712, 20.115142610000021 ], [ -99.343761369, 20.113959101000034 ], [ -99.343998549, 20.113055007000014 ], [ -99.344416989999957, 20.111924574 ], [ -99.344892921999985, 20.110848195000017 ], [ -99.345129348, 20.109609664 ], [ -99.345182997, 20.107910645 ], [ -99.345064627999989, 20.106275178000033 ], [ -99.344525971999985, 20.104920720000052 ], [ -99.344102787999987, 20.103846121 ], [ -99.343860678, 20.102491048000047 ], [ -99.344814639, 20.101305432 ], [ -99.345290151999961, 20.100057401000015 ], [ -99.346191578, 20.101076789000047 ], [ -99.346966996, 20.101355396000031 ], [ -99.34798059100001, 20.101181685000029 ], [ -99.348882135999986, 20.102255285000012 ], [ -99.350136856, 20.102984847000016 ], [ -99.350737609999953, 20.102143228000045 ], [ -99.350975094999967, 20.101401725000017 ], [ -99.351383750999958, 20.100217072000021 ], [ -99.351381355, 20.099141679000013 ], [ -99.351983513, 20.098914517000026 ], [ -99.352880847, 20.098126489000038 ], [ -99.353118516999984, 20.097448282000016 ], [ -99.352217543, 20.09665482500003 ], [ -99.352034501999981, 20.09604073600002 ], [ -99.351553493999972, 20.094848818 ], [ -99.351073179999958, 20.093891859000053 ], [ -99.350592482999957, 20.092817373 ], [ -99.35023687, 20.092031883 ], [ -99.350884497999971, 20.090783497000018 ], [ -99.35142721, 20.089652791000049 ], [ -99.351835548, 20.088359695 ], [ -99.352255569999954, 20.087961242 ], [ -99.351774885, 20.086886766000021 ], [ -99.351657986999953, 20.085929082 ], [ -99.351713759, 20.085197023000035 ], [ -99.352430831999982, 20.085078142000043 ], [ -99.35357100799996, 20.085979495 ], [ -99.354166501, 20.087053699000023 ], [ -99.354054305999966, 20.088237799000012 ], [ -99.353156764, 20.088917372000026 ], [ -99.352738558999988, 20.090102031000015 ], [ -99.353459999, 20.09190793700003 ], [ -99.354782522999983, 20.093034897000052 ], [ -99.355914641999959, 20.094559869000022 ], [ -99.357180202999984, 20.095858649000036 ], [ -99.358379563999961, 20.097491867000031 ], [ -99.359215050999978, 20.098963234000053 ], [ -99.36023077599998, 20.099747402000048 ], [ -99.361188231999961, 20.100142992000031 ], [ -99.362145387999988, 20.100367008000035 ], [ -99.362031765999973, 20.100873284000045 ], [ -99.360779167999965, 20.101101783000047 ], [ -99.35951775999996, 20.101673698000013 ], [ -99.358505141999956, 20.102236059 ], [ -99.357013311, 20.102410764000012 ], [ -99.355523307, 20.103425892000018 ], [ -99.354501747999961, 20.104277427 ], [ -99.35367168099998, 20.105237028000033 ], [ -99.352237508999963, 20.105583258000024 ], [ -99.350200264999955, 20.105695790000027 ], [ -99.348526859, 20.105988299000046 ], [ -99.347696741, 20.106947777000016 ], [ -99.347758393999982, 20.108863538000037 ], [ -99.347819300999959, 20.110444864000044 ], [ -99.348186169999963, 20.111971326 ], [ -99.349258967999958, 20.112592806 ], [ -99.350818022, 20.112472213000046 ], [ -99.354347986, 20.112465126000018 ], [ -99.355955344999984, 20.112579365000045 ], [ -99.357515954, 20.113136557000018 ], [ -99.359250483999972, 20.114488568000013 ], [ -99.360506267, 20.115615606 ], [ -99.360096960999954, 20.116520088000016 ], [ -99.358960115, 20.117200180000054 ], [ -99.357880381999962, 20.11777171600005 ], [ -99.356924669999955, 20.118171300000029 ], [ -99.356543299, 20.118759428000033 ], [ -99.357615608, 20.119100642000035 ], [ -99.358458746999986, 20.119659301000013 ], [ -99.358813704999989, 20.120110351000051 ], [ -99.358577591999961, 20.121466349 ], [ -99.358466201999988, 20.122939591000033 ], [ -99.358708684999954, 20.124403123000036 ], [ -99.357869129999983, 20.125425986000039 ], [ -99.358588959999963, 20.126436628000022 ], [ -99.359783013999959, 20.125647986000047 ], [ -99.360863883999968, 20.125528309 ], [ -99.361697190999962, 20.125978419000035 ], [ -99.361460599999987, 20.127108536000037 ], [ -99.360984839999958, 20.128239121000036 ], [ -99.361226177999981, 20.129142321000018 ], [ -99.361353884999971, 20.13061510600005 ], [ -99.362070901999971, 20.13038771500004 ], [ -99.363745191999953, 20.130384240000012 ], [ -99.364814105, 20.129252424000015 ], [ -99.366245787999958, 20.127776416000017 ], [ -99.367436679999969, 20.125632263 ], [ -99.368152844, 20.125061425000013 ], [ -99.368866169, 20.123252573 ], [ -99.370184249999966, 20.122346123 ], [ -99.371493833999978, 20.121891463000054 ], [ -99.371620109, 20.122686462000047 ], [ -99.372098935999986, 20.122911385 ], [ -99.373408003, 20.122230817 ], [ -99.374363074999962, 20.121551098000054 ], [ -99.374245353, 20.120304213000054 ], [ -99.373764275999974, 20.119175637000012 ], [ -99.373398344, 20.118164307000029 ], [ -99.373519482, 20.116808480000032 ], [ -99.373632958999963, 20.116238892000013 ], [ -99.374826614999961, 20.115332705000014 ], [ -99.375186877999965, 20.113976391000051 ], [ -99.375780497, 20.114201109000021 ], [ -99.37673852, 20.114768360000028 ], [ -99.377457609999965, 20.115444554000021 ], [ -99.377583595999965, 20.116122108000013 ], [ -99.377826273999972, 20.117585510000026 ], [ -99.376152662999971, 20.117815031000021 ], [ -99.374594183, 20.118161777000012 ], [ -99.374835797, 20.119173403000048 ], [ -99.377828255, 20.118380802000047 ], [ -99.3792621, 20.117925866 ], [ -99.381767747999959, 20.117577001000029 ], [ -99.383917204, 20.1163343 ], [ -99.385715106999953, 20.116104478000011 ], [ -99.388460928999962, 20.116206868 ], [ -99.388582241999984, 20.114968557000054 ], [ -99.389057183999967, 20.113612009 ], [ -99.391083805, 20.113038214000028 ], [ -99.392280476, 20.113378960000034 ], [ -99.393600596, 20.113375968000014 ], [ -99.394795842, 20.113147389 ], [ -99.395511053, 20.112242084 ], [ -99.395506759999989, 20.110543147000044 ], [ -99.394545072999961, 20.108512043000019 ], [ -99.395500494999965, 20.108058090000043 ], [ -99.396695929999964, 20.107946929000036 ], [ -99.397176822, 20.108957986 ], [ -99.397296505999975, 20.110882602 ], [ -99.397425125999973, 20.112572153000031 ], [ -99.397781641, 20.113592506000032 ], [ -99.397909950999974, 20.115173694000021 ], [ -99.396715895999989, 20.115854172000013 ], [ -99.395042339999975, 20.116083810000021 ], [ -99.393847931999971, 20.116646739000032 ], [ -99.393966477, 20.118119498 ], [ -99.393616444999964, 20.119701735000035 ], [ -99.39229767, 20.120264969 ], [ -99.391822640999976, 20.121621533000052 ], [ -99.391710424, 20.122643014 ], [ -99.390992624999967, 20.122527125000033 ], [ -99.389558460999979, 20.122873715000026 ], [ -99.38836204, 20.122650380000039 ], [ -99.387281199999961, 20.122761183000023 ], [ -99.387168622, 20.123665136 ], [ -99.385975836, 20.124914845000035 ], [ -99.385377024999968, 20.126497598000014 ], [ -99.384897305999971, 20.125929297000027 ], [ -99.383825729999955, 20.125931692000051 ], [ -99.382506871999965, 20.126503821000028 ], [ -99.380962003999969, 20.128540514 ], [ -99.379884683, 20.130124246000037 ], [ -99.379296109999984, 20.132041318 ], [ -99.379653368, 20.133396084000026 ], [ -99.379544074999956, 20.135655592000035 ], [ -99.380503845999954, 20.13690060600004 ], [ -99.381941985999958, 20.138135546 ], [ -99.382900202999963, 20.13870277 ], [ -99.384098891, 20.139829734000045 ], [ -99.382060953, 20.139834148000034 ], [ -99.379431676999957, 20.140626051000027 ], [ -99.376560797999957, 20.140406359000053 ], [ -99.376208945999963, 20.141310719000046 ], [ -99.375371793, 20.143345830000044 ], [ -99.376693564, 20.143912307000051 ], [ -99.379563991, 20.143906191000042 ], [ -99.380158276999964, 20.144356704000018 ], [ -99.381481119, 20.145365955000045 ], [ -99.379443415999958, 20.145487862000039 ], [ -99.378966897999987, 20.146275097 ], [ -99.37825254, 20.147632149 ], [ -99.37777466, 20.147859126000014 ], [ -99.376942209, 20.147860889000015 ], [ -99.375860751, 20.147754787000054 ], [ -99.374550715, 20.148091877000013 ], [ -99.373950337, 20.149114362000034 ], [ -99.374431424999955, 20.150242966 ], [ -99.375275569, 20.151144792000025 ], [ -99.376712769, 20.151928001000044 ], [ -99.377786341, 20.152720878000025 ], [ -99.379586616999973, 20.153277367000044 ], [ -99.381136734, 20.153274002000046 ], [ -99.382812899999976, 20.153948103 ], [ -99.381505049999987, 20.155198011000039 ], [ -99.380551132999983, 20.156438145000038 ], [ -99.378752782, 20.156667916 ], [ -99.377319046999958, 20.157348762000026 ], [ -99.37588373899996, 20.157351806 ], [ -99.372294249, 20.156907601 ], [ -99.370858943999963, 20.156910688000039 ], [ -99.369423856999958, 20.157031109 ], [ -99.368113712999957, 20.157368237000014 ], [ -99.36739767, 20.158047553000017 ], [ -99.367515869999977, 20.15952029500005 ], [ -99.367279058, 20.16053292600003 ], [ -99.365125446999969, 20.160311489000037 ], [ -99.363122028999953, 20.158788337000033 ] ] ] ] } },
{ "type": "Feature", "properties": { "objectid": "8", "id": "6260", "objectid_1": "", "clave": "HIA_6292", "descripcio": "CUERPO DE AGUA, Perenne", "nombre": "Requena", "tipo": "Presa", "estado": "Hidalgo", "clave_esta": "13", "clave_rha": "XIII", "nombre_rha": "Valle de M¿xico", "shape_leng": "19060.317635", "prueba": " ", "zona": "Tula", "SHAPE__Length": "0.177629", "SHAPE__Area": "0.000562" }, "geometry": { "type": "MultiPolygon", "coordinates": [ [ [ [ -99.310334668999985, 19.962127081 ], [ -99.308738581, 19.962120890000051 ], [ -99.308975425999961, 19.961063112000033 ], [ -99.309289198999977, 19.960231100000044 ], [ -99.309688881999989, 19.959326718 ], [ -99.310165198, 19.958575834000044 ], [ -99.310718536999957, 19.958050715000013 ], [ -99.310879344, 19.95721898100004 ], [ -99.310322956, 19.956162643000027 ], [ -99.309757505, 19.955341241000042 ], [ -99.309440188999986, 19.954356780000012 ], [ -99.309438771999965, 19.953606673000024 ], [ -99.309035965999954, 19.952857334000043 ], [ -99.308642043999953, 19.951800703 ], [ -99.308162324999955, 19.950825509000026 ], [ -99.307444960999987, 19.950519470000017 ], [ -99.306965753999975, 19.949770221000051 ], [ -99.306724502, 19.948568695 ], [ -99.306484142999977, 19.947809997000036 ], [ -99.305767003999961, 19.947585282000034 ], [ -99.305365134, 19.947360091 ], [ -99.304885757999955, 19.94653848300004 ], [ -99.304807437999955, 19.945553643000039 ], [ -99.305120811999984, 19.944504773 ], [ -99.305835834999982, 19.943672114000037 ], [ -99.306715070999985, 19.943670596 ], [ -99.307193446999975, 19.943968042000051 ], [ -99.307748662, 19.944500222000045 ], [ -99.308465675999969, 19.944643599000017 ], [ -99.309019471, 19.944416699000044 ], [ -99.309018657999957, 19.943964809000022 ], [ -99.308625975999973, 19.943513671 ], [ -99.307908661, 19.943216704 ], [ -99.307267656999954, 19.942838219 ], [ -99.307027914, 19.942386802000044 ], [ -99.307265654, 19.941789913000036 ], [ -99.307762026999967, 19.941508961000011 ], [ -99.308535025999959, 19.940956297000014 ], [ -99.309337537999966, 19.940882594000016 ], [ -99.310368969999956, 19.940573590000042 ], [ -99.311400607999985, 19.94034582 ], [ -99.312678524999967, 19.93906933400001 ], [ -99.313632806999976, 19.938389937000011 ], [ -99.314501598, 19.938008757000034 ], [ -99.315455967, 19.937401611000041 ], [ -99.315617245999988, 19.936804901000016 ], [ -99.315616514, 19.936425366000037 ], [ -99.315214558999969, 19.936127851000037 ], [ -99.314898594, 19.935821160000046 ], [ -99.31465822499996, 19.935071460000017 ], [ -99.31465678, 19.934321368000042 ], [ -99.31489548899998, 19.934239645000048 ], [ -99.315297451999982, 19.934546136000051 ], [ -99.315690127999972, 19.93499734300002 ], [ -99.316091251999978, 19.934915320000016 ], [ -99.316731509999954, 19.934914139 ], [ -99.317210929999987, 19.935744676000013 ], [ -99.318167266999978, 19.936122528 ], [ -99.31919938599998, 19.936193001000049 ], [ -99.320317296999974, 19.936118650000026 ], [ -99.321272478999958, 19.935963354000023 ], [ -99.32230524299996, 19.93634098800004 ], [ -99.322707106999985, 19.936566223 ], [ -99.323901323999962, 19.936482675000036 ], [ -99.324932269999977, 19.935956698000041 ], [ -99.32588647, 19.935277135000035 ], [ -99.326123992999953, 19.934598893000043 ], [ -99.325568229999988, 19.933849907000024 ], [ -99.32516454, 19.932720999000026 ], [ -99.324282687999982, 19.931367058000035 ], [ -99.323888482999962, 19.930156809000039 ], [ -99.324441654, 19.929631563000044 ], [ -99.325157658999956, 19.92933204000002 ], [ -99.326512908999973, 19.928570429000047 ], [ -99.327705643, 19.927745924000021 ], [ -99.32833420999998, 19.926759701000037 ], [ -99.328492596, 19.92480742500004 ], [ -99.328412707999973, 19.923144703000048 ], [ -99.328009778999956, 19.922323085000016 ], [ -99.32817173899997, 19.922096833000012 ], [ -99.328487044999974, 19.922096224000029 ], [ -99.328723226999955, 19.920812516000012 ], [ -99.329123103999962, 19.920134057000041 ], [ -99.32999249, 19.920060156000034 ], [ -99.331349172999978, 19.920057567000015 ], [ -99.331902479, 19.919604742000047 ], [ -99.332464606999963, 19.918844542000045 ], [ -99.332939971999963, 19.917713999 ], [ -99.333415775999981, 19.91680939500003 ], [ -99.333968965, 19.916356563000022 ], [ -99.334685759999957, 19.91643652700003 ], [ -99.335402897, 19.916733359000034 ], [ -99.336560185, 19.91730056900002 ], [ -99.337630688, 19.917479208000032 ], [ -99.337956246999966, 19.917785924000043 ], [ -99.337633601999983, 19.918834848000017 ], [ -99.337081319999982, 19.919739574 ], [ -99.33684467, 19.920797352000022 ], [ -99.336846333999972, 19.921547436000026 ], [ -99.336369214, 19.92185556000004 ], [ -99.335576770999978, 19.922155331 ], [ -99.335176260999958, 19.922535605 ], [ -99.334939349999956, 19.923439795000036 ], [ -99.334624364999968, 19.923584941 ], [ -99.334386246, 19.923964986000044 ], [ -99.335180918999981, 19.924713598000039 ], [ -99.335583349, 19.925245974 ], [ -99.336062626, 19.925995205000049 ], [ -99.336303322, 19.926826102 ], [ -99.336304547999987, 19.92742259900001 ], [ -99.335827952999978, 19.927956666 ], [ -99.335504045, 19.928409098000031 ], [ -99.335352239999963, 19.928933549000021 ], [ -99.335353026, 19.929313171000047 ], [ -99.33559284, 19.929764539000018 ], [ -99.335832204999974, 19.929989964000015 ], [ -99.335835102999965, 19.931345529 ], [ -99.335750665999967, 19.932095831000026 ], [ -99.33519708, 19.932395086000042 ], [ -99.334319134, 19.932929895000029 ], [ -99.333765875999973, 19.933382827 ], [ -99.333366207999973, 19.934205919000021 ], [ -99.333368313999983, 19.935190932000012 ], [ -99.333456518999981, 19.93623911200001 ], [ -99.333697455999982, 19.93722370200004 ], [ -99.333699215999957, 19.938046060000033 ], [ -99.333776621999959, 19.938497751 ], [ -99.334416799, 19.938496584 ], [ -99.334656177, 19.938722013000017 ], [ -99.334733807999953, 19.939255125000045 ], [ -99.334897335, 19.939778958000034 ], [ -99.335051611999972, 19.940456396 ], [ -99.33513861, 19.940908165000053 ], [ -99.335053716, 19.941432438000049 ], [ -99.334739151, 19.941812598000013 ], [ -99.334185523999963, 19.942111853000029 ], [ -99.3331452, 19.942719330000045 ], [ -99.331636345999982, 19.943173947000048 ], [ -99.330443181999954, 19.943853969000031 ], [ -99.328531527999985, 19.943631631000017 ], [ -99.326543695999987, 19.943562964000023 ], [ -99.325187090999975, 19.943710036000027 ], [ -99.323994105999986, 19.944471338000028 ], [ -99.323201827999981, 19.944924644000025 ], [ -99.323040464999963, 19.945449105000023 ], [ -99.323356887999978, 19.945972661000042 ], [ -99.323683023, 19.946577533000038 ], [ -99.324237866999965, 19.946874733000016 ], [ -99.324954490999971, 19.946801153000024 ], [ -99.325833651999972, 19.946799522000049 ], [ -99.326464703999989, 19.946951996000053 ], [ -99.326790961999961, 19.947629215 ], [ -99.326313170999981, 19.947630040000035 ], [ -99.325748933999989, 19.947405214000014 ], [ -99.32559631099997, 19.947550035 ], [ -99.32551117099996, 19.948002042000041 ], [ -99.324957280999968, 19.94815674 ], [ -99.323600221999982, 19.94815918 ], [ -99.322568010999987, 19.948088737000035 ], [ -99.322090523999975, 19.948234256000035 ], [ -99.321851901, 19.948388254 ], [ -99.321852958999955, 19.948912410000048 ], [ -99.321375908999983, 19.949292849000017 ], [ -99.320583061999969, 19.949447935000023 ], [ -99.320181683999976, 19.949448640000014 ], [ -99.319943257999967, 19.949674989000016 ], [ -99.320020624999984, 19.950126693000016 ], [ -99.320184211999958, 19.950722900000017 ], [ -99.320347283999979, 19.951029875000017 ], [ -99.320348112999966, 19.951400350000029 ], [ -99.319870423999987, 19.951482574000011 ], [ -99.319306912, 19.951628197000048 ], [ -99.318591, 19.952081292 ], [ -99.318352779, 19.952388970000015 ], [ -99.318278138999972, 19.953292859000044 ], [ -99.318202980999956, 19.953970800000036 ], [ -99.31796454299996, 19.954197147 ], [ -99.317400502, 19.95411681500002 ], [ -99.316684046999967, 19.954271691000031 ], [ -99.316292440999973, 19.954344729000013 ], [ -99.316207582, 19.954950328000052 ], [ -99.316209551999975, 19.955926294000051 ], [ -99.316535059999978, 19.956232975000034 ], [ -99.317166246999989, 19.95645784200002 ], [ -99.317567226, 19.956231197000022 ], [ -99.317967988999953, 19.955923220000045 ], [ -99.318522132999988, 19.955849878000038 ], [ -99.319000474, 19.95607493600005 ], [ -99.319240079, 19.956454076 ], [ -99.318925637, 19.956906473 ], [ -99.31868719299996, 19.957132913 ], [ -99.31852527999996, 19.957431425000038 ], [ -99.318364099, 19.958037128 ], [ -99.31860452899997, 19.958786839000027 ], [ -99.31956124300001, 19.959309216 ], [ -99.319963074999976, 19.959534461000032 ], [ -99.320365429999981, 19.959985564000021 ], [ -99.320758422999972, 19.960590363000051 ], [ -99.321475430999953, 19.960661326000036 ], [ -99.321714197, 19.960588566000013 ], [ -99.321953590999954, 19.960814111000047 ], [ -99.322279431999959, 19.9612654 ], [ -99.321802126999955, 19.961564423000027 ], [ -99.32123879, 19.961791386000016 ], [ -99.320446826999955, 19.962470634 ], [ -99.319893617999981, 19.963004769 ], [ -99.319253108999987, 19.962924634000046 ], [ -99.318374583999969, 19.963305770000034 ], [ -99.317821246999983, 19.963758568 ], [ -99.317344237999976, 19.964211264000028 ], [ -99.317268744999978, 19.964663264000023 ], [ -99.317106937, 19.965043107000042 ], [ -99.31686878, 19.965414074000023 ], [ -99.316467566999961, 19.965496102000031 ], [ -99.315989394999974, 19.965343389000054 ], [ -99.315510293999978, 19.964738774000011 ], [ -99.315355471999965, 19.963762996000014 ], [ -99.315191267999978, 19.96293184700005 ], [ -99.314712587999963, 19.96248091800004 ], [ -99.313995057999989, 19.96211162000003 ], [ -99.313439351999989, 19.961434832 ], [ -99.312798342, 19.961056367000026 ], [ -99.31176736599997, 19.961663697 ], [ -99.311366658, 19.962034947 ], [ -99.310334668999985, 19.962127081 ] ] ] ] } },
{ "type": "Feature", "properties": { "objectid": "9", "id": "6358", "objectid_1": "", "clave": "HIA_6292", "descripcio": "CUERPO DE AGUA, Perenne", "nombre": "Taxhimay", "tipo": "Presa", "estado": "Mexico", "clave_esta": "15", "clave_rha": "XIII", "nombre_rha": "Valle de M¿xico", "shape_leng": "22147.966193", "prueba": " ", "zona": "Tula", "SHAPE__Length": "0.206256", "SHAPE__Area": "0.000334" }, "geometry": { "type": "MultiPolygon", "coordinates": [ [ [ [ -99.385987786999976, 19.835387070000024 ], [ -99.384793619, 19.835163763000025 ], [ -99.384189572999958, 19.834170913000037 ], [ -99.383470865999982, 19.833133202 ], [ -99.383832178999967, 19.832454636000023 ], [ -99.383562629999972, 19.831578611000054 ], [ -99.383560631999956, 19.830738211000039 ], [ -99.383798092, 19.830222589000016 ], [ -99.383854217999954, 19.829716348000034 ], [ -99.384092648999967, 19.829607418000023 ], [ -99.384626451999964, 19.829208597000047 ], [ -99.385045037, 19.828529932000038 ], [ -99.385578405, 19.827959402000033 ], [ -99.386416648999955, 19.827117181 ], [ -99.38700782899997, 19.826772466000023 ], [ -99.387130605999971, 19.826211894000039 ], [ -99.387302028999954, 19.825985586 ], [ -99.387779163, 19.825867078000044 ], [ -99.388017047, 19.825532224000028 ], [ -99.387958255, 19.824908781000033 ], [ -99.38825299399997, 19.824402031000034 ], [ -99.388557924, 19.824112208000031 ], [ -99.388852553, 19.823551244000043 ], [ -99.389206283999954, 19.823722147000012 ], [ -99.389331514999981, 19.824173766 ], [ -99.389208314999962, 19.824562632000038 ], [ -99.38920972, 19.825131962 ], [ -99.389277231999984, 19.825411976 ], [ -99.389993419, 19.825410353000052 ], [ -99.390585139, 19.825300699000024 ], [ -99.391005184999983, 19.825236496 ], [ -99.391959458999963, 19.825008430000025 ], [ -99.392789564, 19.824726458000043 ], [ -99.393333241999983, 19.824499387 ], [ -99.393628710999963, 19.824272758 ], [ -99.393741974999955, 19.823712201000035 ], [ -99.393922866999958, 19.823485868000034 ], [ -99.394160714, 19.823141939000038 ], [ -99.393977634, 19.822464601000036 ], [ -99.393736959999956, 19.821678848000033 ], [ -99.393859249, 19.820937503000039 ], [ -99.394039385999974, 19.820431039000027 ], [ -99.394209381, 19.819644463000031 ], [ -99.394389279999984, 19.819020508000051 ], [ -99.394444717999988, 19.818288350000046 ], [ -99.394750296999973, 19.818287712000028 ], [ -99.394808786, 19.818793655000036 ], [ -99.394868578, 19.81980564700001 ], [ -99.394689010999969, 19.820547095000052 ], [ -99.394814914, 19.821278837000023 ], [ -99.395112662999964, 19.821955970000033 ], [ -99.395409769999958, 19.822407182 ], [ -99.395715575999986, 19.822514967000018 ], [ -99.39606876299996, 19.82245993600003 ], [ -99.396364555, 19.822350796000023 ], [ -99.396965375999969, 19.82206033 ], [ -99.397317693, 19.821670952000034 ], [ -99.397736190999979, 19.820992256000011 ], [ -99.398336449999988, 19.820475777000013 ], [ -99.39892714399997, 19.819968379000045 ], [ -99.399289011, 19.819569914 ], [ -99.399401802, 19.818837651000024 ], [ -99.399524838, 19.818385500000034 ], [ -99.399934197, 19.817932732000031 ], [ -99.400171350999983, 19.81730866700002 ], [ -99.400235556999974, 19.816242150000051 ], [ -99.400291596999978, 19.815726844000039 ], [ -99.400471813999957, 19.815274587000033 ], [ -99.400948246999974, 19.814884975000041 ], [ -99.401061006999953, 19.814143648000027 ], [ -99.401356327999963, 19.813862795000034 ], [ -99.401775902999987, 19.813635925000028 ], [ -99.402070452999965, 19.813074941000025 ], [ -99.402192576, 19.812279475000025 ], [ -99.402486991999979, 19.811655213000051 ], [ -99.403020239, 19.811093697000047 ], [ -99.403324677, 19.810641120000014 ], [ -99.403322538999987, 19.809791672000017 ], [ -99.403196601, 19.809059945 ], [ -99.403252307, 19.808436216000018 ], [ -99.403432391999957, 19.807929747 ], [ -99.40348798399998, 19.807251807 ], [ -99.403725215, 19.806681955000045 ], [ -99.403963686, 19.806572998000036 ], [ -99.404269802999977, 19.806798255000047 ], [ -99.404271156, 19.807358507 ], [ -99.404149048999955, 19.808154062000028 ], [ -99.403969077999989, 19.808714744000042 ], [ -99.403855211, 19.809004239000046 ], [ -99.404037195, 19.809229727 ], [ -99.404210822999971, 19.80990715400003 ], [ -99.404213078999987, 19.810810814000035 ], [ -99.404043151, 19.81159748500005 ], [ -99.403682540999966, 19.812447790000022 ], [ -99.403445633999979, 19.813180372000033 ], [ -99.403266347, 19.81403025000003 ], [ -99.403095624, 19.814482491000035 ], [ -99.402733539999986, 19.814763472000038 ], [ -99.40249606499998, 19.815270048 ], [ -99.402383181, 19.815948099000025 ], [ -99.4022031, 19.816463637000027 ], [ -99.402081066, 19.817304344000036 ], [ -99.401786523999988, 19.817874396000036 ], [ -99.401607539, 19.818832702 ], [ -99.401847169, 19.819229792000044 ], [ -99.402449873999956, 19.819680336000033 ], [ -99.402804044, 19.820013846000052 ], [ -99.403520443, 19.820129740000027 ], [ -99.404235793, 19.819784732000016 ], [ -99.404655059, 19.819449426 ], [ -99.40525506, 19.818824496000047 ], [ -99.40578741600001, 19.817919557000039 ], [ -99.40620540599997, 19.817069137000033 ], [ -99.406614608999973, 19.816507838 ], [ -99.407329512999979, 19.816054389000044 ], [ -99.407805227999972, 19.815375471000038 ], [ -99.408280593999962, 19.814579151000032 ], [ -99.408516905, 19.813620644000025 ], [ -99.408514524, 19.81271698 ], [ -99.408818833999987, 19.812210180000022 ], [ -99.409467630999984, 19.812036977000048 ], [ -99.410126463999973, 19.812035458000025 ], [ -99.410727115999975, 19.811699703000045 ], [ -99.41126098, 19.811355100000014 ], [ -99.411852372999988, 19.811127785000053 ], [ -99.412215121999964, 19.811126909000052 ], [ -99.41227332699998, 19.811470206000024 ], [ -99.412035776999971, 19.811922583000012 ], [ -99.411683661999973, 19.812375270000018 ], [ -99.411025843, 19.812765440000021 ], [ -99.410492182999974, 19.813164257000039 ], [ -99.410072835999983, 19.813445364000017 ], [ -99.409777417999976, 19.813672022000048 ], [ -99.409711952, 19.814241470000013 ], [ -99.409655699999973, 19.814639289000013 ], [ -99.409303437, 19.815028693000045 ], [ -99.40899901, 19.815481193000039 ], [ -99.40888593, 19.816050825000048 ], [ -99.408705644, 19.816503090000026 ], [ -99.408468530999983, 19.817127168000013 ], [ -99.408412388999977, 19.817579200000011 ], [ -99.408709529999953, 19.818030385000043 ], [ -99.409073079999985, 19.818309648000024 ], [ -99.409550396999975, 19.818254352000054 ], [ -99.409788979999973, 19.818190531000027 ], [ -99.410141824, 19.81802704100005 ], [ -99.41061936899996, 19.818080166000016 ], [ -99.410982690999958, 19.818251091000036 ], [ -99.411394067, 19.818584469000029 ], [ -99.411814560999971, 19.818700980000017 ], [ -99.412530710999988, 19.818699340000023 ], [ -99.412950513, 19.818580863000022 ], [ -99.413188650999984, 19.818354399000043 ], [ -99.413665289999983, 19.818073171000037 ], [ -99.414084604999971, 19.817728776000024 ], [ -99.414618292, 19.817338920000054 ], [ -99.415209238999978, 19.816939976000015 ], [ -99.415628917, 19.816767279000032 ], [ -99.416047892, 19.816314453000018 ], [ -99.416466652999986, 19.815807321000023 ], [ -99.416819557999986, 19.815634843 ], [ -99.417477939999969, 19.815461587000016 ], [ -99.418069811, 19.815405951 ], [ -99.41854643, 19.815124709000031 ], [ -99.418908931999965, 19.815006418000053 ], [ -99.419559475999961, 19.815456709000046 ], [ -99.418787824999981, 19.816136333000031 ], [ -99.418435134999982, 19.816363030000048 ], [ -99.417776749999973, 19.816536290000045 ], [ -99.417061312999977, 19.816818174000048 ], [ -99.416528004999975, 19.817334505000019 ], [ -99.416167343999973, 19.818175778000011 ], [ -99.415575596999986, 19.818294685000012 ], [ -99.4149746, 19.818521944000054 ], [ -99.414499005999971, 19.819200888000012 ], [ -99.414089383999965, 19.819599479000033 ], [ -99.413488241999971, 19.819763545 ], [ -99.413011479999966, 19.81999056 ], [ -99.412955352999973, 19.820442505000017 ], [ -99.41277463199998, 19.820732138000039 ], [ -99.41218158099997, 19.820335920000048 ], [ -99.411465422999981, 19.820337557000016 ], [ -99.410568614999988, 19.820619758000021 ], [ -99.410033890999955, 19.820620954000049 ], [ -99.409728078, 19.820513198000015 ], [ -99.408897213999978, 19.820451854 ], [ -99.408295872, 19.82057075 ], [ -99.40717129899997, 19.821422780000034 ], [ -99.406332442, 19.821984979000035 ], [ -99.405798731, 19.822383873000035 ], [ -99.405436178, 19.822493158000043 ], [ -99.405026048999957, 19.822665810000046 ], [ -99.404482188999964, 19.822838709000052 ], [ -99.404129568999963, 19.823119677000022 ], [ -99.403834572999983, 19.823517941000034 ], [ -99.40359673, 19.823852909000038 ], [ -99.403358697999977, 19.824142639 ], [ -99.40299625, 19.824306131000014 ], [ -99.402757411999971, 19.824252450000017 ], [ -99.402518125999961, 19.824026973 ], [ -99.402041008999959, 19.824145618000045 ], [ -99.40156434, 19.824481022000043 ], [ -99.400973876999956, 19.825105924000013 ], [ -99.40055436199998, 19.825332796 ], [ -99.399953068, 19.825442596000016 ], [ -99.399542608, 19.825506716 ], [ -99.399124102999963, 19.826185510000016 ], [ -99.39894419899997, 19.826800409000043 ], [ -99.399127755, 19.827649451000013 ], [ -99.399367247999976, 19.827929149 ], [ -99.400027401999978, 19.828442790000054 ], [ -99.400438669999971, 19.82872198900003 ], [ -99.401575164, 19.82877366300005 ], [ -99.402949832, 19.828598877000047 ], [ -99.403665827, 19.828542974000015 ], [ -99.404676919999986, 19.828088894000018 ], [ -99.405391893, 19.827635358 ], [ -99.406641138999987, 19.82695472 ], [ -99.407480822999958, 19.826726861000054 ], [ -99.408254758999988, 19.826896840000018 ], [ -99.408913892999976, 19.827003751 ], [ -99.410106859999985, 19.826720908000027 ], [ -99.410822266999958, 19.826439053 ], [ -99.411480478999977, 19.826157396000042 ], [ -99.412607027999968, 19.82609160200002 ], [ -99.413867214999982, 19.825980216 ], [ -99.412971783999978, 19.82683176200004 ], [ -99.412132339999971, 19.82716807700001 ], [ -99.411541338, 19.827567103000035 ], [ -99.410883216, 19.827848762000031 ], [ -99.410349382, 19.828193371000054 ], [ -99.40992989199998, 19.828474481 ], [ -99.409816461, 19.828926627000044 ], [ -99.409453568, 19.828927495000016 ], [ -99.408918239, 19.828702768000028 ], [ -99.408555670999988, 19.828812061 ], [ -99.408079115999954, 19.829156554 ], [ -99.407364374, 19.829718439000033 ], [ -99.406773914999974, 19.830343367000012 ], [ -99.406412494999984, 19.830913561000045 ], [ -99.406299731999979, 19.831645838000043 ], [ -99.406358724999961, 19.832323491000011 ], [ -99.40654063, 19.832494768 ], [ -99.406961390999982, 19.832719719000011 ], [ -99.407257648999973, 19.8328275 ], [ -99.407677955999986, 19.832880743000032 ], [ -99.408155438999984, 19.832879663000028 ], [ -99.408567422999965, 19.833393829000045 ], [ -99.408692384, 19.833727941 ], [ -99.408932270999969, 19.834179241000015 ], [ -99.40964999299996, 19.83474695000001 ], [ -99.409947405999958, 19.835306567000032 ], [ -99.409833741, 19.835650199000042 ], [ -99.409528446999957, 19.835759386 ], [ -99.409414551999987, 19.836039738000011 ], [ -99.409710838999956, 19.836156579000033 ], [ -99.410789072, 19.835810665000054 ], [ -99.411401539, 19.836297245000026 ], [ -99.410723809, 19.836434431000043 ], [ -99.41031376, 19.836661313000036 ], [ -99.409951633, 19.836942228 ], [ -99.409235386999967, 19.836943855000015 ], [ -99.408699588, 19.836556483000038 ], [ -99.407686259, 19.836107003000052 ], [ -99.407083463, 19.835656472000039 ], [ -99.406252394999967, 19.835540898000033 ], [ -99.40583174, 19.835370157 ], [ -99.405058097, 19.835317749000012 ], [ -99.404036450999968, 19.835374226 ], [ -99.403741107999963, 19.835664065 ], [ -99.403560647, 19.836053145000051 ], [ -99.403446966, 19.836396773000047 ], [ -99.403267648, 19.837246670000013 ], [ -99.403508198999987, 19.837978115 ], [ -99.403691553999977, 19.83870975800005 ], [ -99.403988971, 19.839278363 ], [ -99.40393312499998, 19.839838832 ], [ -99.403753129, 19.84040859800001 ], [ -99.40333379599997, 19.840743908000036 ], [ -99.402923721999969, 19.840970771 ], [ -99.402379223999958, 19.840917743000034 ], [ -99.401900142999978, 19.840295253000022 ], [ -99.401009092999971, 19.83911342600004 ], [ -99.400405968999962, 19.838545464000049 ], [ -99.400165324999989, 19.83775971 ], [ -99.400220179999963, 19.836801705000028 ], [ -99.400160210999957, 19.835726419000025 ], [ -99.399804765999988, 19.834877686000027 ], [ -99.39920144499996, 19.834201295000014 ], [ -99.398302206999972, 19.833579744000019 ], [ -99.397824610999976, 19.833526579000022 ], [ -99.397414548999961, 19.833753426000044 ], [ -99.396814888999984, 19.834550042000046 ], [ -99.396461564, 19.834550771000011 ], [ -99.396155492999981, 19.834325494000041 ], [ -99.395744651999962, 19.834263226000019 ], [ -99.395438159999969, 19.833875306000039 ], [ -99.394845321999981, 19.833587350000016 ], [ -99.394243895999978, 19.833651981 ], [ -99.393118347999973, 19.83416050400001 ], [ -99.392336427999965, 19.834614104000025 ], [ -99.391926568999963, 19.834949363000021 ], [ -99.391689131999954, 19.83546499900001 ], [ -99.391451034, 19.835745738000014 ], [ -99.391212287999963, 19.835746252000035 ], [ -99.390972563999981, 19.835349137000037 ], [ -99.390970829999958, 19.83461716100004 ], [ -99.390845256999967, 19.834048046000021 ], [ -99.39054783, 19.833488391 ], [ -99.390012406999972, 19.833209382 ], [ -99.38911449699998, 19.833093923000035 ], [ -99.388580048999984, 19.833212537 ], [ -99.388217989999987, 19.833547703000022 ], [ -99.387923029999968, 19.834000243000048 ], [ -99.387686097999961, 19.834732728 ], [ -99.387324262, 19.835185384 ], [ -99.387449498999956, 19.835636918000034 ], [ -99.387325966, 19.835863148000044 ], [ -99.387029515999984, 19.835701114000017 ], [ -99.386494194999955, 19.835476396000047 ], [ -99.385987786999976, 19.835387070000024 ] ] ] ] } }
]
}
