{
"type": "FeatureCollection",
"name": "delimitacion2030",
"crs": { "type": "name", "properties": { "name": "urn:ogc:def:crs:OGC:1.3:CRS84" } },
"features": [
{ "type": "Feature", "properties": { "id": null, "clvcuenca": null, "cuenca": null, "descripcion": null, "area": null, "subregion": null, "clvrh": null, "rh": null, "clvrha": null, "rha": null, "anio": null, "Pais": null }, "geometry": { "type": "MultiPolygon", "coordinates": [ [ [ [ -99.117976349564046, 19.870637879752877 ], [ -99.110043, 19.8116 ], [ -99.117930529341336, 19.77543927787276 ], [ -99.054443690169222, 19.642413061246366 ], [ -99.053852230027957, 19.641207313831831 ], [ -99.053236578604626, 19.641605880522047 ], [ -99.052200429568828, 19.63985713962645 ], [ -99.040045690043144, 19.614205680427204 ], [ -99.024862448567106, 19.615430081101287 ], [ -99.021899880042938, 19.617043949921406 ], [ -99.020977550323764, 19.619221950144894 ], [ -99.009978600259629, 19.62664345977576 ], [ -99.017639450005262, 19.639996000467821 ], [ -99.016867889637268, 19.640344739907597 ], [ -99.012986339973168, 19.645488250351697 ], [ -99.008567049887588, 19.64784245000563 ], [ -99.008373740086427, 19.647872429729048 ], [ -99.006605279954371, 19.647105939934857 ], [ -99.005967579800028, 19.647561449846126 ], [ -99.005134414077759, 19.646905136193279 ], [ -99.005263845664615, 19.649553601263474 ], [ -99.004706309475083, 19.649544081064974 ], [ -99.004237587882557, 19.651846075740217 ], [ -98.990937149682296, 19.649706310326149 ], [ -98.990495199994172, 19.650303259575256 ], [ -98.988516479834615, 19.651456020419101 ], [ -98.986669200183513, 19.649764309796328 ], [ -98.985631949053882, 19.649831249585763 ], [ -98.979779820104696, 19.64873597108507 ], [ -98.978928168719122, 19.648094060884038 ], [ -98.975765289573701, 19.643853480070728 ], [ -98.978909220288884, 19.632655520197094 ], [ -98.978857540389711, 19.629216710060351 ], [ -98.980937946764314, 19.621287979548271 ], [ -98.981555688954927, 19.61965003004125 ], [ -98.983784568574393, 19.607542710353698 ], [ -98.985572909276669, 19.607426680027331 ], [ -98.986208260271709, 19.602647680296254 ], [ -98.997230539778414, 19.586425910726287 ], [ -98.980245028726856, 19.5833228597056 ], [ -98.976916820273928, 19.586826619999972 ], [ -98.97655704991007, 19.593270120050878 ], [ -98.972880399023722, 19.592483480350296 ], [ -98.972534920097317, 19.592641949977729 ], [ -98.972663379941991, 19.596523319560426 ], [ -98.968371830359203, 19.594796820348375 ], [ -98.967259799602331, 19.594474119732272 ], [ -98.967188310089782, 19.594722769807262 ], [ -98.966640250294034, 19.594924059928985 ], [ -98.966430179908841, 19.595094910021029 ], [ -98.966322650171364, 19.595001170452132 ], [ -98.965421879754345, 19.595165740260516 ], [ -98.948800570420815, 19.593986079929778 ], [ -98.9490857103834, 19.592603200013503 ], [ -98.947858029735286, 19.591880940123634 ], [ -98.94880551975541, 19.590044350019244 ], [ -98.941668879526389, 19.588736720320952 ], [ -98.938895370113869, 19.593664570179929 ], [ -98.937850000373516, 19.593778890957836 ], [ -98.937123649756458, 19.593068380344452 ], [ -98.936862419576315, 19.593570080086728 ], [ -98.930986774064465, 19.584971147800285 ], [ -98.928288948547021, 19.58747023054444 ], [ -98.928927250179655, 19.585051940141835 ], [ -98.92696431963266, 19.58534785011474 ], [ -98.925214859649159, 19.583851750015945 ], [ -98.925789320214577, 19.580583280693897 ], [ -98.920663175358612, 19.579651355490796 ], [ -98.917338019577628, 19.578684600386577 ], [ -98.917070909707533, 19.578957050069402 ], [ -98.910885619755248, 19.576842219595616 ], [ -98.910952290353578, 19.570719060420217 ], [ -98.910998482309722, 19.569135587990992 ], [ -98.91100142494443, 19.569097333739887 ], [ -98.911158734921742, 19.565379072680312 ], [ -98.91089597896196, 19.561267650239294 ], [ -98.910405510085582, 19.554493999701506 ], [ -98.905905519982753, 19.547772629813153 ], [ -98.905190917075117, 19.547624599947863 ], [ -98.904826249100125, 19.548157750021943 ], [ -98.904199169510022, 19.549521480774587 ], [ -98.902591309916914, 19.550691019827823 ], [ -98.902302479394592, 19.551340001083926 ], [ -98.900370850074495, 19.551079660056665 ], [ -98.900540970226274, 19.550833579769499 ], [ -98.900988150280753, 19.547404509876316 ], [ -98.89959324997541, 19.547198950235817 ], [ -98.900086019880334, 19.543767020522335 ], [ -98.900262149875388, 19.541182400294172 ], [ -98.898367799526142, 19.540528420546313 ], [ -98.895306180142455, 19.540305568425723 ], [ -98.892770550434591, 19.536933179578373 ], [ -98.895170848825131, 19.537096090670879 ], [ -98.910311459523413, 19.537302599782684 ], [ -98.912987058818089, 19.542807519952735 ], [ -98.913095850539648, 19.542828510338527 ], [ -98.914198658611795, 19.541029080415758 ], [ -98.914210369543767, 19.540695429806824 ], [ -98.914409389995143, 19.540572058381809 ], [ -98.914330819479858, 19.540204320860386 ], [ -98.914550059487723, 19.539770460736342 ], [ -98.914653380116278, 19.538848000917092 ], [ -98.915174750366361, 19.523342319805955 ], [ -98.915345769390669, 19.522736309611687 ], [ -98.915471600246121, 19.522617490248617 ], [ -98.924288920098633, 19.51987091108932 ], [ -98.924614659966636, 19.519681851184131 ], [ -98.929999773417649, 19.518402162887817 ], [ -98.931415624022577, 19.51809826618836 ], [ -98.930241783083517, 19.518141258794607 ], [ -98.930242778180116, 19.514190311824908 ], [ -98.930838347272314, 19.51403237181432 ], [ -98.930496349658824, 19.512407532417569 ], [ -98.924240524521281, 19.514648668041332 ], [ -98.923926966795023, 19.505894939032824 ], [ -98.925071479301835, 19.505238952299464 ], [ -98.92519892663978, 19.504708271234847 ], [ -98.924121169199978, 19.504577138499993 ], [ -98.925244770789675, 19.500428179910845 ], [ -98.925667110249151, 19.50045226479779 ], [ -98.930162801792108, 19.498792114994895 ], [ -98.929715058072148, 19.497510766516026 ], [ -98.933152903265352, 19.496329870361642 ], [ -98.932724847770487, 19.494907010150879 ], [ -98.931451354686374, 19.495336929634508 ], [ -98.93191850159144, 19.493699205504015 ], [ -98.929358854157158, 19.494702484956406 ], [ -98.92917448542255, 19.495963732696222 ], [ -98.925942807603178, 19.497222733795009 ], [ -98.928100261500006, 19.4871753539 ], [ -98.928680984600007, 19.482510184599995 ], [ -98.9160793013275, 19.481200564571449 ], [ -98.916064588664597, 19.4800846933 ], [ -98.914833178876677, 19.480012646122873 ], [ -98.914774772601049, 19.477455722803366 ], [ -98.916642670471902, 19.477624686405591 ], [ -98.916625456937595, 19.478308142568949 ], [ -98.919609545168043, 19.47844751515953 ], [ -98.91962333367502, 19.477882456965691 ], [ -98.922335064792776, 19.478121998860505 ], [ -98.922405849190852, 19.473054542072756 ], [ -98.920163068086936, 19.471068954198412 ], [ -98.918070580865106, 19.471115842270645 ], [ -98.918172334557255, 19.469298651340296 ], [ -98.916533676420158, 19.469297904111556 ], [ -98.916459050630067, 19.467337166335476 ], [ -98.926943378432554, 19.465738335092109 ], [ -98.923241454821721, 19.464668340850952 ], [ -98.92397558901132, 19.461720962027123 ], [ -98.921918813108732, 19.46114622325376 ], [ -98.922544668078842, 19.458143528050702 ], [ -98.924736926881238, 19.458646740437811 ], [ -98.925419608541063, 19.454156526866541 ], [ -98.938480476899969, 19.461018 ], [ -98.93383884619999, 19.450357953899996 ], [ -98.960835653339757, 19.452149971931018 ], [ -98.976041953800006, 19.446560769299996 ], [ -98.97917384619997, 19.435991323099998 ], [ -98.990457015399983, 19.429529138499994 ], [ -98.99733689229997, 19.438177153899993 ], [ -98.999148456294449, 19.430692679464638 ], [ -99.004060720773737, 19.421839638063318 ], [ -99.027259418693234, 19.433946239490641 ], [ -99.030054975992826, 19.434586785797709 ], [ -99.041921474970721, 19.437811328594698 ], [ -99.043744241999207, 19.438812243836161 ], [ -99.045155044362374, 19.440212545573505 ], [ -99.038965402298984, 19.447264772723138 ], [ -99.029833987668042, 19.45414593018711 ], [ -99.028084819577813, 19.451150325695451 ], [ -99.028888779725321, 19.483496345078688 ], [ -99.063862539774803, 19.498778710934356 ], [ -99.089492679972395, 19.509154889935129 ], [ -99.088480050246289, 19.516323249963605 ], [ -99.089575380298371, 19.52265603001603 ], [ -99.08082176969171, 19.527752570258937 ], [ -99.08847645012537, 19.537499800397274 ], [ -99.092011279892347, 19.548860859951301 ], [ -99.097612969634739, 19.559688691283561 ], [ -99.098150520424582, 19.570292380247103 ], [ -99.112965570136879, 19.573741679570766 ], [ -99.114661719774034, 19.579796310144438 ], [ -99.116906140384231, 19.581444599901605 ], [ -99.11859756968687, 19.584461719994636 ], [ -99.117887850237949, 19.590592309581737 ], [ -99.119649429898928, 19.592025749923387 ], [ -99.123706089719263, 19.59275727980177 ], [ -99.126992600355464, 19.588507689964963 ], [ -99.130710309957607, 19.587149539656053 ], [ -99.133760850079923, 19.586243630200801 ], [ -99.133759748832958, 19.584888109595067 ], [ -99.137904379863627, 19.581134709596075 ], [ -99.139141680412294, 19.578467890389518 ], [ -99.139568139536664, 19.575395049557368 ], [ -99.14366518004708, 19.572183769831593 ], [ -99.147645629885787, 19.574008090242685 ], [ -99.151123419705414, 19.575278630174815 ], [ -99.159762400003046, 19.576185199644833 ], [ -99.164177770255932, 19.579827399808046 ], [ -99.172396259584048, 19.577921480274153 ], [ -99.181856029576267, 19.575182019679392 ], [ -99.18698026, 19.57620241 ], [ -99.19392139, 19.57786923 ], [ -99.19419685, 19.58120114 ], [ -99.199475510000013, 19.58536837 ], [ -99.19975778, 19.58814529 ], [ -99.20780697, 19.58897889 ], [ -99.21475808, 19.58786873 ], [ -99.22170104, 19.59147897 ], [ -99.22781276, 19.59120078 ], [ -99.23086529, 19.59286769 ], [ -99.237533590000012, 19.58814522 ], [ -99.24726039, 19.59397972 ], [ -99.26503616, 19.59231266 ], [ -99.27364393, 19.59786636 ], [ -99.27892279, 19.59536813 ], [ -99.28364669, 19.5912006 ], [ -99.286149220000013, 19.5862018 ], [ -99.29336595, 19.58203453 ], [ -99.29947725, 19.57897899 ], [ -99.303169790000013, 19.57429194 ], [ -99.30976155, 19.56592386 ], [ -99.32086974, 19.5628685 ], [ -99.33142253, 19.55897952 ], [ -99.33309163, 19.55370206 ], [ -99.33392467, 19.54620251 ], [ -99.33725947, 19.53981536 ], [ -99.33503907, 19.5359263 ], [ -99.33781484, 19.53037048 ], [ -99.34364435, 19.53092554 ], [ -99.34809331, 19.52287106 ], [ -99.35003739, 19.51703715 ], [ -99.35447851, 19.51315007 ], [ -99.35559332, 19.50509382 ], [ -99.36864742, 19.5042601 ], [ -99.36947701, 19.501762 ], [ -99.38059501, 19.50231691 ], [ -99.39420594, 19.50481707 ], [ -99.40614627, 19.49509406 ], [ -99.4097626, 19.488983 ], [ -99.41642965, 19.48787311 ], [ -99.42059565, 19.48259589 ], [ -99.42833813, 19.48282915 ], [ -99.42850311, 19.48496891 ], [ -99.428456560000015, 19.48743074 ], [ -99.43004903, 19.48899611 ], [ -99.4316323, 19.49117753 ], [ -99.43484645, 19.49277039 ], [ -99.43482321, 19.49400245 ], [ -99.43441715, 19.49830463 ], [ -99.4360122, 19.49987 ], [ -99.43923237, 19.50115702 ], [ -99.44246657, 19.50182799 ], [ -99.44412302, 19.5000073 ], [ -99.44864492, 19.50131612 ], [ -99.45213244, 19.50568401 ], [ -99.450800910000012, 19.50750801 ], [ -99.44977446, 19.51026151 ], [ -99.44874797, 19.513015 ], [ -99.44837354, 19.5157795 ], [ -99.45670083, 19.52176727 ], [ -99.46587934, 19.51699593 ], [ -99.47111805, 19.51462092 ], [ -99.47476331, 19.51068082 ], [ -99.47830327, 19.51227821 ], [ -99.48276089, 19.51696972 ], [ -99.48237573, 19.52035037 ], [ -99.48329666, 19.52313652 ], [ -99.48879768, 19.52415006 ], [ -99.49333547, 19.52453345 ], [ -99.49228946, 19.52851718 ], [ -99.48962457, 19.53216819 ], [ -99.4895848, 19.53432214 ], [ -99.48788071, 19.53860308 ], [ -99.489151940000013, 19.54016256 ], [ -99.49039807, 19.54295412 ], [ -99.49653277, 19.54490228 ], [ -99.4991524, 19.54371537 ], [ -99.50177765, 19.54222037 ], [ -99.50444003, 19.53856906 ], [ -99.50698047, 19.54168996 ], [ -99.50886797, 19.54510592 ], [ -99.51462507, 19.54981803 ], [ -99.51559989, 19.54983404 ], [ -99.51656105, 19.55046608 ], [ -99.52008594, 19.55126931 ], [ -99.51947407, 19.55284297 ], [ -99.51937458, 19.5558071 ], [ -99.51931346, 19.55758465 ], [ -99.51610499, 19.55986113 ], [ -99.50674461, 19.55898213 ], [ -99.50263588, 19.55885772 ], [ -99.50533174, 19.56368733 ], [ -99.51015505, 19.56917502 ], [ -99.51315977, 19.57282692 ], [ -99.51618741, 19.57588779 ], [ -99.51725817, 19.58126155 ], [ -99.51617126, 19.58527446 ], [ -99.51593022, 19.58616774 ], [ -99.51582507, 19.58655799 ], [ -99.52270618, 19.58676823 ], [ -99.5235743, 19.58753694 ], [ -99.52772929, 19.59121196 ], [ -99.5277323, 19.59236075 ], [ -99.52773349, 19.59308354 ], [ -99.52773943, 19.59380868 ], [ -99.52773824, 19.59453144 ], [ -99.52697919, 19.59525315 ], [ -99.52698034, 19.59597821 ], [ -99.52774545, 19.59597485 ], [ -99.52850812, 19.59597372 ], [ -99.52927205, 19.59669311 ], [ -99.53003593, 19.59741477 ], [ -99.53080226, 19.5981342 ], [ -99.53156855, 19.59885589 ], [ -99.532332510000018, 19.59957527 ], [ -99.533096430000015, 19.60029691 ], [ -99.533862750000011, 19.60101859 ], [ -99.53462907, 19.60174027 ], [ -99.53539306, 19.60245964 ], [ -99.53615581, 19.6024562 ], [ -99.53691852, 19.60245502 ], [ -99.53768002, 19.60172877 ], [ -99.53844273, 19.60172758 ], [ -99.539205440000018, 19.60172639 ], [ -99.53997184, 19.60244578 ], [ -99.54073586, 19.60316512 ], [ -99.54149984, 19.60388672 ], [ -99.54226627, 19.6046061 ], [ -99.54303266, 19.60532773 ], [ -99.54379667, 19.60604933 ], [ -99.54456072, 19.60676865 ], [ -99.54532714, 19.60749028 ], [ -99.54533321, 19.60821316 ], [ -99.545332110000018, 19.60893593 ], [ -99.5453334, 19.60965874 ], [ -99.54533947, 19.61038163 ], [ -99.54533837, 19.6111044 ], [ -99.54534205, 19.61182725 ], [ -99.54534569, 19.61255237 ], [ -99.545346980000019, 19.61327518 ], [ -99.54611109, 19.6139945 ], [ -99.54611477, 19.61471736 ], [ -99.54611607, 19.61544017 ], [ -99.54688258, 19.61615953 ], [ -99.54688388, 19.61688234 ], [ -99.54688996, 19.61760524 ], [ -99.54765167, 19.61832678 ], [ -99.54765536, 19.61904964 ], [ -99.54841943, 19.61977348 ], [ -99.54918841, 19.62049061 ], [ -99.54918733, 19.62121339 ], [ -99.54995385, 19.621935 ], [ -99.55071803, 19.62265431 ], [ -99.55072174, 19.62337717 ], [ -99.55072306, 19.62409999 ], [ -99.55072677, 19.62482285 ], [ -99.55073048, 19.62554571 ], [ -99.5507318, 19.62626853 ], [ -99.55073308, 19.62699362 ], [ -99.55150207, 19.627713 ], [ -99.551501, 19.62843579 ], [ -99.55150472, 19.62915865 ], [ -99.55150604, 19.62988148 ], [ -99.55227501, 19.63060312 ], [ -99.55227395, 19.63132591 ], [ -99.55227767, 19.63204878 ], [ -99.552281390000019, 19.63277164 ], [ -99.55304564, 19.63349095 ], [ -99.55304697, 19.63421377 ], [ -99.55305065, 19.63493891 ], [ -99.55305437, 19.63566177 ], [ -99.5522928, 19.63638586 ], [ -99.55229413, 19.63710869 ], [ -99.55230024, 19.6378316 ], [ -99.55229918, 19.6385544 ], [ -99.55230289, 19.63927727 ], [ -99.55306714, 19.63999884 ], [ -99.55383622, 19.64071822 ], [ -99.554598100000021, 19.64143975 ], [ -99.5553648, 19.64215909 ], [ -99.55612909, 19.64288065 ], [ -99.55689577, 19.64360224 ], [ -99.5576625, 19.64432157 ], [ -99.5584268, 19.64504312 ], [ -99.55919218, 19.6450396 ], [ -99.55995411, 19.64576111 ], [ -99.56072083, 19.64648268 ], [ -99.5607222, 19.64720552 ], [ -99.56149136, 19.64792487 ], [ -99.56149035, 19.64864767 ], [ -99.56225713, 19.64936698 ], [ -99.56302149, 19.65008851 ], [ -99.56378825, 19.65081007 ], [ -99.56455501, 19.65153164 ], [ -99.56532183, 19.65225093 ], [ -99.56608387, 19.65297014 ], [ -99.56685066, 19.6536917 ], [ -99.56761511, 19.65441094 ], [ -99.5676213, 19.65513386 ], [ -99.56762032, 19.65585667 ], [ -99.56762412, 19.65657955 ], [ -99.56762553, 19.6573024 ], [ -99.56763172, 19.65802532 ], [ -99.56763066000002, 19.65875266 ], [ -99.56763446, 19.65947555 ], [ -99.567923990000011, 19.65973625 ], [ -99.568398980000012, 19.66019253 ], [ -99.56916583, 19.66091407 ], [ -99.56993272, 19.66163335 ], [ -99.57069719, 19.66235485 ], [ -99.5714617, 19.66307408 ], [ -99.57222854, 19.66379788 ], [ -99.57223001, 19.66451847 ], [ -99.57223384, 19.66524136 ], [ -99.57223527, 19.66596421 ], [ -99.572236710000013, 19.66668706 ], [ -99.57224053, 19.66740996 ], [ -99.57224436, 19.66813285 ], [ -99.57224579, 19.6688557 ], [ -99.57224722, 19.66957856 ], [ -99.57225105, 19.67030145 ], [ -99.57225487, 19.67102435 ], [ -99.57225631, 19.6717472 ], [ -99.57225774, 19.67247006 ], [ -99.57226157, 19.67319296 ], [ -99.57150224, 19.67391947 ], [ -99.57074055, 19.67464369 ], [ -99.57074198, 19.67536655 ], [ -99.57074819, 19.67608948 ], [ -99.57074722, 19.6768123 ], [ -99.57074865, 19.67753517 ], [ -99.57075247, 19.67825807 ], [ -99.57075628, 19.67898097 ], [ -99.57075771, 19.67970383 ], [ -99.57075913, 19.68042669 ], [ -99.57076291, 19.68115186 ], [ -99.570766730000017, 19.68187476 ], [ -99.57077055, 19.68259767 ], [ -99.57153279, 19.68331687 ], [ -99.57229982, 19.68403616 ], [ -99.57306443, 19.68475766 ], [ -99.572305040000018, 19.68548419 ], [ -99.57230886, 19.6862071 ], [ -99.5723103, 19.68692997 ], [ -99.57231173, 19.68765284 ], [ -99.57307879, 19.68837212 ], [ -99.57308262, 19.68909503 ], [ -99.57308645, 19.68981794 ], [ -99.57308546, 19.69054303 ], [ -99.57308929, 19.69126594 ], [ -99.57309077, 19.69198655 ], [ -99.5730946, 19.69270946 ], [ -99.57386165, 19.69343101 ], [ -99.5738607, 19.69415384 ], [ -99.57462781, 19.69487312 ], [ -99.57539249, 19.69559462 ], [ -99.57539633, 19.69631754 ], [ -99.57616346, 19.69703681 ], [ -99.57693055, 19.69775834 ], [ -99.57692962, 19.69848118 ], [ -99.57769676, 19.69920045 ], [ -99.57846148, 19.69992194 ], [ -99.57922474, 19.69992055 ], [ -99.57998804, 19.69991689 ], [ -99.58075369, 19.69991553 ], [ -99.58151847, 19.70063474 ], [ -99.58228409, 19.70063563 ], [ -99.58304653, 19.70135253 ], [ -99.58381368, 19.70207404 ], [ -99.58457849, 19.70279323 ], [ -99.58534566, 19.70351473 ], [ -99.58610898, 19.70351104 ], [ -99.58687377, 19.70423249 ], [ -99.587641, 19.70495171 ], [ -99.58840581, 19.70567315 ], [ -99.58917545, 19.7063924 ], [ -99.58994027, 19.70711384 ], [ -99.590703570000016, 19.70711239 ], [ -99.59146452, 19.70710864 ], [ -99.59223414, 19.70783014 ], [ -99.59299505, 19.70782864 ], [ -99.59375839, 19.70782491 ], [ -99.59452173, 19.70782118 ], [ -99.59528504, 19.7078197 ], [ -99.59604838, 19.70781596 ], [ -99.59681325, 19.70853737 ], [ -99.59758055, 19.70925654 ], [ -99.59834544, 19.70997794 ], [ -99.5983518, 19.7107009 ], [ -99.59835337, 19.71142378 ], [ -99.59912066, 19.71214522 ], [ -99.59911989, 19.7128658 ], [ -99.59912146, 19.71358869 ], [ -99.599888770000021, 19.71431012 ], [ -99.59989035000001, 19.71503301 ], [ -99.60066007, 19.71575447 ], [ -99.60142504, 19.7164736 ], [ -99.6029438, 19.71827648 ], [ -99.60371115, 19.7189979 ], [ -99.60371275, 19.71972079 ], [ -99.60448016, 19.72043994 ], [ -99.60448177, 19.72116283 ], [ -99.60524915, 19.72188424 ], [ -99.60601418, 19.72260334 ], [ -99.60678158, 19.72332474 ], [ -99.60754663, 19.72404384 ], [ -99.60831404000001, 19.72476524 ], [ -99.60831567, 19.72548813 ], [ -99.6090807, 19.72620949 ], [ -99.60908472, 19.72693242 ], [ -99.60832294, 19.72765686 ], [ -99.60756354, 19.72838134 ], [ -99.6068017, 19.72910804 ], [ -99.60680571, 19.72983098 ], [ -99.60680733, 19.73055388 ], [ -99.60681134, 19.73127681 ], [ -99.60604952, 19.73200125 ], [ -99.60529005, 19.73272798 ], [ -99.60529166, 19.73345088 ], [ -99.604532210000016, 19.73417535 ], [ -99.60453382, 19.73489825 ], [ -99.604535420000019, 19.73562115 ], [ -99.60530288, 19.73634257 ], [ -99.606068, 19.73706169 ], [ -99.60683548, 19.7377831 ], [ -99.60760061, 19.73850221 ], [ -99.60836811, 19.73922361 ], [ -99.60836973, 19.73994652 ], [ -99.60761027, 19.740671 ], [ -99.60761189, 19.74139391 ], [ -99.6076159, 19.74211686 ], [ -99.60761753, 19.74283977 ], [ -99.60762154, 19.74356272 ], [ -99.60762317, 19.74428563 ], [ -99.60762718, 19.74500858 ], [ -99.6076288, 19.74573149 ], [ -99.60763043, 19.7464544 ], [ -99.60763444, 19.74717735 ], [ -99.60763607, 19.74790026 ], [ -99.60764008, 19.74862322 ], [ -99.6076417, 19.74934613 ], [ -99.60764572, 19.75006908 ], [ -99.60764734, 19.750792 ], [ -99.60765136, 19.75151495 ], [ -99.607652980000012, 19.75223787 ], [ -99.607657, 19.75296082 ], [ -99.60765862, 19.75368374 ], [ -99.607662640000015, 19.7544067 ], [ -99.607664260000021, 19.75512962 ], [ -99.60766588, 19.75585254 ], [ -99.607669900000019, 19.75657549 ], [ -99.60767152, 19.75729841 ], [ -99.60767554, 19.75802137 ], [ -99.60844075, 19.75874275 ], [ -99.60844477, 19.75946571 ], [ -99.6084464, 19.76018864 ], [ -99.60845042, 19.7609116 ], [ -99.60921569, 19.76163071 ], [ -99.60921972, 19.76235367 ], [ -99.60998496, 19.76307505 ], [ -99.609988990000019, 19.76379802 ], [ -99.61075265, 19.7637942 ], [ -99.61151791, 19.76451557 ], [ -99.61151955, 19.7652385 ], [ -99.61228726, 19.76595764 ], [ -99.61305254, 19.766679 ], [ -99.61305659, 19.76740197 ], [ -99.61382192, 19.76812106 ], [ -99.61382597, 19.76884403 ], [ -99.61382762, 19.76956696 ], [ -99.61383167, 19.77028993 ], [ -99.61383333, 19.77101286 ], [ -99.61383738, 19.77173583 ], [ -99.61383904, 19.77245876 ], [ -99.61384309, 19.77318173 ], [ -99.61384473, 19.77390523 ], [ -99.61384639, 19.77462816 ], [ -99.61385044, 19.77535113 ], [ -99.61385209, 19.77607406 ], [ -99.61385614, 19.77679704 ], [ -99.6138578, 19.77751997 ], [ -99.61386185, 19.77824295 ], [ -99.61386351, 19.77896588 ], [ -99.61310381, 19.77969269 ], [ -99.61234175, 19.78041719 ], [ -99.61158208, 19.78114172 ], [ -99.61081997, 19.78186848 ], [ -99.610824, 19.78259146 ], [ -99.610825640000016, 19.7833144 ], [ -99.610829670000015, 19.78403737 ], [ -99.61083131, 19.78476031 ], [ -99.61083535, 19.78548329 ], [ -99.61007325, 19.78620779 ], [ -99.61007488, 19.78693073 ], [ -99.61007891, 19.78765371 ], [ -99.61008055, 19.78837665 ], [ -99.61008458, 19.78909963 ], [ -99.61008621, 19.78982258 ], [ -99.61085401, 19.79054401 ], [ -99.61085565, 19.79126695 ], [ -99.6116235, 19.79198612 ], [ -99.61162515, 19.79270906 ], [ -99.61239297, 19.79343049 ], [ -99.61315845, 19.79414961 ], [ -99.61392389, 19.79487099 ], [ -99.61469178, 19.79559014 ], [ -99.61545724, 19.79631151 ], [ -99.61622514, 19.79703066 ], [ -99.61699062, 19.79775202 ], [ -99.61699469, 19.79847501 ], [ -99.61699636, 19.79919796 ], [ -99.61776429, 19.7999171 ], [ -99.61776596, 19.80064005 ], [ -99.61853386, 19.80136145 ], [ -99.61853554, 19.80208441 ], [ -99.6193011, 19.8028035 ], [ -99.619305180000012, 19.80352649 ], [ -99.62007071, 19.80424785 ], [ -99.62083868000002, 19.80496698 ], [ -99.62160423, 19.80568833 ], [ -99.62237222, 19.80640744 ], [ -99.62313778, 19.80712879 ], [ -99.62390168, 19.80712491 ], [ -99.62466726, 19.80784624 ], [ -99.62543116, 19.80784235 ], [ -99.62619503, 19.80784072 ], [ -99.626958930000015, 19.80783683 ], [ -99.6277228, 19.80783519 ], [ -99.62848496, 19.80710833 ], [ -99.62924469, 19.80638369 ], [ -99.63000685, 19.80565682 ], [ -99.6307707, 19.80565517 ], [ -99.63153455, 19.80565351 ], [ -99.63229429, 19.8049266 ], [ -99.63305814, 19.80492493 ], [ -99.63382203, 19.804921 ], [ -99.63459004, 19.80564232 ], [ -99.63535393, 19.80563838 ], [ -99.63611778, 19.8056367 ], [ -99.63688345, 19.80635571 ], [ -99.63764731, 19.80635403 ], [ -99.63841299, 19.80707303 ], [ -99.63917685, 19.80707133 ], [ -99.63994494, 19.80779036 ], [ -99.6407106, 19.80851162 ], [ -99.640714800000012, 19.80923461 ], [ -99.6407166, 19.80995757 ], [ -99.64072079, 19.81068057 ], [ -99.64072259, 19.81140353 ], [ -99.64072679, 19.81212653 ], [ -99.63996469, 19.81285119 ], [ -99.63996888, 19.81357419 ], [ -99.63920674, 19.81430111 ], [ -99.63920853, 19.81502407 ], [ -99.63921272, 19.81574707 ], [ -99.63997667, 19.81574311 ], [ -99.64074057000002, 19.81574141 ], [ -99.64150452, 19.81573744 ], [ -99.64227024, 19.81645869 ], [ -99.6430384, 19.81717771 ], [ -99.64380413, 19.81789896 ], [ -99.64456809, 19.81789497 ], [ -99.64533384, 19.81861621 ], [ -99.6460978, 19.81861222 ], [ -99.64686173, 19.81861049 ], [ -99.64762569, 19.81860649 ], [ -99.64838962, 19.81860474 ], [ -99.64915358, 19.81860073 ], [ -99.64991751, 19.81859899 ], [ -99.65068143, 19.81859724 ], [ -99.65144539, 19.81859321 ], [ -99.65221357, 19.81931446 ], [ -99.65221544, 19.82003742 ], [ -99.65221969, 19.82076043 ], [ -99.65222155, 19.82148339 ], [ -99.6529874, 19.82220233 ], [ -99.65299166, 19.82292534 ], [ -99.65299352, 19.8236483 ], [ -99.65376178, 19.82436728 ], [ -99.65376365, 19.82509025 ], [ -99.65376791, 19.82581325 ], [ -99.65376978, 19.82653622 ], [ -99.65377405, 19.82725923 ], [ -99.65453989, 19.82798043 ], [ -99.655305790000014, 19.82869936 ], [ -99.65606977, 19.82869758 ], [ -99.65683379, 19.82869353 ], [ -99.65760206, 19.82941476 ], [ -99.65836604, 19.82941297 ], [ -99.65913197, 19.83013188 ], [ -99.65989786, 19.83085305 ], [ -99.66066189, 19.83084899 ], [ -99.66143019, 19.83157019 ], [ -99.66219423, 19.83156612 ], [ -99.66295822, 19.8315643 ], [ -99.66372226, 19.83156022 ], [ -99.66448626, 19.8315584 ], [ -99.66524597, 19.8308313 ], [ -99.66600996, 19.83082947 ], [ -99.666774, 19.83082537 ], [ -99.66754233, 19.83154654 ], [ -99.66830831, 19.83226541 ], [ -99.66907426, 19.83298654 ], [ -99.66984262, 19.8337077 ], [ -99.67060863, 19.83442656 ], [ -99.671377, 19.83514772 ], [ -99.67214302, 19.83586657 ], [ -99.67290902, 19.83658768 ], [ -99.67367745, 19.83730656 ], [ -99.673679430000021, 19.83802954 ], [ -99.67444783, 19.83875069 ], [ -99.6752139, 19.83946952 ], [ -99.67521827, 19.84019254 ], [ -99.67598431, 19.84091364 ], [ -99.6764897, 19.84091119 ], [ -99.67527125, 19.84269252 ], [ -99.67320457, 19.84882234 ], [ -99.67293636, 19.84979728 ], [ -99.67267773, 19.85077179 ], [ -99.67233349, 19.85170986 ], [ -99.67183023, 19.85256277 ], [ -99.67114398, 19.85333128 ], [ -99.67048642, 19.85410193 ], [ -99.67003814, 19.85496021 ], [ -99.669794280000019, 19.85591002 ], [ -99.66963359, 19.85689794 ], [ -99.66954198, 19.85790845 ], [ -99.6694814, 19.85892511 ], [ -99.66942578, 19.85993221 ], [ -99.66938948, 19.86092941 ], [ -99.66938193, 19.86192706 ], [ -99.66940305, 19.86292854 ], [ -99.669426580000021, 19.8639295 ], [ -99.66944288, 19.86493318 ], [ -99.66950217, 19.86594375 ], [ -99.66956386, 19.86695493 ], [ -99.66951096, 19.86794282 ], [ -99.66927422, 19.86889445 ], [ -99.66892997, 19.86982913 ], [ -99.66852603, 19.87075213 ], [ -99.66809104, 19.87166955 ], [ -99.667680100000013, 19.87258111 ], [ -99.66726672, 19.8734949 ], [ -99.66684861, 19.87440465 ], [ -99.66642819, 19.8753087 ], [ -99.66600056, 19.87621433 ], [ -99.66557295, 19.87711827 ], [ -99.66515482, 19.87802802 ], [ -99.66474154, 19.87893387 ], [ -99.66433763, 19.87985177 ], [ -99.66394804, 19.88077272 ], [ -99.66358227, 19.8817014 ], [ -99.66323073, 19.88263824 ], [ -99.66288867, 19.88358032 ], [ -99.66255379, 19.88452252 ], [ -99.66222368, 19.88546648 ], [ -99.66188164, 19.88640687 ], [ -99.66153717, 19.88734891 ], [ -99.66120227, 19.8882911 ], [ -99.66086734, 19.889235 ], [ -99.66053963, 19.8901773 ], [ -99.660226080000015, 19.89113116 ], [ -99.65992934, 19.89208301 ], [ -99.65965403, 19.89304199 ], [ -99.65940258, 19.894007 ], [ -99.65919644, 19.89498348 ], [ -99.65902132, 19.89596781 ], [ -99.65886044, 19.89695972 ], [ -99.65870681, 19.89794778 ], [ -99.65854836, 19.89893746 ], [ -99.65836372, 19.89991768 ], [ -99.6581574, 19.90090379 ], [ -99.65795115, 19.90188594 ], [ -99.65776167, 19.90286835 ], [ -99.65760806, 19.90385415 ], [ -99.65750947, 19.90484589 ], [ -99.65743221, 19.90585101 ], [ -99.65738842, 19.90686003 ], [ -99.65738783, 19.9078652 ], [ -99.65744975, 19.90885886 ], [ -99.65760068, 19.90983181 ], [ -99.65792954, 19.9107701 ], [ -99.65834015, 19.91169323 ], [ -99.65873864, 19.9126241 ], [ -99.65905776, 19.91357188 ], [ -99.65936485, 19.914523429999988 ], [ -99.65966228, 19.91547881 ], [ -99.65997419, 19.91642874 ], [ -99.66031027, 19.91736715 ], [ -99.66067522, 19.91829977 ], [ -99.6610353, 19.91923628 ], [ -99.66137133, 19.92017866 ], [ -99.66167608, 19.92112848 ], [ -99.661958900000016, 19.92209893 ], [ -99.66218645, 19.92307929 ], [ -99.66227726, 19.92406718 ], [ -99.66225543, 19.92505561 ], [ -99.66216398, 19.92605089 ], [ -99.66204141, 19.92704455 ], [ -99.66190434, 19.92804423 ], [ -99.66176732, 19.92904165 ], [ -99.66165912, 19.93003497 ], [ -99.66159149, 19.93103856 ], [ -99.66152389, 19.93203988 ], [ -99.66139424, 19.93302608 ], [ -99.66114986, 19.93399464 ], [ -99.66080507, 19.93494806 ], [ -99.66034874, 19.93583686 ], [ -99.65975283, 19.93661925 ], [ -99.65903595, 19.93732837 ], [ -99.65833317, 19.93805357 ], [ -99.6577321, 19.93885627 ], [ -99.6571973, 19.93970702 ], [ -99.65676237, 19.94060351 ], [ -99.656396390000012, 19.94153224 ], [ -99.65606839, 19.94248194 ], [ -99.65578572, 19.94344312 ], [ -99.65555561, 19.94441417 ], [ -99.65539709, 19.9454039 ], [ -99.655229030000015, 19.94639008 ], [ -99.65500841, 19.94736638 ], [ -99.65476377, 19.94834514 ], [ -99.65446674, 19.9493044 ], [ -99.65406046, 19.95020473 ], [ -99.65351141, 19.95104393 ], [ -99.65285569, 19.95181404 ], [ -99.65214591, 19.95252156 ], [ -99.65139869, 19.95317579 ], [ -99.6506207, 19.95380744 ], [ -99.64984274, 19.95443682 ], [ -99.64907167, 19.95508331 ], [ -99.64834786, 19.95576792 ], [ -99.64765215, 19.95649093 ], [ -99.646980150000019, 19.95722904 ], [ -99.64630091, 19.95796874 ], [ -99.64561484, 19.95868792 ], [ -99.64486036, 19.95934202 ], [ -99.64411983, 19.96002125 ], [ -99.64334088, 19.96070386 ], [ -99.64259518, 19.96140397 ], [ -99.64199916, 19.96218008 ], [ -99.64166241, 19.96307297 ], [ -99.64151835, 19.96405103 ], [ -99.64146457, 19.96507526 ], [ -99.64140357, 19.96610164 ], [ -99.64124252, 19.96709133 ], [ -99.64100741, 19.96806571 ], [ -99.64073168, 19.96903266 ], [ -99.64042014, 19.96999055 ], [ -99.64005399, 19.97091756 ], [ -99.63961892, 19.97181006 ], [ -99.63909114, 19.97265692 ], [ -99.63852772, 19.97348453 ], [ -99.63795468, 19.97431425 ], [ -99.63742205, 19.97516273 ], [ -99.63694882, 19.97604217 ], [ -99.63648973, 19.97693486 ], [ -99.63604742, 19.97782725 ], [ -99.63561213, 19.97872938 ], [ -99.63517923, 19.97963154 ], [ -99.63474396, 19.98053197 ], [ -99.63430153, 19.98143002 ], [ -99.63384248, 19.98231875 ], [ -99.6333691, 19.98320384 ], [ -99.63290534, 19.98408683 ], [ -99.6324391, 19.98497374 ], [ -99.63198958, 19.98586431 ], [ -99.63156855, 19.98677062 ], [ -99.63124989, 19.9877182 ], [ -99.63100518, 19.98868733 ], [ -99.63071498, 19.98965235 ], [ -99.63039385, 19.99060386 ], [ -99.63008942, 19.9915596 ], [ -99.62986864, 19.99253024 ], [ -99.62974587, 19.99351828 ], [ -99.62963252, 19.99451554 ], [ -99.62952392, 19.99551513 ], [ -99.62944158, 19.99652194 ], [ -99.62938084, 19.99752739 ], [ -99.62934172, 19.99853034 ], [ -99.62933383, 19.99952982 ], [ -99.62935728, 20.00051958 ], [ -99.629448010000019, 20.0015019 ], [ -99.62970702, 20.00245965 ], [ -99.63007415, 20.00340548 ], [ -99.63044855, 20.00434747 ], [ -99.63072909, 20.00530895 ], [ -99.63086775, 20.00629316 ], [ -99.63092939, 20.00729429 ], [ -99.630959780000012, 20.00829947 ], [ -99.63099741, 20.0093025 ], [ -99.6311048, 20.01029245 ], [ -99.6312939, 20.01127291 ], [ -99.63158402, 20.01223625 ], [ -99.63195132, 20.01317473 ], [ -99.63239377, 20.01406678 ], [ -99.63288225, 20.01493291 ], [ -99.63340931, 20.01578717 ], [ -99.63393397, 20.01664197 ], [ -99.63444653, 20.01750394 ], [ -99.63491791, 20.01838907 ], [ -99.63536992, 20.01928523 ], [ -99.63584136, 20.02016809 ], [ -99.63636865, 20.02101159 ], [ -99.63699301, 20.02178973 ], [ -99.63768064, 20.02251615 ], [ -99.63838273, 20.02323882 ], [ -99.63904598, 20.02398866 ], [ -99.63962667, 20.02479728 ], [ -99.64014425, 20.02564968 ], [ -99.6406327, 20.02652316 ], [ -99.64110652, 20.02741002 ], [ -99.64158771, 20.02828735 ], [ -99.64209789, 20.02915323 ], [ -99.64261773, 20.0300153 ], [ -99.64262395, 20.03117483 ], [ -99.64238925, 20.0319821 ], [ -99.64255688, 20.03337591 ], [ -99.642556930000012, 20.03447641 ], [ -99.64286881, 20.03557496 ], [ -99.64295296, 20.03652886 ], [ -99.64311273, 20.03740971 ], [ -99.64327367, 20.0383614 ], [ -99.64373794, 20.03938751 ], [ -99.64436322, 20.04012031 ], [ -99.645142060000012, 20.04085039 ], [ -99.64546243, 20.04187654 ], [ -99.64585252, 20.04275585 ], [ -99.64595027, 20.04348046 ], [ -99.64601875, 20.04450893 ], [ -99.64604185, 20.04552706 ], [ -99.64593519, 20.0468339 ], [ -99.64635499, 20.04807523 ], [ -99.649330210000016, 20.05674017 ], [ -99.64921703, 20.06354105 ], [ -99.64909375, 20.06414777 ], [ -99.64865221, 20.0652613 ], [ -99.6482715, 20.06618649 ], [ -99.64789788, 20.06711745 ], [ -99.64754579, 20.06805215 ], [ -99.64722466, 20.0689998 ], [ -99.6469512, 20.06996462 ], [ -99.64670632, 20.07094122 ], [ -99.64645431, 20.07191431 ], [ -99.64617135, 20.07287331 ], [ -99.64582889, 20.0738042 ], [ -99.64569196, 20.07409053 ], [ -99.64540302, 20.07470262 ], [ -99.64492956, 20.0755782 ], [ -99.6434722, 20.07577603 ], [ -99.64246503, 20.07616161 ], [ -99.64174705, 20.07688605 ], [ -99.64134203, 20.07768731 ], [ -99.64066305, 20.07837607 ], [ -99.64006158, 20.07971095 ], [ -99.64019029, 20.08058625 ], [ -99.64011546, 20.08157626 ], [ -99.64019752, 20.08237546 ], [ -99.640306, 20.08330995 ], [ -99.63982518, 20.08419108 ], [ -99.63935159, 20.08507005 ], [ -99.63887082, 20.08594777 ], [ -99.63838295, 20.08681915 ], [ -99.63787845, 20.0876812 ], [ -99.6373454, 20.08852808 ], [ -99.63678143, 20.08935973 ], [ -99.63658211, 20.09046965 ], [ -99.63603252, 20.09143868 ], [ -99.63579749, 20.09225675 ], [ -99.635017340000019, 20.09337463 ], [ -99.63446903, 20.09426886 ], [ -99.633980130000012, 20.09464661 ], [ -99.633537280000013, 20.09554702 ], [ -99.63308021, 20.09643757 ], [ -99.63261366, 20.09732061 ], [ -99.6321495, 20.09820369 ], [ -99.6316686, 20.0990831 ], [ -99.63118777, 20.09995854 ], [ -99.63020287, 20.10097857 ], [ -99.62957792, 20.10172425 ], [ -99.62895384, 20.10269323 ], [ -99.62856406, 20.10343748 ], [ -99.62824995, 20.10410867 ], [ -99.62816709, 20.10514051 ], [ -99.62764816, 20.10599665 ], [ -99.62712921, 20.10685336 ], [ -99.62661746, 20.10770961 ], [ -99.62609847, 20.10856745 ], [ -99.6255891, 20.1094243 ], [ -99.62506063, 20.11027462 ], [ -99.624534550000021, 20.11112555 ], [ -99.62401554, 20.11198338 ], [ -99.62350608, 20.11284363 ], [ -99.62296328, 20.11368862 ], [ -99.6234663, 20.11538421 ], [ -99.62381778, 20.11751098 ], [ -99.62326144, 20.12076833 ], [ -99.62304694, 20.12205032 ], [ -99.62195547, 20.12502727 ], [ -99.619758, 20.12674574 ], [ -99.61401305, 20.12832857 ], [ -99.61206026, 20.12854836 ], [ -99.60778716, 20.13212975 ], [ -99.60128078000001, 20.13778856 ], [ -99.58863147, 20.14410575 ], [ -99.57807147, 20.14936996 ], [ -99.57428779, 20.15716869 ], [ -99.57307482, 20.16309795 ], [ -99.57384065, 20.16417116 ], [ -99.56393268, 20.16950443 ], [ -99.55004043, 20.16145006 ], [ -99.51643272, 20.1656179 ], [ -99.49670897, 20.16839483 ], [ -99.48809543, 20.17533887 ], [ -99.47837686, 20.1783948 ], [ -99.4672587, 20.17756085 ], [ -99.45837096, 20.18339353 ], [ -99.44920728, 20.18394837 ], [ -99.44726359, 20.18311713 ], [ -99.44365417, 20.18644914 ], [ -99.434091847, 20.232457715000013 ], [ -99.415201799999977, 20.26346129 ], [ -99.407519199999967, 20.275768915000018 ], [ -99.399064289999956, 20.270215019000037 ], [ -99.39464282, 20.26191876900003 ], [ -99.248715538999988, 20.23414479000002 ], [ -99.2415775859034, 20.227553092951506 ], [ -99.242858783352801, 20.225385058992476 ], [ -99.24488508307337, 20.22319029093525 ], [ -99.246604399017556, 20.221205890674369 ], [ -99.249148444740257, 20.219884270719341 ], [ -99.251021577593008, 20.219072501272755 ], [ -99.24849569099996, 20.216310597000017 ], [ -99.250001855, 20.216259158 ], [ -99.25392258, 20.20950403 ], [ -99.247951256703502, 20.205381875577793 ], [ -99.248599889529274, 20.202365151264807 ], [ -99.242097754098083, 20.201056927844853 ], [ -99.234760171820739, 20.182946191545742 ], [ -99.229361367470602, 20.169412778397174 ], [ -99.229777859764837, 20.167615510673055 ], [ -99.228326170767332, 20.166840168061171 ], [ -99.22392246, 20.15589529 ], [ -99.223616389999961, 20.147566533000028 ], [ -99.21086867, 20.14311848 ], [ -99.20448316, 20.14672871 ], [ -99.19753097, 20.14534063 ], [ -99.18170104, 20.13256394 ], [ -99.184477070000014, 20.12673128 ], [ -99.18308892, 20.12423104 ], [ -99.171981400000021, 20.12673141 ], [ -99.16170264, 20.11978717 ], [ -99.16503106, 20.11534134 ], [ -99.16058949, 20.11117596 ], [ -99.17281287, 20.10173128 ], [ -99.15225872, 20.07090035 ], [ -99.15170092, 20.06673287 ], [ -99.15392126, 20.06451098 ], [ -99.145307030000012, 20.05978869 ], [ -99.14114154, 20.04867887 ], [ -99.13836391, 20.04923405 ], [ -99.13753232, 20.04590188 ], [ -99.12697355, 20.04506873 ], [ -99.12475252, 20.04256821 ], [ -99.12503642, 20.03201328 ], [ -99.11281258, 20.02979142 ], [ -99.10280998, 20.03228985 ], [ -99.093638960000021, 20.0325684 ], [ -99.09003172, 20.03479053 ], [ -99.08642289, 20.03395676 ], [ -99.07892303, 20.01868 ], [ -99.068363030000015, 20.01867977 ], [ -99.06502859, 20.0292345 ], [ -99.06614207, 20.04006747 ], [ -99.05808729, 20.04812402 ], [ -99.059474810000012, 20.05062244 ], [ -99.05031167, 20.05951241 ], [ -99.04308547, 20.06006717 ], [ -99.038363380000021, 20.06701178 ], [ -99.03308362, 20.06784492 ], [ -99.03113867, 20.0764566 ], [ -99.0039174, 20.07645612 ], [ -99.005861330000016, 20.07090065 ], [ -99.00558823, 20.06534453 ], [ -99.00225209, 20.06312276 ], [ -98.99670009, 20.06367779 ], [ -98.9766954, 20.04562368 ], [ -98.972254150000012, 20.03729081 ], [ -98.95891816, 20.03895782 ], [ -98.95336346, 20.04340183 ], [ -98.94919624, 20.04256831 ], [ -98.929748360000019, 20.04756747 ], [ -98.920305160000012, 20.05479029 ], [ -98.91669634, 20.05534497 ], [ -98.91412258, 20.05637911 ], [ -98.914932, 20.05528474 ], [ -98.90995178, 20.04959301 ], [ -98.91031881, 20.04527961 ], [ -98.91126001, 20.03945452 ], [ -98.91485175, 20.03520677 ], [ -98.91850679, 20.0281651 ], [ -98.92076122, 20.0236362 ], [ -98.92376335, 20.02166367 ], [ -98.9264969, 20.01968564 ], [ -98.92735088, 20.01766952 ], [ -98.92739115, 20.01589308 ], [ -98.92877967, 20.01388777 ], [ -98.93125024, 20.01165047 ], [ -98.93237258, 20.00963976 ], [ -98.93379547, 20.00610951 ], [ -98.93602029, 20.00285161 ], [ -98.939033200000011, 20.00037127 ], [ -98.94121194, 19.99914577 ], [ -98.94422472, 19.99666306 ], [ -98.94481888, 19.99413388 ], [ -98.94459619, 19.9920983 ], [ -98.944899, 19.9905788 ], [ -98.94572389, 19.98983376 ], [ -98.94710616, 19.98808211 ], [ -98.94687778, 19.98629804 ], [ -98.94746787, 19.98351944 ], [ -98.95455595, 19.98009394 ], [ -98.96103593, 19.97971387 ], [ -98.96744744, 19.98239237 ], [ -98.97445537, 19.98253231 ], [ -98.97622091, 19.97593936 ], [ -98.97797492, 19.96985622 ], [ -98.98129857, 19.96584219 ], [ -98.98988927, 19.96754301 ], [ -98.99586324, 19.96562136 ], [ -99.00240999, 19.96218299 ], [ -99.00785562, 19.95974042 ], [ -99.00747388, 19.95259715 ], [ -99.01561469, 19.95020749 ], [ -99.01837517, 19.9472034 ], [ -99.02432786, 19.94630029 ], [ -99.02989524, 19.93825152 ], [ -99.0339228, 19.92660475 ], [ -99.03584066, 19.91287681 ], [ -99.03925012, 19.90478806 ], [ -99.04275049, 19.89262119 ], [ -99.04770913, 19.88762027 ], [ -99.059076200000021, 19.88529131 ], [ -99.06624452, 19.87778281 ], [ -99.07599971, 19.87737633 ], [ -99.08296595, 19.87708557 ], [ -99.09264947, 19.87778158 ], [ -99.11156713, 19.87508568 ], [ -99.1179086780283, 19.873811718820875 ], [ -99.117976349564046, 19.870637879752877 ] ] ] ] } }
]
}
