{
"type": "FeatureCollection",
"name": "humedales",
"crs": { "type": "name", "properties": { "name": "urn:ogc:def:crs:OGC:1.3:CRS84" } },
"features": [
{ "type": "Feature", "properties": { "id": 90, "clvrha": "XIII", "rha": "Aguas del Valle de México", "clvedo": "15", "estado": "México", "clase": "Palustre", "clvhumedal": "RH26Dp_HUM_P_4411", "elemento": "Agua", "superficie": 38, "anio": 2020 }, "geometry": { "type": "MultiPolygon", "coordinates": [ [ [ [ -98.94559461, 19.25147982 ], [ -98.94778138, 19.25351995 ], [ -98.94905214, 19.25541686 ], [ -98.95006301, 19.25718376 ], [ -98.95033909, 19.25949718 ], [ -98.95018096, 19.26067908 ], [ -98.95011109, 19.26086472 ], [ -98.94923435, 19.25897589 ], [ -98.94923427, 19.25897583 ], [ -98.94906726, 19.25882871 ], [ -98.949084810000016, 19.25855247 ], [ -98.94833, 19.25732983 ], [ -98.94835253, 19.25703946 ], [ -98.94817324, 19.25652193 ], [ -98.94748363, 19.25507337 ], [ -98.94748355, 19.25507331 ], [ -98.94607172000002, 19.25361012 ], [ -98.94607165, 19.25361005 ], [ -98.9440771, 19.25346424 ], [ -98.94186126, 19.25255646 ], [ -98.94123613, 19.25251409 ], [ -98.93970162, 19.25207224 ], [ -98.94113179, 19.25132695 ], [ -98.942661580000021, 19.25048481 ], [ -98.94559461, 19.25147982 ] ] ], [ [ [ -99.13205737, 19.75599525 ], [ -99.13336607, 19.75892403 ], [ -99.13584523, 19.7644477 ], [ -99.13584516, 19.76444762 ], [ -99.13336601, 19.75892395 ], [ -99.1320573, 19.75599519 ], [ -99.13075759, 19.75385954 ], [ -99.13075763, 19.75385957 ], [ -99.13205737, 19.75599525 ] ] ], [ [ [ -99.15822994, 19.78615756 ], [ -99.15817802, 19.78615451 ], [ -99.15841612, 19.78694813 ], [ -99.15841609, 19.78694813 ], [ -99.15817795, 19.78615444 ], [ -99.158229910000017, 19.78615749 ], [ -99.15822994, 19.78615756 ] ] ], [ [ [ -99.12083659, 19.77676994 ], [ -99.12108846, 19.7777202 ], [ -99.121088450000016, 19.77772035 ], [ -99.12087937, 19.78058981 ], [ -99.12087935, 19.78059016 ], [ -99.11364257, 19.80181677 ], [ -99.11316369, 19.80317092 ], [ -99.113163050000011, 19.8039745 ], [ -99.11316298, 19.8039744 ], [ -99.11296092, 19.80368617 ], [ -99.11295861, 19.80255684 ], [ -99.11343521, 19.80120093 ], [ -99.12070529, 19.77973253 ], [ -99.12094222, 19.77826838 ], [ -99.12094234, 19.77747287 ], [ -99.12066741, 19.77644872 ], [ -99.12083654, 19.77676984 ], [ -99.12083659, 19.77676994 ] ] ], [ [ [ -99.1540139, 19.79834902 ], [ -99.15245864, 19.79925444 ], [ -99.1509138, 19.79982571 ], [ -99.14972282, 19.80016203 ], [ -99.14924663, 19.80084014 ], [ -99.14877021, 19.80174353 ], [ -99.14733919, 19.80264878 ], [ -99.14583944, 19.80289116 ], [ -99.14583952, 19.80289107 ], [ -99.14733911, 19.80264872 ], [ -99.14877014, 19.80174345 ], [ -99.14924657, 19.80084007 ], [ -99.14972275, 19.80016196 ], [ -99.15091374, 19.79982564 ], [ -99.15245857, 19.79925437 ], [ -99.15401383, 19.79834894 ], [ -99.15777275, 19.7952827 ], [ -99.15777288, 19.79528271 ], [ -99.1540139, 19.79834902 ] ] ], [ [ [ -99.12769223, 19.80737286 ], [ -99.12769228, 19.80737292 ], [ -99.12410515, 19.80698028 ], [ -99.11633308, 19.80644428 ], [ -99.116332880000016, 19.8064442 ], [ -99.12410508, 19.8069802 ], [ -99.12769223, 19.80737286 ] ] ], [ [ [ -99.12994181, 19.8075369 ], [ -99.13066914, 19.8073447 ], [ -99.13124938, 19.80719134 ], [ -99.13255417, 19.80670828 ], [ -99.13255469, 19.80670819 ], [ -99.13124946, 19.8071914 ], [ -99.1306692, 19.80734478 ], [ -99.12994187, 19.80753697 ], [ -99.12853348, 19.80744749 ], [ -99.12853375, 19.80744745 ], [ -99.12994181, 19.8075369 ] ] ] ] } },
{ "type": "Feature", "properties": { "id": 94, "clvrha": "XIII", "rha": "Aguas del Valle de México", "clvedo": "21", "estado": "Puebla", "clase": "Fluvial", "clvhumedal": "RH26Du_HUM_F_4430", "elemento": "Agua", "superficie": 0, "anio": 2020 }, "geometry": { "type": "MultiPolygon", "coordinates": [ [ [ [ -98.3072712, 19.85149555 ], [ -98.30680235, 19.85147053 ], [ -98.30672658, 19.85144454 ], [ -98.3060947, 19.85088805 ], [ -98.30579802, 19.85038105 ], [ -98.30579319, 19.85037901 ], [ -98.30574255, 19.85027222 ], [ -98.305716800000013, 19.85024894 ], [ -98.305494170000017, 19.85015401 ], [ -98.30519906, 19.85008271 ], [ -98.30468085, 19.8498468 ], [ -98.30396416, 19.84942251 ], [ -98.30361969, 19.84914038 ], [ -98.3034213, 19.84885841 ], [ -98.30314905, 19.84874065 ], [ -98.30285292, 19.84852835 ], [ -98.30278825, 19.84841579 ], [ -98.30285388, 19.8485286 ], [ -98.30314997, 19.84874044 ], [ -98.30342173, 19.84885856 ], [ -98.30365694, 19.84905642 ], [ -98.3040124, 19.84933735 ], [ -98.304687250000015, 19.84974513 ], [ -98.30521266, 19.85001287 ], [ -98.30549525, 19.85015421 ], [ -98.30571424, 19.85022752 ], [ -98.30598987, 19.8503843 ], [ -98.30620628, 19.85067102 ], [ -98.30624876, 19.85091636 ], [ -98.30637694, 19.85110354 ], [ -98.30655711, 19.85126293 ], [ -98.30685035, 19.85141054 ], [ -98.30727158000002, 19.8514955 ], [ -98.30734379, 19.85149579 ], [ -98.3072712, 19.85149555 ] ] ] ] } },
{ "type": "Feature", "properties": { "id": 104, "clvrha": "XIII", "rha": "Aguas del Valle de México", "clvedo": "13", "estado": "Hidalgo", "clase": "Lacustre", "clvhumedal": "RH26Dr_HUM_L_4420", "elemento": "Agua", "superficie": 71, "anio": 2020 }, "geometry": { "type": "MultiPolygon", "coordinates": [ [ [ [ -99.1179254, 20.48871517 ], [ -99.11732976, 20.48746867 ], [ -99.11732969, 20.48746861 ], [ -99.11660932, 20.48679111 ], [ -99.11660925, 20.48679104 ], [ -99.11600467, 20.48611411 ], [ -99.11600461, 20.48611403 ], [ -99.11543815, 20.48568611 ], [ -99.11540706, 20.48566264 ], [ -99.11432358, 20.48566342 ], [ -99.11408568, 20.48611537 ], [ -99.11360681, 20.48668493 ], [ -99.11351788, 20.48670515 ], [ -99.11240011, 20.48550995 ], [ -99.11345013, 20.48474057 ], [ -99.11354701, 20.48437387 ], [ -99.11369085, 20.48383628 ], [ -99.11416981, 20.48270688 ], [ -99.114105810000012, 20.48209788 ], [ -99.11409973, 20.48203898 ], [ -99.11383863, 20.48171485 ], [ -99.11311804, 20.48103737 ], [ -99.11335648, 20.48091997 ], [ -99.11345928, 20.48090961 ], [ -99.11318937, 20.48065544 ], [ -99.11349674, 20.48029782 ], [ -99.11416753, 20.48022181 ], [ -99.11429028000002, 20.4802213 ], [ -99.11429029, 20.4801592 ], [ -99.11383468, 20.47990755 ], [ -99.11394687, 20.47977408 ], [ -99.11489865, 20.47866666 ], [ -99.115483770000012, 20.47797145 ], [ -99.11551114, 20.47809933 ], [ -99.11611509, 20.47787304 ], [ -99.11742974, 20.47775462 ], [ -99.11875381, 20.47775375 ], [ -99.11883393, 20.47776535 ], [ -99.12142781, 20.47922116 ], [ -99.12174118, 20.47980841 ], [ -99.12139418, 20.47990268 ], [ -99.12043636, 20.48035516 ], [ -99.12043703, 20.48091531 ], [ -99.12127337, 20.48181828 ], [ -99.12055371, 20.48204468 ], [ -99.11995917, 20.48238821 ], [ -99.11959596, 20.48284052 ], [ -99.11948119, 20.48362698 ], [ -99.11972235, 20.48396999 ], [ -99.11987473, 20.48399283 ], [ -99.12044232, 20.48407794 ], [ -99.12151596, 20.48396873 ], [ -99.12175683, 20.48407697 ], [ -99.12191519, 20.48466917 ], [ -99.12185517, 20.48511554 ], [ -99.12151963, 20.48543269 ], [ -99.12020568, 20.48622876 ], [ -99.1193642, 20.48758485 ], [ -99.11800442, 20.48865321 ], [ -99.11800438, 20.48865311 ], [ -99.1179254, 20.48871517 ] ] ] ] } },
{ "type": "Feature", "properties": { "id": 111, "clvrha": "XIII", "rha": "Aguas del Valle de México", "clvedo": "09", "estado": "Ciudad de México", "clase": "Palustre", "clvhumedal": "RH26Dp_HUM_P_4414", "elemento": "Suelo-Agua", "superficie": 217, "anio": 2020 }, "geometry": { "type": "MultiPolygon", "coordinates": [ [ [ [ -98.97999773, 19.27144322 ], [ -98.97938264, 19.26983438 ], [ -98.97938258, 19.26983433 ], [ -98.97938256, 19.2698343 ], [ -98.97798257, 19.26874949 ], [ -98.976165810000012, 19.26858654 ], [ -98.97459313, 19.26882576 ], [ -98.97328073, 19.26815355 ], [ -98.97336301, 19.26769924 ], [ -98.97491763, 19.2594906 ], [ -98.97541322, 19.25753508 ], [ -98.97592579, 19.2555125 ], [ -98.97602086, 19.25541368 ], [ -98.97692582, 19.25483319 ], [ -98.97712905, 19.25477388 ], [ -98.97813316, 19.25448081 ], [ -98.97928591, 19.25487879 ], [ -98.98019818, 19.25539172 ], [ -98.98059093, 19.25578494 ], [ -98.98111206, 19.25630672 ], [ -98.98117443, 19.25682449 ], [ -98.98069791, 19.25786143 ], [ -98.980159070000013, 19.25872669 ], [ -98.98046941, 19.2599921 ], [ -98.98114276, 19.26102477 ], [ -98.98114283, 19.26102483 ], [ -98.9820561, 19.26211169 ], [ -98.98205616, 19.26211176 ], [ -98.98254396, 19.26268571 ], [ -98.98254402, 19.26268579 ], [ -98.98387778, 19.26267692 ], [ -98.98484566, 19.26218819 ], [ -98.98514401, 19.26203754 ], [ -98.98647367, 19.26156975 ], [ -98.987271100000015, 19.26306133 ], [ -98.98709607, 19.26415488 ], [ -98.98692053, 19.26547881 ], [ -98.98717081, 19.26657258 ], [ -98.98760007, 19.26729584 ], [ -98.98778238, 19.26760299 ], [ -98.98845921, 19.26921158 ], [ -98.98845927, 19.26921164 ], [ -98.98943571, 19.27024246 ], [ -98.98943578, 19.27024254 ], [ -98.99041267, 19.27150085 ], [ -98.99011449, 19.27253768 ], [ -98.98902826, 19.27289041 ], [ -98.98769212, 19.27214898 ], [ -98.986418380000018, 19.27192532 ], [ -98.98466562, 19.27233855 ], [ -98.98273082, 19.27286699 ], [ -98.98115839, 19.27287353 ], [ -98.97999773, 19.27144322 ] ] ], [ [ [ -98.97341162, 19.28298139 ], [ -98.97456464, 19.28337679 ], [ -98.97547794, 19.2843509 ], [ -98.97530733, 19.28579002 ], [ -98.97446476, 19.28665773 ], [ -98.97380372, 19.28740784 ], [ -98.97289844, 19.28798825 ], [ -98.9705422, 19.28857525 ], [ -98.96983278, 19.28866713 ], [ -98.97027794, 19.28579823 ], [ -98.97056479, 19.28394946 ], [ -98.97105734, 19.283914 ], [ -98.97256645, 19.2833314 ], [ -98.97341162, 19.28298139 ] ] ] ] } },
{ "type": "Feature", "properties": { "id": 117, "clvrha": "XIII", "rha": "Aguas del Valle de México", "clvedo": "15", "estado": "México", "clase": "Palustre", "clvhumedal": "RH26Dp_HUM_P_4414", "elemento": "Suelo-Agua", "superficie": 1529, "anio": 2020 }, "geometry": { "type": "MultiPolygon", "coordinates": [ [ [ [ -98.96172203, 19.28240942 ], [ -98.961554, 19.27970255 ], [ -98.96220192, 19.27550914 ], [ -98.96399834, 19.26376242 ], [ -98.96565546, 19.26294714 ], [ -98.9658299, 19.26196886 ], [ -98.96576548, 19.26133616 ], [ -98.96569905, 19.2604729 ], [ -98.96557425, 19.25966856 ], [ -98.96568991, 19.25897722 ], [ -98.96580633, 19.25805532 ], [ -98.96640428, 19.25713131 ], [ -98.96664397, 19.25655519 ], [ -98.96748787, 19.25603333 ], [ -98.968275, 19.25614435 ], [ -98.96894475, 19.25648569 ], [ -98.96985308, 19.25682728 ], [ -98.97112684, 19.25705099 ], [ -98.97233971, 19.25721611 ], [ -98.97372997, 19.25703569 ], [ -98.97427552000002, 19.25686178 ], [ -98.97529724, 19.25616587 ], [ -98.97592579, 19.2555125 ], [ -98.97541322, 19.25753508 ], [ -98.97491763, 19.2594906 ], [ -98.97336301, 19.26769924 ], [ -98.97328073, 19.26815355 ], [ -98.97325604, 19.26814091 ], [ -98.97161322, 19.26682783 ], [ -98.97052556, 19.26723656 ], [ -98.96902209, 19.26873869 ], [ -98.96799884, 19.26989555 ], [ -98.96740633, 19.27173886 ], [ -98.96633475, 19.27450679 ], [ -98.96549476, 19.27600465 ], [ -98.965325, 19.27761556 ], [ -98.965453190000019, 19.27870919 ], [ -98.96618814, 19.27997015 ], [ -98.9661882, 19.27997022 ], [ -98.9670407, 19.28088545 ], [ -98.96704077, 19.28088552 ], [ -98.96777185, 19.28157251 ], [ -98.96777192, 19.28157259 ], [ -98.96886758, 19.2827183 ], [ -98.96923942, 19.28369225 ], [ -98.96923946, 19.28369226 ], [ -98.96923948, 19.28369232 ], [ -98.97020903, 19.28397508 ], [ -98.97056479, 19.28394946 ], [ -98.97027794, 19.28579823 ], [ -98.96983278, 19.28866713 ], [ -98.96914961, 19.2887556 ], [ -98.96727339, 19.28899709 ], [ -98.96606353, 19.28900134 ], [ -98.96418401, 19.2885513 ], [ -98.96309011, 19.28798186 ], [ -98.96229731, 19.28695111 ], [ -98.96156101, 19.28563148 ], [ -98.96160935, 19.28378997 ], [ -98.96172203, 19.28240942 ] ] ], [ [ [ -99.007562780000015, 19.43307426 ], [ -99.00767778, 19.43273104 ], [ -99.00804038, 19.43307466 ], [ -99.00862947, 19.43397785 ], [ -99.00934588, 19.43408661 ], [ -99.00994566, 19.43352641 ], [ -99.01053645, 19.43239621 ], [ -99.01113641, 19.43182694 ], [ -99.01208904, 19.43194433 ], [ -99.01351708, 19.43205299 ], [ -99.01399412, 19.43262202 ], [ -99.01482222, 19.43329995 ], [ -99.01518539, 19.43318251 ], [ -99.01529816, 19.43239629 ], [ -99.01518428, 19.43160051 ], [ -99.01553787, 19.43126651 ], [ -99.0160129, 19.43149227 ], [ -99.016087350000021, 19.43196577 ], [ -99.01631148, 19.43207176 ], [ -99.01643514, 19.43285806 ], [ -99.01641016, 19.43295324 ], [ -99.01641013, 19.43295336 ], [ -99.01641555, 19.43298782 ], [ -99.01620172, 19.43380282 ], [ -99.01620175, 19.43380306 ], [ -99.01631153000001, 19.435009 ], [ -99.01635473, 19.43513182 ], [ -99.01720388, 19.43533337 ], [ -99.017566530000011, 19.43589333 ], [ -99.01755925, 19.43600036 ], [ -99.01786514, 19.43647317 ], [ -99.01774194, 19.43828032 ], [ -99.01768338, 19.43986221 ], [ -99.01766864, 19.43987225 ], [ -99.01766856, 19.4398723 ], [ -99.01766408, 19.43999181 ], [ -99.01534158, 19.44157372 ], [ -99.01236878, 19.44372498 ], [ -99.01129188, 19.44428512 ], [ -99.01033858, 19.44440257 ], [ -99.0091495, 19.44428517 ], [ -99.00819675, 19.44349908 ], [ -99.00819668, 19.44349901 ], [ -99.00748077, 19.44292975 ], [ -99.0074807, 19.44292969 ], [ -99.00750115, 19.44280077 ], [ -99.00750001, 19.44279986 ], [ -99.0075482, 19.44249623 ], [ -99.00720159, 19.44222033 ], [ -99.00732634, 19.44143436 ], [ -99.00732546, 19.44099875 ], [ -99.00724359, 19.44089613 ], [ -99.00724352, 19.44089607 ], [ -99.006413, 19.44021815 ], [ -99.00641292, 19.44021809 ], [ -99.00581442, 19.43965784 ], [ -99.00581436, 19.43965779 ], [ -99.00533695, 19.43886219 ], [ -99.00536046, 19.43873982 ], [ -99.00535653, 19.43873325 ], [ -99.00536842, 19.4386712 ], [ -99.00505816, 19.43815351 ], [ -99.00529556, 19.4369155 ], [ -99.00553575, 19.4354425 ], [ -99.00577315, 19.43431268 ], [ -99.00648738000001, 19.43397848 ], [ -99.00708717, 19.43363466 ], [ -99.007562780000015, 19.43307426 ] ] ], [ [ [ -99.01755659, 19.44533807 ], [ -99.01750478, 19.44528465 ], [ -99.01763342, 19.44514567 ], [ -99.01720617, 19.44470527 ], [ -99.018042750000021, 19.44380136 ], [ -99.01851993, 19.441207519999988 ], [ -99.02412315, 19.43800248 ], [ -99.02839662, 19.4355578 ], [ -99.03018771, 19.43566606 ], [ -99.03257142, 19.4386027 ], [ -99.03352384, 19.43928013 ], [ -99.03447609, 19.44007537 ], [ -99.03554374, 19.43984936 ], [ -99.03638186, 19.44018355 ], [ -99.03781012, 19.43995723 ], [ -99.03899968, 19.43939656 ], [ -99.03922551, 19.44001067 ], [ -99.03929872, 19.43997617 ], [ -99.040252480000021, 19.44256963 ], [ -99.04020153, 19.44261003 ], [ -99.0402015, 19.44261006 ], [ -99.04023489, 19.44270078 ], [ -99.03809119, 19.44440027 ], [ -99.03594906, 19.44417459 ], [ -99.03451848, 19.44405737 ], [ -99.033328920000017, 19.44450943 ], [ -99.03225251, 19.44586502 ], [ -99.03180963, 19.4458653 ], [ -99.03118495, 19.44586553 ], [ -99.03058361, 19.44507889 ], [ -99.03058355, 19.44507881 ], [ -99.030657780000013, 19.44502096 ], [ -99.03060228, 19.44494836 ], [ -99.03069253, 19.44487799 ], [ -99.03030341, 19.44436899 ], [ -99.03218046, 19.44290541 ], [ -99.0315367, 19.44202436 ], [ -99.031536650000021, 19.44202429 ], [ -99.02927674, 19.43863578 ], [ -99.02927668, 19.43863569 ], [ -99.02713521, 19.44191631 ], [ -99.0234392, 19.44372416 ], [ -99.02275111, 19.44502739 ], [ -99.02275113, 19.44502756 ], [ -99.02280215, 19.4454862 ], [ -99.02458772, 19.44538206 ], [ -99.02482549, 19.44596497 ], [ -99.02488649, 19.44596139 ], [ -99.02631683, 19.44946828 ], [ -99.02625618, 19.44949462 ], [ -99.02625614, 19.44949464 ], [ -99.02629848, 19.44959845 ], [ -99.02213433, 19.45140632 ], [ -99.02046544, 19.44908386 ], [ -99.02046536, 19.44908377 ], [ -99.01880076, 19.44677044 ], [ -99.01748584, 19.4454146 ], [ -99.017485780000015, 19.44541454 ], [ -99.01755659, 19.44533807 ] ] ], [ [ [ -98.99827573, 19.46413722 ], [ -98.9983174, 19.46428468 ], [ -98.998574, 19.46471679 ], [ -98.99892627, 19.46596363 ], [ -98.99928852, 19.46697618 ], [ -98.999245, 19.46702798 ], [ -98.99924497, 19.46702801 ], [ -98.99927175, 19.46710281 ], [ -98.99855799, 19.46795237 ], [ -98.99748135, 19.46868437 ], [ -98.99593814, 19.46891018 ], [ -98.99498493, 19.46902771 ], [ -98.99438338, 19.46857563 ], [ -98.99438333, 19.46857559 ], [ -98.99355599, 19.46676804 ], [ -98.9935067, 19.46656971 ], [ -98.99327449, 19.46606226 ], [ -98.99279632, 19.46413707 ], [ -98.99494192, 19.46335105 ], [ -98.99660718, 19.46289871 ], [ -98.99719975, 19.46278135 ], [ -98.99767466, 19.46312496 ], [ -98.99827573, 19.46413722 ] ] ], [ [ [ -98.95132713, 19.47446201 ], [ -98.95055553, 19.47263375 ], [ -98.94936445, 19.46969595 ], [ -98.94936349, 19.46968864 ], [ -98.94908131, 19.46899235 ], [ -98.94884478, 19.46718461 ], [ -98.94896862, 19.46560336 ], [ -98.94944595, 19.46413006 ], [ -98.95051356, 19.46232316 ], [ -98.9517045, 19.46119336 ], [ -98.95360928, 19.46029035 ], [ -98.95575505, 19.45950432 ], [ -98.95861331, 19.45825793 ], [ -98.96326292, 19.45679485 ], [ -98.9685031, 19.45487052 ], [ -98.97445731, 19.45272978 ], [ -98.97755387, 19.45160054 ], [ -98.9792214, 19.4512572 ], [ -98.98064943, 19.45137466 ], [ -98.98243304, 19.45182716 ], [ -98.98374593, 19.4526135 ], [ -98.98481264, 19.45340852 ], [ -98.98565242, 19.45431285 ], [ -98.98636542, 19.45544236 ], [ -98.98647017, 19.45571296 ], [ -98.98666583, 19.45602188 ], [ -98.98749258, 19.45816404 ], [ -98.9896371, 19.46336043 ], [ -98.99082874, 19.46607228 ], [ -98.99082786, 19.4668675 ], [ -98.99081118, 19.46690705 ], [ -98.99081111, 19.46690721 ], [ -98.99081128, 19.46699373 ], [ -98.990334840000017, 19.46812331 ], [ -98.9900699, 19.46854125 ], [ -98.98961989, 19.46925266 ], [ -98.98855332, 19.470265 ], [ -98.960920270000017, 19.48054456 ], [ -98.95925252, 19.48110446 ], [ -98.95806232, 19.48144754 ], [ -98.95687072, 19.48122119 ], [ -98.95544276, 19.48087734 ], [ -98.95401244, 19.48009074 ], [ -98.95317554, 19.47884332 ], [ -98.95132719, 19.47446209 ], [ -98.951327150000012, 19.4744621 ], [ -98.95132713, 19.47446201 ] ] ], [ [ [ -99.16562423, 19.78659197 ], [ -99.15822994, 19.78615756 ], [ -99.158229910000017, 19.78615749 ], [ -99.16562416, 19.78659191 ], [ -99.16562423, 19.78659197 ] ] ], [ [ [ -99.16211518, 19.78930635 ], [ -99.16127718, 19.79133932 ], [ -99.15794053, 19.79514595 ], [ -99.15777288, 19.79528271 ], [ -99.15777275, 19.7952827 ], [ -99.15794046, 19.79514588 ], [ -99.16127712, 19.79133925 ], [ -99.16211511, 19.78930627 ], [ -99.16222798, 19.78795199 ], [ -99.16222806, 19.78795202 ], [ -99.16211518, 19.78930635 ] ] ] ] } },
{ "type": "Feature", "properties": { "id": 118, "clvrha": "XIII", "rha": "Aguas del Valle de México", "clvedo": "21", "estado": "Puebla", "clase": "Palustre", "clvhumedal": "RH26Du_HUM_P_4437", "elemento": "Suelo-Agua", "superficie": 0, "anio": 2020 }, "geometry": { "type": "MultiPolygon", "coordinates": [ [ [ [ -98.30530465, 19.84618503 ], [ -98.30514997, 19.84616722 ], [ -98.30530471, 19.8461847 ], [ -98.30530465, 19.84618503 ] ] ] ] } },
{ "type": "Feature", "properties": { "id": 126, "clvrha": "XIII", "rha": "Aguas del Valle de México", "clvedo": "15", "estado": "México", "clase": "Palustre", "clvhumedal": "RH26Dq_HUM_P_4417", "elemento": "Suelo-Agua", "superficie": 23, "anio": 2020 }, "geometry": { "type": "MultiPolygon", "coordinates": [ [ [ [ -99.05954845, 19.90816133 ], [ -99.05952842, 19.9081549 ], [ -99.05952836, 19.90815493 ], [ -99.05820952, 19.9077317 ], [ -99.05819636, 19.90773436 ], [ -99.05707109, 19.90737166 ], [ -99.057071, 19.90737163 ], [ -99.056691990000019, 19.90782474 ], [ -99.05663654, 19.90789104 ], [ -99.0566196, 19.90788527 ], [ -99.05661517, 19.90789059 ], [ -99.05571599, 19.90758356 ], [ -99.0559451, 19.90716712 ], [ -99.05594175, 19.90716597 ], [ -99.05553736, 19.90702778 ], [ -99.05567712, 19.90677152 ], [ -99.05572502, 19.90668462 ], [ -99.05627332, 19.90568995 ], [ -99.057551930000017, 19.90507499 ], [ -99.06060047, 19.90461336 ], [ -99.06112432, 19.90332977 ], [ -99.06213867, 19.90451339 ], [ -99.0632094, 19.90575081 ], [ -99.06306918, 19.9059048 ], [ -99.0631624, 19.90601181 ], [ -99.06316247, 19.90601188 ], [ -99.06342046, 19.90630775 ], [ -99.06223806, 19.90760955 ], [ -99.06220781, 19.90760271 ], [ -99.06220777, 19.90760276 ], [ -99.06100123, 19.90732997 ], [ -99.0609941, 19.90733405 ], [ -99.06099396, 19.90733402 ], [ -99.05954845, 19.90816133 ] ] ] ] } },
{ "type": "Feature", "properties": { "id": 132, "clvrha": "XIII", "rha": "Aguas del Valle de México", "clvedo": "15", "estado": "México", "clase": "Palustre", "clvhumedal": "RH12Am_HUM_P_1674", "elemento": "Suelo-Agua", "superficie": 19, "anio": 2020 }, "geometry": { "type": "MultiPolygon", "coordinates": [ [ [ [ -99.68860401, 19.78010024 ], [ -99.68865554, 19.77991146 ], [ -99.68868311, 19.77971034 ], [ -99.68868758, 19.77950472 ], [ -99.688668, 19.77930226 ], [ -99.68862152, 19.77911098 ], [ -99.688543220000014, 19.77893973 ], [ -99.68844611, 19.77881154 ], [ -99.68841826000002, 19.77878393 ], [ -99.68834709, 19.77871334 ], [ -99.68844674, 19.77812264 ], [ -99.68966141, 19.77876894 ], [ -99.69073517, 19.77813036 ], [ -99.6918331, 19.77747684 ], [ -99.69273321, 19.77789848 ], [ -99.69295169, 19.77848221 ], [ -99.69300952, 19.77850934 ], [ -99.69352767, 19.77988961 ], [ -99.69374471, 19.78046773 ], [ -99.69339543, 19.78034998 ], [ -99.69339539, 19.78034997 ], [ -99.6934499, 19.78049497 ], [ -99.69178958, 19.77993624 ], [ -99.6917895, 19.77993625 ], [ -99.69125185, 19.78008869 ], [ -99.69118748, 19.78004966 ], [ -99.69118739, 19.78004959 ], [ -99.69095263, 19.780116 ], [ -99.69078733, 19.78001562 ], [ -99.6904802, 19.78041686 ], [ -99.69023003, 19.7823155 ], [ -99.69045098, 19.78508925 ], [ -99.6902368, 19.78520455 ], [ -99.69016352, 19.78513959 ], [ -99.69014479, 19.78512206 ], [ -99.69003985, 19.78502373 ], [ -99.68993091, 19.78489448 ], [ -99.68983307, 19.78472265 ], [ -99.68975736, 19.78453097 ], [ -99.68957557, 19.78391695 ], [ -99.68950339, 19.78372359 ], [ -99.68941167, 19.7835484 ], [ -99.68931102, 19.78341397 ], [ -99.68908763, 19.78316577 ], [ -99.68898656, 19.78303215 ], [ -99.68889418, 19.78285858 ], [ -99.68882143, 19.78266752 ], [ -99.68864424, 19.78206417 ], [ -99.68857558, 19.78187692 ], [ -99.68849037, 19.78170956 ], [ -99.68839913, 19.78158388 ], [ -99.68821101, 19.78136129 ], [ -99.68813975, 19.78124638 ], [ -99.68809908, 19.78111989 ], [ -99.68808934, 19.780986439999989 ], [ -99.68810935, 19.78085321 ], [ -99.68815948, 19.78072743 ], [ -99.688238610000013, 19.78061369 ], [ -99.68843542, 19.78039345 ], [ -99.688525930000011, 19.78026819 ], [ -99.68860401, 19.78010024 ] ] ] ] } },
{ "type": "Feature", "properties": { "id": 143, "clvrha": "XIII", "rha": "Aguas del Valle de México", "clvedo": "15", "estado": "México", "clase": "Lacustre", "clvhumedal": "RH26Dp_HUM_L_4410", "elemento": "Agua-Vegetación", "superficie": 1322, "anio": 2020 }, "geometry": { "type": "MultiPolygon", "coordinates": [ [ [ [ -99.12298658, 19.77180344 ], [ -99.12287858, 19.76966589 ], [ -99.12307546, 19.76921855 ], [ -99.12599314, 19.76256294 ], [ -99.12922661, 19.75954561 ], [ -99.13019846, 19.7595459 ], [ -99.13419709, 19.76414306 ], [ -99.13635918, 19.76843347 ], [ -99.13970768, 19.77118696 ], [ -99.14326733, 19.77005521 ], [ -99.147371390000018, 19.77046798 ], [ -99.15093604, 19.77342928 ], [ -99.15450442, 19.77976074 ], [ -99.15526559, 19.78547965 ], [ -99.15451169, 19.78752342 ], [ -99.15235576, 19.78997373 ], [ -99.15257413, 19.79314634 ], [ -99.15182014, 19.7951901 ], [ -99.14583952, 19.80289107 ], [ -99.14583944, 19.80289116 ], [ -99.14519446, 19.8029954 ], [ -99.14138044, 19.80390518 ], [ -99.13899678, 19.80436069 ], [ -99.13744502, 19.804923359999989 ], [ -99.13399397, 19.80617534 ], [ -99.13255469, 19.80670819 ], [ -99.13255417, 19.80670828 ], [ -99.12853375, 19.80744745 ], [ -99.12853348, 19.80744749 ], [ -99.12815244, 19.80742329 ], [ -99.12769228, 19.80737292 ], [ -99.12769223, 19.80737286 ], [ -99.12397414, 19.80308172 ], [ -99.11996981, 19.79307167 ], [ -99.12087935, 19.78059016 ], [ -99.12087937, 19.78058981 ], [ -99.12095183, 19.78037724 ], [ -99.12119246, 19.7789155 ], [ -99.121194930000016, 19.77812206 ], [ -99.121088450000016, 19.77772035 ], [ -99.12108846, 19.7777202 ], [ -99.1212569, 19.77540854 ], [ -99.12191601, 19.77395286 ], [ -99.12298658, 19.77180344 ] ] ] ] } },
{ "type": "Feature", "properties": { "id": 144, "clvrha": "XIII", "rha": "Aguas del Valle de México", "clvedo": "15", "estado": "México", "clase": "Palustre", "clvhumedal": "RH26Dp_HUM_P_4412", "elemento": "Agua-Vegetación", "superficie": 476, "anio": 2020 }, "geometry": { "type": "MultiPolygon", "coordinates": [ [ [ [ -99.12108846, 19.7777202 ], [ -99.12083659, 19.77676994 ], [ -99.12120049, 19.77553311 ], [ -99.1212569, 19.77540854 ], [ -99.12108846, 19.7777202 ] ] ], [ [ [ -99.15450442, 19.77976074 ], [ -99.15093604, 19.77342928 ], [ -99.147371390000018, 19.77046798 ], [ -99.14326733, 19.77005521 ], [ -99.13970768, 19.77118696 ], [ -99.13635918, 19.76843347 ], [ -99.13419709, 19.76414306 ], [ -99.13019846, 19.7595459 ], [ -99.12922661, 19.75954561 ], [ -99.12599314, 19.76256294 ], [ -99.12661855, 19.76113624 ], [ -99.12837519, 19.75713087 ], [ -99.12933127, 19.75453935 ], [ -99.12968434, 19.75363581 ], [ -99.13028373, 19.75351745 ], [ -99.13075759, 19.75385954 ], [ -99.1320573, 19.75599519 ], [ -99.13336601, 19.75892395 ], [ -99.13584516, 19.76444762 ], [ -99.13584523, 19.7644477 ], [ -99.1365562, 19.7652307 ], [ -99.13655626000002, 19.76523076 ], [ -99.1383427, 19.76612852 ], [ -99.14416338, 19.76701552 ], [ -99.14844666, 19.7660755 ], [ -99.16306844, 19.78321095 ], [ -99.16306851, 19.78321103 ], [ -99.16517881, 19.78600275 ], [ -99.15805516, 19.78557757 ], [ -99.158229910000017, 19.78615749 ], [ -99.15817795, 19.78615444 ], [ -99.15841609, 19.78694813 ], [ -99.15841612, 19.78694813 ], [ -99.15841615, 19.7869482 ], [ -99.15984526, 19.78717109 ], [ -99.16207094, 19.78790053 ], [ -99.16200177, 19.78873676 ], [ -99.16116434, 19.79077107 ], [ -99.157826, 19.79457901 ], [ -99.15709768, 19.79517162 ], [ -99.15777275, 19.7952827 ], [ -99.15401383, 19.79834894 ], [ -99.15245857, 19.79925437 ], [ -99.15091374, 19.79982564 ], [ -99.14972275, 19.80016196 ], [ -99.14924657, 19.80084007 ], [ -99.14877014, 19.80174345 ], [ -99.14733911, 19.80264872 ], [ -99.14583952, 19.80289107 ], [ -99.15182014, 19.7951901 ], [ -99.15257413, 19.79314634 ], [ -99.15235576, 19.78997373 ], [ -99.15451169, 19.78752342 ], [ -99.15526559, 19.78547965 ], [ -99.15450442, 19.77976074 ] ] ], [ [ [ -99.11996981, 19.79307167 ], [ -99.12397414, 19.80308172 ], [ -99.12769223, 19.80737286 ], [ -99.12410508, 19.8069802 ], [ -99.116332880000016, 19.8064442 ], [ -99.11624934, 19.80643844 ], [ -99.114823540000017, 19.80587334 ], [ -99.11441626, 19.80563523 ], [ -99.11387347, 19.80531606 ], [ -99.11316279, 19.80429874 ], [ -99.113163050000011, 19.8039745 ], [ -99.11316369, 19.80317092 ], [ -99.11364257, 19.80181677 ], [ -99.12087935, 19.78059016 ], [ -99.11996981, 19.79307167 ] ] ], [ [ [ -99.13124938, 19.80719134 ], [ -99.13066914, 19.8073447 ], [ -99.12994181, 19.8075369 ], [ -99.12853375, 19.80744745 ], [ -99.13255417, 19.80670828 ], [ -99.13124938, 19.80719134 ] ] ] ] } },
{ "type": "Feature", "properties": { "id": 145, "clvrha": "XIII", "rha": "Aguas del Valle de México", "clvedo": "09", "estado": "Ciudad de México", "clase": "Palustre", "clvhumedal": "RH26Dp_HUM_P_4413", "elemento": "Suelo", "superficie": 136, "anio": 2020 }, "geometry": { "type": "MultiPolygon", "coordinates": [ [ [ [ -99.05556373, 19.2459586 ], [ -99.05568892, 19.24600862 ], [ -99.05579862, 19.24609014 ], [ -99.05589855, 19.24619366 ], [ -99.05610212, 19.24642364 ], [ -99.05634178, 19.24664135 ], [ -99.05646019, 19.24675565 ], [ -99.05656468, 19.24688418 ], [ -99.05665814, 19.24705583 ], [ -99.05673007, 19.24724774 ], [ -99.05690396, 19.24786173 ], [ -99.05697533, 19.24805362 ], [ -99.057068, 19.24822574 ], [ -99.05717155, 19.24835557 ], [ -99.05739436, 19.24857075 ], [ -99.05618319, 19.24840494 ], [ -99.05567923, 19.24691371 ], [ -99.05535249, 19.24594729 ], [ -99.05542901, 19.24594025 ], [ -99.05556373, 19.2459586 ] ] ], [ [ [ -99.03053977, 19.25916541 ], [ -99.02949392, 19.26212095 ], [ -99.028512260000014, 19.26529349 ], [ -99.0251227, 19.26569145 ], [ -99.027133910000018, 19.26214836 ], [ -99.02829556, 19.25903012 ], [ -99.03053977, 19.25916541 ] ] ], [ [ [ -98.98727118, 19.26306141 ], [ -98.98709615, 19.26415494 ], [ -98.98692059, 19.26547887 ], [ -98.98717087, 19.26657266 ], [ -98.98760011, 19.26729587 ], [ -98.98760007, 19.26729584 ], [ -98.98717081, 19.26657258 ], [ -98.98692053, 19.26547881 ], [ -98.98709607, 19.26415488 ], [ -98.987271100000015, 19.26306133 ], [ -98.98647367, 19.26156975 ], [ -98.98727118, 19.26306141 ] ] ], [ [ [ -99.00915955, 19.27065432 ], [ -99.00939617, 19.26952474 ], [ -99.01023404, 19.26918118 ], [ -99.00952145, 19.2685034 ], [ -99.00904279, 19.26785768 ], [ -99.00908157, 19.2677475 ], [ -99.01455916, 19.26789756 ], [ -99.019296550000021, 19.26904514 ], [ -99.01837229, 19.27216322 ], [ -99.02027811, 19.27363637 ], [ -99.01898247, 19.27653769 ], [ -99.01613542, 19.27668242 ], [ -99.01513586, 19.27871603 ], [ -99.011144890000011, 19.27886691 ], [ -99.00747668, 19.27230688 ], [ -99.00780702, 19.27136846 ], [ -99.00868364, 19.27178406 ], [ -99.00915955, 19.27065432 ] ] ], [ [ [ -99.100185960000019, 19.30320958 ], [ -99.10023165, 19.3025598 ], [ -99.10060805, 19.30238966 ], [ -99.1005622, 19.30303943 ], [ -99.100185960000019, 19.30320958 ] ] ] ] } },
{ "type": "Feature", "properties": { "id": 146, "clvrha": "XIII", "rha": "Aguas del Valle de México", "clvedo": "15", "estado": "México", "clase": "Palustre", "clvhumedal": "RH26Dp_HUM_P_4416", "elemento": "Suelo-Vegetación", "superficie": 772, "anio": 2020 }, "geometry": { "type": "MultiPolygon", "coordinates": [ [ [ [ -98.95749887, 19.53528179 ], [ -98.95919568, 19.53559868 ], [ -98.96048164, 19.53644874 ], [ -98.96201487, 19.53746131 ], [ -98.96201494, 19.53746135 ], [ -98.96235031, 19.53970227 ], [ -98.96237022, 19.54096761 ], [ -98.96135875, 19.54218778 ], [ -98.96011136, 19.54370574 ], [ -98.95871937, 19.5443013 ], [ -98.95769909, 19.54494294 ], [ -98.95552589, 19.5455478 ], [ -98.95460995, 19.54492393 ], [ -98.95368649, 19.54441781 ], [ -98.95368643, 19.54441775 ], [ -98.952885960000017, 19.54333277 ], [ -98.95243885, 19.54195902 ], [ -98.95230383, 19.54069371 ], [ -98.95262761, 19.53850674 ], [ -98.95262754, 19.53850667 ], [ -98.951464590000015, 19.53736745 ], [ -98.954896860000019, 19.53559748 ], [ -98.956165110000015, 19.53529964 ], [ -98.95749887, 19.53528179 ] ] ], [ [ [ -98.96463484, 19.59514773 ], [ -98.96288093, 19.59533705 ], [ -98.96179352, 19.59576151 ], [ -98.959916030000016, 19.59601402 ], [ -98.96141773, 19.59806804 ], [ -98.96148394, 19.59864438 ], [ -98.96148663, 19.59927698 ], [ -98.96149303, 19.60008117 ], [ -98.9611945, 19.60083146 ], [ -98.96041387, 19.60187035 ], [ -98.95957205000002, 19.60285299 ], [ -98.95866566, 19.60331788 ], [ -98.95757536, 19.6033248 ], [ -98.9569043, 19.60275275 ], [ -98.95622665, 19.60137448 ], [ -98.95579844, 19.60074399 ], [ -98.95615068, 19.59895917 ], [ -98.95668467, 19.59740269 ], [ -98.95734369, 19.59625079 ], [ -98.95818122, 19.59327551 ], [ -98.95818114, 19.59327549 ], [ -98.95818116, 19.59327544 ], [ -98.95696086, 19.59300383 ], [ -98.95657784, 19.59162068 ], [ -98.95655894, 19.590419 ], [ -98.9570263, 19.5894883 ], [ -98.95829439, 19.58878372 ], [ -98.95979119, 19.58778119 ], [ -98.96208715, 19.58718505 ], [ -98.96329826, 19.58699573 ], [ -98.96427165, 19.58686934 ], [ -98.96626341, 19.5867253 ], [ -98.96679684, 19.58574035 ], [ -98.969533620000021, 19.58628345 ], [ -98.970325290000019, 19.58626531 ], [ -98.97131328, 19.5865668 ], [ -98.97142227, 19.58660006 ], [ -98.97312886, 19.58715148 ], [ -98.97429121, 19.58788405 ], [ -98.97555892, 19.58752256 ], [ -98.97657789, 19.58705303 ], [ -98.97760807, 19.58640236 ], [ -98.97813155, 19.58541754 ], [ -98.97836004, 19.58415201 ], [ -98.97760703, 19.58284133 ], [ -98.97760699, 19.58284131 ], [ -98.97657711, 19.5823896 ], [ -98.97577771, 19.58200084 ], [ -98.97577768, 19.58200079 ], [ -98.97509054, 19.58085297 ], [ -98.97423236, 19.57965973 ], [ -98.9742323, 19.57965965 ], [ -98.97411013, 19.57950372 ], [ -98.9732976, 19.578466649999989 ], [ -98.97266718, 19.57680384 ], [ -98.97266712, 19.57680382 ], [ -98.97266711, 19.57680377 ], [ -98.97120102, 19.57618856 ], [ -98.97035153, 19.57590861 ], [ -98.96962685, 19.57603458 ], [ -98.96945489, 19.57690243 ], [ -98.969961580000017, 19.57810443 ], [ -98.97033388, 19.57867392 ], [ -98.97089593, 19.57964083 ], [ -98.97115274, 19.58078863 ], [ -98.97098281, 19.58189152 ], [ -98.97052345, 19.58321985 ], [ -98.96949387, 19.58351754 ], [ -98.96767467, 19.58330934 ], [ -98.96688225, 19.58314663 ], [ -98.96680695, 19.58211646 ], [ -98.96690215, 19.58049879 ], [ -98.96690207, 19.58049873 ], [ -98.96622506, 19.57987505 ], [ -98.96622501, 19.57987498 ], [ -98.96517468, 19.57851023 ], [ -98.96517462, 19.57851015 ], [ -98.96372781, 19.57898858 ], [ -98.96184953, 19.57906944 ], [ -98.96109809, 19.57841489 ], [ -98.96109801, 19.57841482 ], [ -98.96067693, 19.57804795 ], [ -98.96023845, 19.57689995 ], [ -98.96080043, 19.574189 ], [ -98.96174205, 19.57222816 ], [ -98.9621904, 19.56934536 ], [ -98.96259093, 19.5680711 ], [ -98.96275334, 19.56634506 ], [ -98.96324387, 19.56540982 ], [ -98.96369651, 19.56454686 ], [ -98.965813240000017, 19.56445727 ], [ -98.96648003, 19.5645658 ], [ -98.9676998, 19.5650718 ], [ -98.96887126, 19.56603003 ], [ -98.96887133, 19.56603009 ], [ -98.97069338, 19.5666451 ], [ -98.97204759, 19.56777518 ], [ -98.97204766, 19.56777524 ], [ -98.97327741, 19.56891405 ], [ -98.97327749, 19.56891412 ], [ -98.97475484, 19.57009819 ], [ -98.97475492, 19.57009826 ], [ -98.97622396, 19.57111963 ], [ -98.97739518, 19.57231288 ], [ -98.97739525, 19.57231296 ], [ -98.97795928, 19.57351499 ], [ -98.979379850000015, 19.57522357 ], [ -98.97937992, 19.57522365 ], [ -98.98110378, 19.57738356 ], [ -98.98110383, 19.57738364 ], [ -98.982477370000012, 19.57949852 ], [ -98.98247739, 19.57949855 ], [ -98.98462374, 19.581252209999988 ], [ -98.98462382, 19.58125228 ], [ -98.98482313, 19.58274331 ], [ -98.98401348, 19.58522868 ], [ -98.98401346, 19.58522873 ], [ -98.9841607, 19.58526908 ], [ -98.98416079, 19.58526911 ], [ -98.97624919, 19.60809867 ], [ -98.97532454, 19.60818205 ], [ -98.97474199, 19.60801751 ], [ -98.9739798, 19.60780214 ], [ -98.97397978, 19.60780208 ], [ -98.97322623, 19.6059675 ], [ -98.97328352, 19.60495044 ], [ -98.97341764, 19.6025694 ], [ -98.97405483, 19.60054525 ], [ -98.97336841, 19.59935213 ], [ -98.97336835, 19.5993521 ], [ -98.97336834, 19.59935206 ], [ -98.97061356, 19.597544 ], [ -98.96852527, 19.59596197 ], [ -98.96657874, 19.59523856 ], [ -98.96463484, 19.59514773 ] ] ] ] } },
{ "type": "Feature", "properties": { "id": 147, "clvrha": "XIII", "rha": "Aguas del Valle de México", "clvedo": "15", "estado": "México", "clase": "Palustre", "clvhumedal": "RH26Dp_HUM_P_4413", "elemento": "Suelo", "superficie": 1, "anio": 2020 }, "geometry": { "type": "MultiPolygon", "coordinates": [ [ [ [ -98.86005067, 19.20300379 ], [ -98.86045819, 19.20397504 ], [ -98.85918643, 19.20404948 ], [ -98.86005067, 19.20300379 ] ] ], [ [ [ -98.86185733, 19.24364565 ], [ -98.86189125, 19.24367841 ], [ -98.86178935, 19.24367884 ], [ -98.86185733, 19.24364565 ] ] ] ] } },
{ "type": "Feature", "properties": { "id": 150, "clvrha": "XIII", "rha": "Aguas del Valle de México", "clvedo": "15", "estado": "México", "clase": "Creados", "clvhumedal": "RH26Dp_HUM_C_4407", "elemento": "Antrópico", "superficie": 1438, "anio": 2020 }, "geometry": { "type": "MultiPolygon", "coordinates": [ [ [ [ -98.98862405, 19.45396935 ], [ -98.98814816, 19.45216205 ], [ -98.9883862, 19.45058023 ], [ -98.98910235, 19.44843814 ], [ -98.99005422, 19.44708296 ], [ -98.99148308, 19.44640509 ], [ -98.993036100000012, 19.44583558 ], [ -98.99505657, 19.44572736 ], [ -98.99660894, 19.44583581 ], [ -98.99838974, 19.44663132 ], [ -98.99958045, 19.44786936 ], [ -99.00043149, 19.44921091 ], [ -99.00028696, 19.44925136 ], [ -99.00091628, 19.45024283 ], [ -99.00093791, 19.45027691 ], [ -98.99485808, 19.45230783 ], [ -98.99207729, 19.45341458 ], [ -98.98890376, 19.45467512 ], [ -98.98890372, 19.45467513 ], [ -98.98870902, 19.45393557 ], [ -98.98862405, 19.45396935 ] ] ], [ [ [ -99.01867223, 19.47849001 ], [ -99.01867217, 19.47848999 ], [ -99.0185761, 19.4782114 ], [ -99.01834618, 19.47761526 ], [ -99.01613492, 19.47188155 ], [ -99.01429721, 19.46956998 ], [ -99.01429714, 19.46956991 ], [ -99.01390079, 19.46858288 ], [ -99.01472058, 19.46758191 ], [ -99.01589336, 19.46724972 ], [ -99.01646676, 19.46712391 ], [ -99.016821510000014, 19.46704606 ], [ -99.0168078, 19.4670105 ], [ -99.02129358, 19.4649403 ], [ -99.02394366, 19.46388337 ], [ -99.02614411, 19.46300572 ], [ -99.03083432, 19.47601788 ], [ -99.030453, 19.47636955 ], [ -99.0297458, 19.47659034 ], [ -99.02974576, 19.47659034 ], [ -99.0298694, 19.47690765 ], [ -99.02887682, 19.47755093 ], [ -99.02887685, 19.47755102 ], [ -99.02878167, 19.4776127 ], [ -99.02810733, 19.47813393 ], [ -99.02810706, 19.47813402 ], [ -99.0273431, 19.47872451 ], [ -99.02559014, 19.47914933 ], [ -99.02468546, 19.47933943 ], [ -99.02465896, 19.47933681 ], [ -99.02435113, 19.4793064 ], [ -99.02435098, 19.47930645 ], [ -99.02358902, 19.47923118 ], [ -99.02239052, 19.4794211 ], [ -99.02220402, 19.47997655 ], [ -99.0197817, 19.48073255 ], [ -99.01949252, 19.48058747 ], [ -99.018684910000019, 19.4784935 ], [ -99.01868488, 19.47849344 ], [ -99.01867223, 19.47849001 ] ] ], [ [ [ -99.22539507, 19.49786927 ], [ -99.22540288, 19.49787461 ], [ -99.22159651, 19.50186471 ], [ -99.2213593, 19.50293145 ], [ -99.21986468, 19.50404486 ], [ -99.215520770000012, 19.50729217 ], [ -99.21344742, 19.51028585 ], [ -99.21378489, 19.49819557 ], [ -99.21423165, 19.49606384 ], [ -99.21437231, 19.49563816 ], [ -99.21437459, 19.49563125 ], [ -99.21914467, 19.49361647 ], [ -99.22430519, 19.4971259 ], [ -99.22539507, 19.49786927 ] ] ], [ [ [ -99.16480488, 19.51296475 ], [ -99.16766371, 19.51348649 ], [ -99.17235598, 19.51536207 ], [ -99.17045536, 19.52033435 ], [ -99.16282664, 19.51650012 ], [ -99.16146825, 19.51266036 ], [ -99.16480488, 19.51296475 ] ] ], [ [ [ -99.27291825, 19.53416713 ], [ -99.27244152, 19.53398678 ], [ -99.2716782, 19.53344566 ], [ -99.27129739, 19.53312993 ], [ -99.27091488, 19.53290453 ], [ -99.27039184, 19.53313127 ], [ -99.26977328, 19.53358403 ], [ -99.26939134, 19.53389567 ], [ -99.26910748, 19.53412728 ], [ -99.26901227, 19.53457924 ], [ -99.26882176, 19.53466997 ], [ -99.26834483, 19.5348514 ], [ -99.26801042, 19.53507754 ], [ -99.26753482, 19.53507856 ], [ -99.26753484, 19.53507045 ], [ -99.26753071, 19.53507045 ], [ -99.26753092, 19.53482729 ], [ -99.26753114, 19.5345737 ], [ -99.26765562, 19.53436022 ], [ -99.26724485, 19.53436111 ], [ -99.26724528, 19.53386377 ], [ -99.26748288, 19.53345682 ], [ -99.26776621, 19.53291418 ], [ -99.26789009, 19.53229033 ], [ -99.26762636, 19.53232215 ], [ -99.267102900000012, 19.53268417 ], [ -99.26696009, 19.53313627 ], [ -99.26667463, 19.53376922 ], [ -99.26658033, 19.53453757 ], [ -99.26648614, 19.53467209 ], [ -99.26629503, 19.53494469 ], [ -99.26586449, 19.53413194 ], [ -99.26586353, 19.53412566 ], [ -99.26586257, 19.53412384 ], [ -99.26582675, 19.53389085 ], [ -99.26557435, 19.5334144 ], [ -99.26548554, 19.53282708 ], [ -99.26548219, 19.53282199 ], [ -99.26510159, 19.53250625 ], [ -99.26491065, 19.53237094 ], [ -99.26490969, 19.53236554 ], [ -99.26490624, 19.5323631 ], [ -99.26480961, 19.53182098 ], [ -99.26480389, 19.53178381 ], [ -99.26462043, 19.53165361 ], [ -99.264523800000021, 19.53111147 ], [ -99.2644266, 19.53047926 ], [ -99.26434879, 19.53008624 ], [ -99.26404727, 19.53015806 ], [ -99.26343004, 19.53043011 ], [ -99.2629527, 19.530747 ], [ -99.26252435, 19.53101866 ], [ -99.26231428, 19.53107349 ], [ -99.26206681, 19.53113801 ], [ -99.26200064, 19.53115527 ], [ -99.26174906, 19.53086926 ], [ -99.26152414, 19.53061357 ], [ -99.26104665, 19.53011727 ], [ -99.26037798, 19.52962075 ], [ -99.25994913, 19.52921486 ], [ -99.25994642, 19.52920932 ], [ -99.25994424000001, 19.52920724 ], [ -99.25965736, 19.52862034 ], [ -99.259466450000019, 19.52817051 ], [ -99.2588201, 19.52725534 ], [ -99.25882236, 19.52725476 ], [ -99.25881759, 19.52724797 ], [ -99.25899825, 19.52720175 ], [ -99.25852952, 19.52653819 ], [ -99.25970169, 19.52623825 ], [ -99.26210391, 19.52561108 ], [ -99.26231381, 19.52634069 ], [ -99.26238964, 19.52632088 ], [ -99.26239204, 19.52632915 ], [ -99.26239473, 19.52632844 ], [ -99.26253131, 19.52680356 ], [ -99.26280109, 19.52718257 ], [ -99.26403895, 19.5271806 ], [ -99.26416105, 19.5270645 ], [ -99.26475274, 19.52650188 ], [ -99.26518071, 19.52577835 ], [ -99.26521395, 19.52566962 ], [ -99.26537026, 19.52514565 ], [ -99.26546457, 19.52437699 ], [ -99.26560838, 19.52387998 ], [ -99.26589375, 19.52347277 ], [ -99.26604533, 19.52789579 ], [ -99.26580798, 19.52816729 ], [ -99.26571396, 19.52855947 ], [ -99.26614053, 19.52866928 ], [ -99.26647362, 19.52862319 ], [ -99.26694883, 19.5287581 ], [ -99.26761924, 19.52952528 ], [ -99.26804609, 19.52956982 ], [ -99.26852379, 19.52934337 ], [ -99.2688094, 19.52916216 ], [ -99.2692361, 19.52861928 ], [ -99.26957132, 19.52834778 ], [ -99.27028494, 19.52839181 ], [ -99.27081091, 19.52861712 ], [ -99.27126641, 19.52886212 ], [ -99.27147995, 19.52897699 ], [ -99.27190622, 19.52893143 ], [ -99.27200983, 19.52884547 ], [ -99.27228773, 19.52861487 ], [ -99.27247752, 19.52820763 ], [ -99.27271591, 19.52811675 ], [ -99.27309645, 19.52820689 ], [ -99.27371628, 19.52816085 ], [ -99.27404911, 19.52788873 ], [ -99.27433389, 19.52739143 ], [ -99.27471508, 19.52721023 ], [ -99.27538302, 19.52702854 ], [ -99.27605796, 19.52685547 ], [ -99.27589672000002, 19.52715108 ], [ -99.27566849, 19.52757011 ], [ -99.27533657, 19.52779693 ], [ -99.27504307, 19.52790847 ], [ -99.27566904, 19.52773766 ], [ -99.27634639, 19.52756522 ], [ -99.27634066, 19.52757571 ], [ -99.27634944, 19.52757347 ], [ -99.275959380000018, 19.52828784 ], [ -99.27562765, 19.5285144 ], [ -99.27515068, 19.52869586 ], [ -99.2747238, 19.52914837 ], [ -99.27434175, 19.52960079 ], [ -99.27391237, 19.52978201 ], [ -99.27362746, 19.52982781 ], [ -99.27324703, 19.53018971 ], [ -99.27281851, 19.53046184 ], [ -99.2724373, 19.53064302 ], [ -99.27205436, 19.53055337 ], [ -99.27172053, 19.53028232 ], [ -99.27172046, 19.53028226 ], [ -99.271388280000011, 19.53028306 ], [ -99.27100615, 19.53050954 ], [ -99.27100192, 19.53054353 ], [ -99.271002, 19.53054352 ], [ -99.27143238, 19.53051404 ], [ -99.27219587, 19.53069322 ], [ -99.27238638, 19.53096402 ], [ -99.27281703, 19.53141532 ], [ -99.272910530000019, 19.53168231 ], [ -99.27300689, 19.53195743 ], [ -99.27324702, 19.53213793 ], [ -99.27372143, 19.53195616 ], [ -99.27387403, 19.53184123 ], [ -99.27396163, 19.53177525 ], [ -99.27467527, 19.53181927 ], [ -99.27505846, 19.53213489 ], [ -99.27543727, 19.53195365 ], [ -99.27594011, 19.53186671 ], [ -99.27596242, 19.53186284 ], [ -99.276343560000015, 19.53204249 ], [ -99.27658214, 19.53253959 ], [ -99.27677448, 19.53271979 ], [ -99.27725037, 19.53258391 ], [ -99.27793593, 19.532239379999989 ], [ -99.277869, 19.53271797 ], [ -99.277523, 19.53329716 ], [ -99.27753643, 19.53329332 ], [ -99.27822202, 19.53294882 ], [ -99.27822049, 19.53296015 ], [ -99.2782268, 19.53295699 ], [ -99.27815966, 19.5334361 ], [ -99.27801841, 19.53367345 ], [ -99.27778145, 19.53406931 ], [ -99.27730503, 19.53434114 ], [ -99.27678085, 19.53438707 ], [ -99.27635005, 19.53416162 ], [ -99.27597138, 19.53447871 ], [ -99.27544525, 19.53484099 ], [ -99.27540015, 19.535292859999988 ], [ -99.27553298, 19.53588239 ], [ -99.27553593, 19.53589521 ], [ -99.27554164, 19.5359206 ], [ -99.27554201, 19.53592251 ], [ -99.27554263, 19.53592519 ], [ -99.27568826, 19.53664813 ], [ -99.27568867, 19.53709982 ], [ -99.27553014, 19.53728783 ], [ -99.27434692, 19.53484727 ], [ -99.2740843, 19.53410331 ], [ -99.27396771, 19.5340298 ], [ -99.27348975, 19.5340307 ], [ -99.27291825, 19.53416713 ] ], [ [ -99.27484361, 19.52799525 ], [ -99.27495537, 19.52794178 ], [ -99.27485979, 19.52797811 ], [ -99.27484361, 19.52799525 ] ], [ [ -99.27433511, 19.52859838 ], [ -99.27443026, 19.52843361 ], [ -99.2741933, 19.52871408 ], [ -99.27433511, 19.52859838 ] ] ], [ [ [ -99.00598597, 19.55443212 ], [ -99.00771248, 19.55493817 ], [ -99.00932407, 19.55556201 ], [ -99.01045904, 19.55612204 ], [ -99.01128668, 19.55663691 ], [ -99.01128672, 19.55696185 ], [ -99.01158564, 19.55714799 ], [ -99.01158641, 19.56352804 ], [ -99.01187541, 19.56451583 ], [ -99.01665535, 19.5700214 ], [ -99.01665536, 19.57018737 ], [ -99.01695443, 19.57053179 ], [ -99.01695449, 19.57114433 ], [ -99.01655497, 19.57156579 ], [ -99.01687348, 19.57229764 ], [ -99.01665928, 19.57352371 ], [ -99.01629824, 19.57505115 ], [ -99.01582045, 19.57623472 ], [ -99.01492407, 19.57753634 ], [ -99.0141534, 19.57877473 ], [ -99.01284562, 19.58019342 ], [ -99.01206453, 19.58103393 ], [ -99.01010064, 19.58228159 ], [ -99.00896569, 19.5830137 ], [ -99.0076026, 19.58346541 ], [ -99.00610682, 19.5839717 ], [ -99.00498158, 19.58426099 ], [ -99.00390216, 19.58442373 ], [ -99.001701310000016, 19.58448662 ], [ -99.00027065, 19.58442372 ], [ -98.99889858, 19.58419767 ], [ -98.99699121, 19.58374574 ], [ -98.99508405, 19.58306775 ], [ -98.99323331, 19.58210989 ], [ -98.99187031000001, 19.58115208 ], [ -98.99067825, 19.58024807 ], [ -98.98965856, 19.57911808 ], [ -98.98864725, 19.57793442 ], [ -98.98775233, 19.57646133 ], [ -98.98754876000001, 19.57610694 ], [ -98.98745379, 19.57595061 ], [ -98.98680472, 19.57482055 ], [ -98.98620389, 19.57323881 ], [ -98.98596598, 19.57210957 ], [ -98.98585119, 19.57103378 ], [ -98.98585257000002, 19.56967818 ], [ -98.98602366, 19.56821436 ], [ -98.98614693, 19.56696713 ], [ -98.98662304, 19.56533095 ], [ -98.9869772, 19.56380395 ], [ -98.98752118, 19.56233963 ], [ -98.98811151, 19.5611561 ], [ -98.98918989, 19.55973698 ], [ -98.99007517, 19.55883349 ], [ -98.99109529, 19.55799272 ], [ -98.99228789, 19.55702622 ], [ -98.99335458, 19.55634839 ], [ -98.99466984, 19.55567038 ], [ -98.99633882, 19.55499258 ], [ -98.997701640000017, 19.55454096 ], [ -98.99955204, 19.5540888 ], [ -99.00169722, 19.55403447 ], [ -99.00372626, 19.55415228 ], [ -99.00598597, 19.55443212 ] ] ] ] } },
{ "type": "Feature", "properties": { "id": 154, "clvrha": "XIII", "rha": "Aguas del Valle de México", "clvedo": "09", "estado": "Ciudad de México", "clase": "Creados", "clvhumedal": "RH26Dp_HUM_C_4407", "elemento": "Antrópico", "superficie": 100, "anio": 2020 }, "geometry": { "type": "MultiPolygon", "coordinates": [ [ [ [ -99.10023165, 19.3025598 ], [ -99.100185960000019, 19.30320958 ], [ -99.1005622, 19.30303943 ], [ -99.0995381, 19.31755324 ], [ -99.09942515, 19.31915372 ], [ -99.09026911, 19.30769373 ], [ -99.09046122, 19.30760687 ], [ -99.09009072, 19.30714311 ], [ -99.10023165, 19.3025598 ] ] ], [ [ [ -99.21437459, 19.49563125 ], [ -99.21437231, 19.49563816 ], [ -99.21423165, 19.49606384 ], [ -99.21431724, 19.49565547 ], [ -99.21437459, 19.49563125 ] ] ] ] } },
{ "type": "Feature", "properties": { "id": 155, "clvrha": "XIII", "rha": "Aguas del Valle de México", "clvedo": "22", "estado": "Querétaro", "clase": "Creados", "clvhumedal": "RH26Df_HUM_C_4361", "elemento": "Antrópico", "superficie": 0, "anio": 2020 }, "geometry": { "type": "MultiPolygon", "coordinates": [ [ [ [ -99.94795152, 20.18709244 ], [ -99.94799299, 20.18707266 ], [ -99.94799135, 20.18709708 ], [ -99.94796883, 20.18747139 ], [ -99.94777666, 20.18754247 ], [ -99.94794838, 20.18710052 ], [ -99.94795152, 20.18709244 ] ] ] ] } }
]
}
