{
"type": "FeatureCollection",
"name": "azolve",
"crs": { "type": "name", "properties": { "name": "urn:ogc:def:crs:OGC:1.3:CRS84" } },
"features": [
{ "type": "Feature", "properties": { "id": null, "Name": "Zona de azolve en Ixmiquilpan", "description": null, "timestamp": null, "begin": null, "end": null, "altitudeMode": null, "tessellate": 1, "extrude": 0, "visibility": -1, "drawOrder": null, "icon": null }, "geometry": { "type": "Polygon", "coordinates": [ [ [ -99.22533544794392, 20.493656275465611, 0.0 ], [ -99.225359054089168, 20.493622529712319, 0.0 ], [ -99.225175405001792, 20.493578649833761, 0.0 ], [ -99.224687760318872, 20.49385130614937, 0.0 ], [ -99.224539402550263, 20.493884913857482, 0.0 ], [ -99.224099699334303, 20.493945665142409, 0.0 ], [ -99.223914377230003, 20.493995760270568, 0.0 ], [ -99.223720187745982, 20.49404274413914, 0.0 ], [ -99.223344477062312, 20.49404232468622, 0.0 ], [ -99.223133173249863, 20.494093850698711, 0.0 ], [ -99.222584736244769, 20.49419020225081, 0.0 ], [ -99.222584992043025, 20.494379132021351, 0.0 ], [ -99.222797610041681, 20.494389058050452, 0.0 ], [ -99.223052418887434, 20.494341609372519, 0.0 ], [ -99.223312449179517, 20.494294320012791, 0.0 ], [ -99.223634613674221, 20.49423376089285, 0.0 ], [ -99.22406562273251, 20.494182007976871, 0.0 ], [ -99.224251069108675, 20.49413613367242, 0.0 ], [ -99.22451425506955, 20.494080517649941, 0.0 ], [ -99.224973435369634, 20.49392549498701, 0.0 ], [ -99.22533544794392, 20.493656275465611, 0.0 ] ] ] } },
{ "type": "Feature", "properties": { "id": null, "Name": "Zona de azolve en puente Zaragoza", "description": null, "timestamp": null, "begin": null, "end": null, "altitudeMode": null, "tessellate": 1, "extrude": 0, "visibility": -1, "drawOrder": null, "icon": null }, "geometry": { "type": "Polygon", "coordinates": [ [ [ -99.340150847559116, 20.055891975599501, 0.0 ], [ -99.340057526820843, 20.05572156859737, 0.0 ], [ -99.339907903292982, 20.055606353483011, 0.0 ], [ -99.33982385032202, 20.055519536841821, 0.0 ], [ -99.339815646756904, 20.055557242279619, 0.0 ], [ -99.339783396034235, 20.055595589844991, 0.0 ], [ -99.339740391908819, 20.055650050112099, 0.0 ], [ -99.339602289197487, 20.055766120314029, 0.0 ], [ -99.339547780198032, 20.05580407806719, 0.0 ], [ -99.3395962772167, 20.055845475448329, 0.0 ], [ -99.33965973746669, 20.0558926848604, 0.0 ], [ -99.339718377890108, 20.055961617615271, 0.0 ], [ -99.339854139386389, 20.056176371099411, 0.0 ], [ -99.339878607303064, 20.05628930612248, 0.0 ], [ -99.339876956315351, 20.056418398927711, 0.0 ], [ -99.340252227672082, 20.056386813090128, 0.0 ], [ -99.340243844281218, 20.056326382485629, 0.0 ], [ -99.340236716624133, 20.056239354611058, 0.0 ], [ -99.340212179943393, 20.056064651084469, 0.0 ], [ -99.340150847559116, 20.055891975599501, 0.0 ] ] ] } },
{ "type": "Feature", "properties": { "id": null, "Name": "Zona de azolve aguas arriba del puente Metlac ", "description": null, "timestamp": null, "begin": null, "end": null, "altitudeMode": null, "tessellate": 1, "extrude": 0, "visibility": -1, "drawOrder": null, "icon": null }, "geometry": { "type": "Polygon", "coordinates": [ [ [ -99.336710467906641, 20.052510656547501, 0.0 ], [ -99.336685747483216, 20.052485255223178, 0.0 ], [ -99.336475132153495, 20.052255776541699, 0.0 ], [ -99.336321243309484, 20.052351027637052, 0.0 ], [ -99.336032159815417, 20.05276085714889, 0.0 ], [ -99.336427130402342, 20.052920273328361, 0.0 ], [ -99.336710467906641, 20.052510656547501, 0.0 ] ] ] } },
{ "type": "Feature", "properties": { "id": null, "Name": "Zona de azolve aguas arriba y aguas abajo del inicio de la rectificación del río Tula", "description": null, "timestamp": null, "begin": null, "end": null, "altitudeMode": null, "tessellate": 1, "extrude": 0, "visibility": -1, "drawOrder": null, "icon": null }, "geometry": { "type": "Polygon", "coordinates": [ [ [ -99.337613091663499, 20.044285274508422, 0.0 ], [ -99.337258632802474, 20.044023317515009, 0.0 ], [ -99.3370150419222, 20.043799410319231, 0.0 ], [ -99.336803334502548, 20.043604856841739, 0.0 ], [ -99.336608992154453, 20.043194751096539, 0.0 ], [ -99.336429048450924, 20.043204651372701, 0.0 ], [ -99.336371785985691, 20.043275372377799, 0.0 ], [ -99.336458473631495, 20.043436015832011, 0.0 ], [ -99.336582166806053, 20.043763338241341, 0.0 ], [ -99.336894456162909, 20.044000314640741, 0.0 ], [ -99.337444238240792, 20.044448143459348, 0.0 ], [ -99.337571553543313, 20.044338480086189, 0.0 ], [ -99.337613091663499, 20.044285274508422, 0.0 ] ] ] } },
{ "type": "Feature", "properties": { "id": null, "Name": "Zona de azolve y obstrucción por arboles centenarios en San Marcos", "description": null, "timestamp": null, "begin": null, "end": null, "altitudeMode": null, "tessellate": 1, "extrude": 0, "visibility": -1, "drawOrder": null, "icon": null }, "geometry": { "type": "Polygon", "coordinates": [ [ [ -99.338326661196803, 20.031384600346669, 0.0 ], [ -99.338164195705517, 20.031261570580121, 0.0 ], [ -99.338065040546567, 20.031169701592962, 0.0 ], [ -99.338077155703687, 20.031046681319179, 0.0 ], [ -99.338104562232203, 20.03097177624711, 0.0 ], [ -99.33816906787257, 20.030869894202379, 0.0 ], [ -99.338244721136334, 20.030824760720641, 0.0 ], [ -99.338107833417553, 20.030781439260672, 0.0 ], [ -99.338082377796354, 20.030823493568711, 0.0 ], [ -99.338046183057799, 20.030907552660661, 0.0 ], [ -99.337988711863957, 20.030941755520239, 0.0 ], [ -99.337962920252096, 20.03103717308116, 0.0 ], [ -99.337862701216807, 20.031063758708939, 0.0 ], [ -99.337846601389387, 20.031165638855509, 0.0 ], [ -99.337924358842642, 20.031269327617181, 0.0 ], [ -99.338078575670281, 20.031387159731839, 0.0 ], [ -99.338209862455344, 20.031514272911, 0.0 ], [ -99.338273226202261, 20.031465714301721, 0.0 ], [ -99.33846887784145, 20.0315340134295, 0.0 ], [ -99.338547937399056, 20.03163842751216, 0.0 ], [ -99.338629380468973, 20.031715184059109, 0.0 ], [ -99.338841079643402, 20.031815305448522, 0.0 ], [ -99.338883799983179, 20.03174215528913, 0.0 ], [ -99.338326661196803, 20.031384600346669, 0.0 ] ] ] } }
]
}
