{
"type": "FeatureCollection",
"name": "bojay",
"crs": { "type": "name", "properties": { "name": "urn:ogc:def:crs:OGC:1.3:CRS84" } },
"features": [
{ "type": "Feature", "properties": { "FID": 0 }, "geometry": { "type": "MultiPolygon", "coordinates": [ [ [ [ 463332.621002767875325, 2221806.350905726663768 ], [ 463335.905715808621608, 2221814.61116545740515 ], [ 463444.999970649485476, 2221845.000094627495855 ], [ 463482.000000059488229, 2221859.000029595568776 ], [ 463523.999959009583108, 2221881.000050260685384 ], [ 463538.999999449006282, 2221886.000089455395937 ], [ 463551.999980905267876, 2221884.000114243477583 ], [ 463538.000017096288502, 2221867.00008557131514 ], [ 463520.000021334562916, 2221854.000059815123677 ], [ 463495.99998198839603, 2221823.000069135800004 ], [ 463461.000003110733815, 2221798.00008095940575 ], [ 463460.000037093530409, 2221779.000081625301391 ], [ 463503.99999959411798, 2221723.000089667271823 ], [ 463521.38345650449628, 2221693.02020211238414 ], [ 463539.931230574089568, 2221663.481154520064592 ], [ 463550.235549501667265, 2221646.99424423603341 ], [ 463567.999949105840642, 2221623.000114416703582 ], [ 463567.999949105840642, 2221623.000114416703582 ], [ 463582.000027009053156, 2221616.000083234161139 ], [ 463596.999968999705743, 2221619.000048218294978 ], [ 463643.999995096819475, 2221638.0000239899382 ], [ 463652.999996166792698, 2221638.000074052717537 ], [ 463655.000019180821255, 2221631.000109842978418 ], [ 463646.000050997827202, 2221625.000121399760246 ], [ 463633.999963272828609, 2221607.000101323239505 ], [ 463636.000032164738514, 2221591.000118710100651 ], [ 463642.999948897340801, 2221577.000018823891878 ], [ 463662.999971197568811, 2221566.00001874146983 ], [ 463691.000025138433557, 2221572.000060408376157 ], [ 463694.999969833937939, 2221563.000016288366169 ], [ 463692.99999638821464, 2221538.000055485405028 ], [ 463694.999988038442098, 2221526.000113324262202 ], [ 463722.000020922743715, 2221480.000112451612949 ], [ 463731.000015616882592, 2221469.000063796062022 ], [ 463765.999989067844581, 2221442.000079567078501 ], [ 463779.999976514140144, 2221435.00010214233771 ], [ 463795.000020550680347, 2221432.000082371756434 ], [ 463796.000020404870156, 2221425.000110837165266 ], [ 463807.000023096392397, 2221405.000032869633287 ], [ 463798.000026171212085, 2221376.00006862776354 ], [ 463798.999972948571667, 2221359.000022314488888 ], [ 463805.999985156755429, 2221340.00012331455946 ], [ 463823.999957949738018, 2221316.000110323075205 ], [ 463840.999970110016875, 2221304.000066680368036 ], [ 463852.999986624636222, 2221268.000043830834329 ], [ 463861.99998839199543, 2221206.000080774072558 ], [ 463873.0000197107438, 2221185.00010066665709 ], [ 463888.000018902122974, 2221175.000059565529227 ], [ 463895.000017244310584, 2221165.000102150719613 ], [ 463867.999992937664501, 2221134.000072453636676 ], [ 463861.999966133211274, 2221119.000055760145187 ], [ 463859.00000477139838, 2221103.000069638248533 ], [ 463858.99995539849624, 2221089.00007933890447 ], [ 463864.000049326336011, 2221062.000093409791589 ], [ 463887.999954283237457, 2220995.00009555881843 ], [ 463883.999989725882187, 2220973.000032565556467 ], [ 463888.000049304275308, 2220955.000034062657505 ], [ 463908.000032153562643, 2220933.000094262883067 ], [ 463907.999968937830999, 2220912.000113563146442 ], [ 463913.000023367756512, 2220888.000114403665066 ], [ 463927.000037718215026, 2220870.000025604385883 ], [ 463964.000026413763408, 2220843.000108492560685 ], [ 463964.999977123225108, 2220838.0000557936728 ], [ 463987.685605491511524, 2220821.827716623432934 ], [ 463977.111733951373026, 2220815.673775390256196 ], [ 463958.469355732260738, 2220813.241951401811093 ], [ 463923.056079140864313, 2220812.080045328941196 ], [ 463903.775833065970801, 2220801.621214065235108 ], [ 463891.938979177502915, 2220785.588720736093819 ], [ 463812.000023198022973, 2220697.000037368852645 ], [ 463808.000012220058125, 2220681.000036773271859 ], [ 463825.795280261780135, 2220644.918285014107823 ], [ 463826.402442675433122, 2220638.123641802463681 ], [ 463797.833796132763382, 2220624.891272724140435 ], [ 463756.231303654029034, 2220600.519870165269822 ], [ 463724.354920399608091, 2220585.865096248220652 ], [ 463704.344454552861862, 2220576.769429954234511 ], [ 463680.695722188451327, 2220569.49289691913873 ], [ 463668.871356006304268, 2220546.753731184173375 ], [ 463653.636114963854197, 2220547.814892252441496 ], [ 463637.213384155242238, 2220541.498457325622439 ], [ 463620.159009854018223, 2220541.498457325622439 ], [ 463603.736279045406263, 2220539.603526847902685 ], [ 463567.732599965063855, 2220518.759291590657085 ], [ 463543.098503752145916, 2220518.759291590657085 ], [ 463518.464407539286185, 2220521.285865561570972 ], [ 463488.777163385297172, 2220509.629172015935183 ], [ 463475.857182854088023, 2220505.609622517134994 ], [ 463467.530973178392742, 2220497.570523520000279 ], [ 463462.064480773056857, 2220490.795660632662475 ], [ 463466.896396023104899, 2220463.012147945351899 ], [ 463449.984692648053169, 2220459.388211507815868 ], [ 463430.657031647977419, 2220481.131830132566392 ], [ 463402.873518960375804, 2220473.88395725749433 ], [ 463398.041603710385971, 2220435.228635257575661 ], [ 463423.409158772963565, 2220366.373842944856733 ], [ 463418.577243522915523, 2220331.342457382008433 ], [ 463396.83362489787396, 2220342.214266694616526 ], [ 463359.386281710234471, 2220406.237143757287413 ], [ 463342.474578335182741, 2220440.060550507623702 ], [ 463338.706532144569792, 2220487.20987089490518 ], [ 463356.19043600972509, 2220503.028641058597714 ], [ 463366.181238218443468, 2220519.679978073108941 ], [ 463366.181238218443468, 2220519.679978073108941 ], [ 463374.506906725640874, 2220557.145486355759203 ], [ 463382.832575232896488, 2220582.122491877526045 ], [ 463395.321077993721701, 2220600.438962593208998 ], [ 463412.804981858935207, 2220617.090299607720226 ], [ 463419.465516664728057, 2220637.071904025040567 ], [ 463416.967816112563014, 2220662.048909546807408 ], [ 463419.465516664728057, 2220698.681850978638977 ], [ 463413.637548709637485, 2220726.989123903214931 ], [ 463417.800382963265292, 2220746.13816147018224 ], [ 463494.916887511499226, 2220863.946370847523212 ], [ 463496.477950356609654, 2220884.240187833551317 ], [ 463507.405390272324439, 2220894.647273467853665 ], [ 463519.373538751504384, 2220911.818964764010161 ], [ 463534.338927893317305, 2220980.31840240675956 ], [ 463534.338927893317305, 2221003.213990801479667 ], [ 463532.621758763678372, 2221029.543917455710471 ], [ 463522.318743986019399, 2221046.715608751866966 ], [ 463511.443339498422574, 2221061.025351498741657 ], [ 463508.009001239202917, 2221074.190314825624228 ], [ 463508.581390949082561, 2221086.78288844274357 ], [ 463513.046030686062295, 2221108.762653301469982 ], [ 463498.736287939245813, 2221136.809749084990472 ], [ 463486.716104031947907, 2221154.553830090910196 ], [ 463468.399633316032123, 2221161.422506609465927 ], [ 463454.662280279095285, 2221157.415778640657663 ], [ 463443.78687579149846, 2221161.422506609465927 ], [ 463435.773419853299856, 2221176.304639066103846 ], [ 463424.898015365703031, 2221180.883756745141 ], [ 463379.106838575913571, 2221212.937580497935414 ], [ 463369.948603217955679, 2221222.668205565772951 ], [ 463374.527720896934625, 2221231.254051214084029 ], [ 463364.224706119275652, 2221233.543610053602606 ], [ 463266.923185934312642, 2221271.595699527300894 ], [ 463219.618251234118361, 2221275.38009430328384 ], [ 463135.415467467799317, 2221257.404219117481261 ], [ 463111.763000117731281, 2221264.026909975335002 ], [ 463099.46371709567029, 2221294.302068183664232 ], [ 463102.3020131776575, 2221352.014088517520577 ], [ 463125.008381833788007, 2221388.911937583703548 ], [ 463187.450895638030488, 2221427.701984038110822 ], [ 463240.432422502199188, 2221475.00691873813048 ], [ 463289.629554590443149, 2221527.042346908245236 ], [ 463308.551528470474295, 2221570.562886832747608 ], [ 463308.668730030185543, 2221619.571257894858718 ], [ 463308.668730030185543, 2221631.671539765316993 ], [ 463315.161564204725437, 2221636.098472157027572 ], [ 463311.324889465235174, 2221656.757489985320717 ], [ 463333.754680250014644, 2221693.353464425075799 ], [ 463332.674605058680754, 2221717.727390553802252 ], [ 463340.861162239976693, 2221777.68188285222277 ], [ 463365.724861453927588, 2221784.011434027925134 ], [ 463371.689122661191504, 2221780.565416441299021 ], [ 463373.014514040609356, 2221749.021101611666381 ], [ 463374.207366282062139, 2221741.598909887019545 ], [ 463387.461280076066032, 2221740.53859678376466 ], [ 463389.58190628309967, 2221747.298092818353325 ], [ 463383.750184213742614, 2221765.455954716075212 ], [ 463382.027175420487765, 2221771.552755061537027 ], [ 463390.642219386587385, 2221790.638390924781561 ], [ 463387.726358351937961, 2221793.421712821349502 ], [ 463336.363024429010693, 2221789.779095512349159 ], [ 463332.621002767875325, 2221806.350905726663768 ] ] ] ] } }
]
}
