{
"type": "FeatureCollection",
"name": "conservacion forestal",
"crs": { "type": "name", "properties": { "name": "urn:ogc:def:crs:OGC:1.3:CRS84" } },
"features": [
{ "type": "Feature", "properties": { "ID": 601, "ESTADO": "Hidalgo", "MUNICIPIO": "Tepetitlán", "ADVC": "Tudi Ha Tsethe", "NO_CERT": 583, "INSTRUMENT": "Certificado CONANP - 583/2024", "FECHA_EXP": "30/09/2024", "VIGENCIA": "15 años", "FUENTE": "Cartografía temática, Plano Interno de Reconocimiento de Tierras Comunales", "HA_CERT": 171.389667, "ECOSISTEMA": "Patizal cultivado y agricultura de temporal anual", "NOM_059": "Fauna: Crotalus scutulatus, Kinosternon integrum, Salvadora bairdi", "TIPO_PROP": "Prop.Social_Ejido_TUC", "NOTA": null, "area": 172, "area_ha": 172 }, "geometry": { "type": "MultiPolygon", "coordinates": [ [ [ [ -99.416341911785665, 20.218031670972437, 0.0 ], [ -99.417245480714456, 20.217480993643886, 0.0 ], [ -99.418186781527055, 20.216899385582781, 0.0 ], [ -99.418027935089441, 20.217750802535591, 0.0 ], [ -99.418865025585717, 20.217828743993191, 0.0 ], [ -99.420051394311372, 20.217912249543339, 0.0 ], [ -99.420149041258639, 20.217192910653651, 0.0 ], [ -99.420615561020625, 20.217298801666967, 0.0 ], [ -99.420983949044, 20.218094340516259, 0.0 ], [ -99.421204447102426, 20.218216666369397, 0.0 ], [ -99.420965786873012, 20.219177696402554, 0.0 ], [ -99.420773280552666, 20.21919419803119, 0.0 ], [ -99.41747355326244, 20.218992188998829, 0.0 ], [ -99.417780669058317, 20.21807749853372, 0.0 ], [ -99.417295519096172, 20.21804268028864, 0.0 ], [ -99.416698377668581, 20.218031094867385, 0.0 ], [ -99.416341911785665, 20.218031670972437, 0.0 ] ] ], [ [ [ -99.427286566138491, 20.218340337008339, 0.0 ], [ -99.427221958955229, 20.21780198654206, 0.0 ], [ -99.42572595288857, 20.217650634433451, 0.0 ], [ -99.425397397785005, 20.218268955974473, 0.0 ], [ -99.425568464394175, 20.21875735696549, 0.0 ], [ -99.425671705258111, 20.219244290204951, 0.0 ], [ -99.425731977397419, 20.219607198049435, 0.0 ], [ -99.421316105293826, 20.219164571520476, 0.0 ], [ -99.421049953845085, 20.219171780092239, 0.0 ], [ -99.421325036822182, 20.218144494434444, 0.0 ], [ -99.421904848043667, 20.218344233808995, 0.0 ], [ -99.422838480091713, 20.218652667417153, 0.0 ], [ -99.423163126862008, 20.217446941407928, 0.0 ], [ -99.423373378753766, 20.217419156903919, 0.0 ], [ -99.423331819976923, 20.217109654346174, 0.0 ], [ -99.423371624261662, 20.216773427861135, 0.0 ], [ -99.423375419994855, 20.216722879714915, 0.0 ], [ -99.423531080731308, 20.21555398265286, 0.0 ], [ -99.42353697336037, 20.215466497266632, 0.0 ], [ -99.423553673513453, 20.214563278184098, 0.0 ], [ -99.426371193245174, 20.216446081728648, 0.0 ], [ -99.427183363387385, 20.217087953672724, 0.0 ], [ -99.427643712735929, 20.217395940820271, 0.0 ], [ -99.428410838448173, 20.217666025149576, 0.0 ], [ -99.429079182724308, 20.217769384252247, 0.0 ], [ -99.429752983819569, 20.21774985223481, 0.0 ], [ -99.430854307077126, 20.217548230415961, 0.0 ], [ -99.432430513768097, 20.21721095179414, 0.0 ], [ -99.433346397528666, 20.217098324537162, 0.0 ], [ -99.433905122389348, 20.217141062880877, 0.0 ], [ -99.435445047388484, 20.217498590372188, 0.0 ], [ -99.435299614076527, 20.218173075274734, 0.0 ], [ -99.435229362922456, 20.218518575675304, 0.0 ], [ -99.434361949342559, 20.218594697606022, 0.0 ], [ -99.434101529123964, 20.218634681778216, 0.0 ], [ -99.434121588299718, 20.218746239115308, 0.0 ], [ -99.43360770865317, 20.218876028711307, 0.0 ], [ -99.433358539557503, 20.219037993486047, 0.0 ], [ -99.433054317326906, 20.219231077223135, 0.0 ], [ -99.432972155339385, 20.219061891373808, 0.0 ], [ -99.43269372216524, 20.219021736375723, 0.0 ], [ -99.43301386457081, 20.218771399979989, 0.0 ], [ -99.43242946248364, 20.218304245260374, 0.0 ], [ -99.431502105320945, 20.218053980504344, 0.0 ], [ -99.431061499663485, 20.217758028546232, 0.0 ], [ -99.429725947250503, 20.218082370014272, 0.0 ], [ -99.429321053573091, 20.218196223253681, 0.0 ], [ -99.429146109594782, 20.217974553730961, 0.0 ], [ -99.428460625461327, 20.217822658620332, 0.0 ], [ -99.427818636239337, 20.218154949367314, 0.0 ], [ -99.428256744911508, 20.218817724974027, 0.0 ], [ -99.427566029322023, 20.218914637566485, 0.0 ], [ -99.427679732037035, 20.219285649353338, 0.0 ], [ -99.428362497925164, 20.219873787196654, 0.0 ], [ -99.428067246341541, 20.2198723537803, 0.0 ], [ -99.427369697695227, 20.219277035282939, 0.0 ], [ -99.427310353653411, 20.218818532873378, 0.0 ], [ -99.427286566138491, 20.218340337008339, 0.0 ] ], [ [ -99.423957043263613, 20.218764293219451, 0.0 ], [ -99.423900568014048, 20.217422674528969, 0.0 ], [ -99.423510760876667, 20.217455431642236, 0.0 ], [ -99.423341793524742, 20.218691367236886, 0.0 ], [ -99.423957043263613, 20.218764293219451, 0.0 ] ] ], [ [ [ -99.414867949354786, 20.223105331325762, 0.0 ], [ -99.414764451274365, 20.221928016708517, 0.0 ], [ -99.413870021228604, 20.222022443485145, 0.0 ], [ -99.412613942531081, 20.221963230694858, 0.0 ], [ -99.412388059483732, 20.222986645771037, 0.0 ], [ -99.412171717548219, 20.221789614170515, 0.0 ], [ -99.420090802820738, 20.219629696987951, 0.0 ], [ -99.420477142878241, 20.219514537602986, 0.0 ], [ -99.42078035229099, 20.219903092379791, 0.0 ], [ -99.42070876671815, 20.220578783374947, 0.0 ], [ -99.420489282727544, 20.220398543764947, 0.0 ], [ -99.420155055230595, 20.220765946365152, 0.0 ], [ -99.420159770799003, 20.221175896471134, 0.0 ], [ -99.419927124164929, 20.221036485549771, 0.0 ], [ -99.419749328356374, 20.221268954059511, 0.0 ], [ -99.418377878682463, 20.220892963440832, 0.0 ], [ -99.418221605518156, 20.221538712046456, 0.0 ], [ -99.419161187528388, 20.221929876945921, 0.0 ], [ -99.418383188014133, 20.221694610460588, 0.0 ], [ -99.418245859886085, 20.222355999070075, 0.0 ], [ -99.417575661614023, 20.222207488873323, 0.0 ], [ -99.417584099168977, 20.22208046212581, 0.0 ], [ -99.416888413927396, 20.222114277930906, 0.0 ], [ -99.416866508992641, 20.222628840216359, 0.0 ], [ -99.416510878436512, 20.222713387160663, 0.0 ], [ -99.414867949354786, 20.223105331325762, 0.0 ] ] ], [ [ [ -99.390213476813145, 20.273575323312226, 0.0 ], [ -99.391170801406744, 20.269078260293899, 0.0 ], [ -99.39133276411782, 20.266635805349949, 0.0 ], [ -99.398340922883634, 20.267708429540519, 0.0 ], [ -99.398642700694111, 20.26706585272083, 0.0 ], [ -99.399024300772794, 20.266239350612892, 0.0 ], [ -99.401288804166342, 20.265882153242927, 0.0 ], [ -99.401533395310835, 20.265832491970617, 0.0 ], [ -99.401622461201143, 20.266293201530182, 0.0 ], [ -99.401592729218919, 20.266830572941188, 0.0 ], [ -99.402158952153869, 20.266641213306922, 0.0 ], [ -99.402232005768283, 20.266746684804669, 0.0 ], [ -99.40248633777567, 20.26662769184226, 0.0 ], [ -99.402593149797738, 20.266812478109824, 0.0 ], [ -99.402538021108867, 20.266910207909735, 0.0 ], [ -99.401653925430736, 20.267188207480078, 0.0 ], [ -99.401800314452714, 20.267921517411303, 0.0 ], [ -99.402109719256316, 20.268308643420305, 0.0 ], [ -99.402518616376682, 20.268264619130409, 0.0 ], [ -99.402527484108774, 20.2683969715907, 0.0 ], [ -99.40344454898478, 20.268475701263746, 0.0 ], [ -99.40361147458988, 20.266579481579726, 0.0 ], [ -99.403716087848636, 20.266560827508751, 0.0 ], [ -99.40374153564423, 20.265461353456118, 0.0 ], [ -99.403509747235574, 20.265597175122544, 0.0 ], [ -99.403643404514582, 20.265380602949559, 0.0 ], [ -99.404140607649964, 20.26526120451809, 0.0 ], [ -99.404219502476835, 20.267092877933596, 0.0 ], [ -99.408651409574617, 20.267608955834937, 0.0 ], [ -99.408518520247341, 20.268002076315312, 0.0 ], [ -99.408937456027388, 20.268518776383296, 0.0 ], [ -99.408095872761606, 20.26832658895221, 0.0 ], [ -99.407373084273104, 20.268809832324841, 0.0 ], [ -99.406945423572708, 20.269425774365352, 0.0 ], [ -99.406867095207446, 20.270217732147881, 0.0 ], [ -99.406844422572291, 20.271162629062925, 0.0 ], [ -99.406571668864643, 20.271070602674378, 0.0 ], [ -99.406053626208774, 20.270890844958064, 0.0 ], [ -99.405587472335867, 20.271605942574055, 0.0 ], [ -99.405310523143925, 20.271432020386246, 0.0 ], [ -99.405253686001146, 20.27139581621482, 0.0 ], [ -99.405202012500567, 20.271364479653588, 0.0 ], [ -99.405665469064459, 20.270476298326685, 0.0 ], [ -99.404835121845537, 20.269819609385365, 0.0 ], [ -99.40437300205771, 20.270811253184434, 0.0 ], [ -99.40492606865692, 20.271191281933387, 0.0 ], [ -99.404523498715079, 20.271719758053614, 0.0 ], [ -99.404512280550819, 20.272280601760091, 0.0 ], [ -99.404415129638963, 20.272311273588794, 0.0 ], [ -99.404163397296244, 20.272290785453997, 0.0 ], [ -99.403529353841535, 20.272224397116656, 0.0 ], [ -99.402740603387954, 20.272063309894342, 0.0 ], [ -99.401975125338708, 20.271640853019946, 0.0 ], [ -99.401820665046912, 20.271774132146447, 0.0 ], [ -99.401835544740251, 20.272503844856445, 0.0 ], [ -99.400923260162713, 20.272435526729069, 0.0 ], [ -99.400554617886328, 20.272600211230767, 0.0 ], [ -99.400971324571785, 20.273573493161148, 0.0 ], [ -99.401098276130284, 20.274103027101983, 0.0 ], [ -99.401196152190934, 20.274703728211577, 0.0 ], [ -99.401090637564351, 20.275533593928905, 0.0 ], [ -99.390213476813145, 20.273575323312226, 0.0 ] ], [ [ -99.40149493804411, 20.271740157854186, 0.0 ], [ -99.401411216274241, 20.271343801456741, 0.0 ], [ -99.400572778965568, 20.270879343213689, 0.0 ], [ -99.399884033126369, 20.270855743864061, 0.0 ], [ -99.400305373108864, 20.271989466431187, 0.0 ], [ -99.401530853980304, 20.271974892205066, 0.0 ], [ -99.40149493804411, 20.271740157854186, 0.0 ] ], [ [ -99.400848157295783, 20.270607779926738, 0.0 ], [ -99.401311325459091, 20.270875087271207, 0.0 ], [ -99.401560093187499, 20.270519287432048, 0.0 ], [ -99.401255894976373, 20.269834362923689, 0.0 ], [ -99.400247908191702, 20.269214089601117, 0.0 ], [ -99.399951091351411, 20.270212320594144, 0.0 ], [ -99.400848157295783, 20.270607779926738, 0.0 ] ], [ [ -99.402109565740986, 20.268803216328859, 0.0 ], [ -99.402657187690451, 20.269786138643489, 0.0 ], [ -99.403135988888636, 20.269838305685099, 0.0 ], [ -99.40302435525723, 20.268729747829092, 0.0 ], [ -99.402637518673316, 20.268647790849393, 0.0 ], [ -99.402262730833868, 20.268451377604631, 0.0 ], [ -99.402109565740986, 20.268803216328859, 0.0 ] ], [ [ -99.402317842522734, 20.269837473921065, 0.0 ], [ -99.401611896053268, 20.269262447941191, 0.0 ], [ -99.400980453152116, 20.269544854935774, 0.0 ], [ -99.401752741111963, 20.270049897506677, 0.0 ], [ -99.402317842522734, 20.269837473921065, 0.0 ] ] ], [ [ [ -99.40952810599228, 20.27607353494265, 0.0 ], [ -99.410055430513822, 20.274712607576863, 0.0 ], [ -99.409612895364475, 20.274522720633225, 0.0 ], [ -99.409580599294955, 20.274436965490537, 0.0 ], [ -99.409838285837083, 20.274191847095658, 0.0 ], [ -99.409835033934499, 20.274081093103764, 0.0 ], [ -99.409953825173361, 20.273042278467997, 0.0 ], [ -99.410095000244851, 20.272230883969094, 0.0 ], [ -99.410099037584899, 20.272135436544612, 0.0 ], [ -99.410904720147485, 20.272164454973158, 0.0 ], [ -99.410899785212948, 20.271447909599505, 0.0 ], [ -99.410114954361717, 20.271793420359387, 0.0 ], [ -99.410199986877913, 20.271683237738408, 0.0 ], [ -99.410169568274824, 20.270799358383698, 0.0 ], [ -99.411066893178287, 20.270846461844275, 0.0 ], [ -99.411348537446528, 20.27015231167535, 0.0 ], [ -99.410930385784781, 20.269984646683113, 0.0 ], [ -99.410599540711132, 20.269686866729753, 0.0 ], [ -99.410606819683224, 20.26954102292153, 0.0 ], [ -99.411059738199668, 20.269602864261049, 0.0 ], [ -99.41182978120311, 20.269992530526782, 0.0 ], [ -99.412468822387211, 20.270195269158396, 0.0 ], [ -99.410688599991445, 20.276180030535308, 0.0 ], [ -99.410011603242822, 20.27601366600403, 0.0 ], [ -99.409991520303336, 20.276226340876736, 0.0 ], [ -99.40952810599228, 20.27607353494265, 0.0 ] ] ] ] } },
{ "type": "Feature", "properties": { "ID": 598, "ESTADO": "Hidalgo", "MUNICIPIO": "Tepetitlán", "ADVC": "Cerro de San Mateo", "NO_CERT": 587, "INSTRUMENT": "Certificado CONANP - 587/2024", "FECHA_EXP": "30/09/2024", "VIGENCIA": "99 años", "FUENTE": "Cartografía temática, Plano Interno de Reconocimiento de Tierras Comunales", "HA_CERT": 105.0, "ECOSISTEMA": "Vegetación secundaria arbustiva de matorral crasicaule, pastizal inducido y agricultura de temporal anual", "NOM_059": "Fauna: Crotalus molossus, Anas diazi, Cratogeomys fumosus. Flora: Brahea dulcis, Erythrina americana, Hymenocallis concinna.", "TIPO_PROP": "Prop.Social_Ejido_TUC", "NOTA": null, "area": 105, "area_ha": 105 }, "geometry": { "type": "MultiPolygon", "coordinates": [ [ [ [ -99.347588334933562, 20.209250965459827, 0.0 ], [ -99.34318551589871, 20.209212682219686, 0.0 ], [ -99.343556064460643, 20.196517604903704, 0.0 ], [ -99.352328979798415, 20.193040911309193, 0.0 ], [ -99.347588334933562, 20.209250965459827, 0.0 ] ] ] ] } },
{ "type": "Feature", "properties": { "ID": 599, "ESTADO": "Hidalgo", "MUNICIPIO": "Tepetitlán", "ADVC": "El Dagui", "NO_CERT": 584, "INSTRUMENT": "Certificado CONANP - 584/2024", "FECHA_EXP": "30/09/2024", "VIGENCIA": "15 años", "FUENTE": "Cartografía temática, Plano Interno de Reconocimiento de Tierras Comunales", "HA_CERT": 342.0, "ECOSISTEMA": "Bosque de encino, pastizal inducido, agricultura de temporal anual, vegetación secundaria arbustiva de bosque de encino y vegetación secundaria arbustiva de matorral crasicaule", "NOM_059": "Fauna: Crotalus molossus, Anas diazi, Cratogeomys fumosus. Flora: Brahea dulcis, Erythrina americana, Hymenocallis concinna.", "TIPO_PROP": "Prop.Social_Ejido_TUC", "NOTA": null, "area": 342, "area_ha": 342 }, "geometry": { "type": "MultiPolygon", "coordinates": [ [ [ [ -99.43089395609104, 20.165298763327424, 0.0 ], [ -99.430400329011832, 20.165116246817487, 0.0 ], [ -99.429425168036914, 20.165193890685657, 0.0 ], [ -99.428366750524958, 20.165161027659444, 0.0 ], [ -99.42758004068618, 20.164974001049469, 0.0 ], [ -99.427223648352552, 20.164790819041222, 0.0 ], [ -99.426283982719497, 20.152668228556088, 0.0 ], [ -99.434214005771594, 20.153977500261586, 0.0 ], [ -99.434338766920405, 20.154374663360212, 0.0 ], [ -99.434939022118044, 20.154607055371457, 0.0 ], [ -99.435069101857437, 20.154548585948639, 0.0 ], [ -99.436631166694838, 20.15441896306487, 0.0 ], [ -99.438021701140428, 20.153084536422391, 0.0 ], [ -99.438533373116513, 20.153271266256066, 0.0 ], [ -99.438909564924359, 20.158585837766338, 0.0 ], [ -99.439125422899792, 20.161634954090001, 0.0 ], [ -99.439139634886089, 20.161835707951749, 0.0 ], [ -99.439422994175686, 20.165838147912385, 0.0 ], [ -99.439521591348239, 20.167230736409515, 0.0 ], [ -99.438632228394454, 20.167421144470378, 0.0 ], [ -99.437899296215392, 20.167438951046904, 0.0 ], [ -99.437611685830461, 20.167478215447428, 0.0 ], [ -99.435972383618449, 20.167440010448274, 0.0 ], [ -99.435028416528041, 20.166649939843015, 0.0 ], [ -99.43089395609104, 20.165298763327424, 0.0 ] ] ], [ [ [ -99.427944970283988, 20.179312213488, 0.0 ], [ -99.427231778223813, 20.164895696179595, 0.0 ], [ -99.427556198759419, 20.165058738769908, 0.0 ], [ -99.428326687526464, 20.165250423868144, 0.0 ], [ -99.429428176269198, 20.165265635900536, 0.0 ], [ -99.430381086218006, 20.165203711282402, 0.0 ], [ -99.430862342223179, 20.16537723187389, 0.0 ], [ -99.435006634948081, 20.166734142466851, 0.0 ], [ -99.435953384540937, 20.167510150373293, 0.0 ], [ -99.437624381559829, 20.167553787277598, 0.0 ], [ -99.437905580677878, 20.167516237884225, 0.0 ], [ -99.438641698255594, 20.167490666561147, 0.0 ], [ -99.439525035751672, 20.167262019326873, 0.0 ], [ -99.439529348900194, 20.167301187499959, 0.0 ], [ -99.439550772549978, 20.167629152263711, 0.0 ], [ -99.439637232472137, 20.168951821169799, 0.0 ], [ -99.439653311451025, 20.16919779024596, 0.0 ], [ -99.439694028256667, 20.169820650802532, 0.0 ], [ -99.43972573025809, 20.170305603920671, 0.0 ], [ -99.439789276353864, 20.17127767932163, 0.0 ], [ -99.439920135805494, 20.173279673618193, 0.0 ], [ -99.440114420843713, 20.176251691062873, 0.0 ], [ -99.440183853901601, 20.177313675286033, 0.0 ], [ -99.440009222647348, 20.177191139059968, 0.0 ], [ -99.433737370483129, 20.172789724766176, 0.0 ], [ -99.433745860982526, 20.175523932683511, 0.0 ], [ -99.433767664146217, 20.182546019083698, 0.0 ], [ -99.428575918443769, 20.179973906770556, 0.0 ], [ -99.428356382241077, 20.179401339000776, 0.0 ], [ -99.427944970283988, 20.179312213488, 0.0 ] ] ] ] } },
{ "type": "Feature", "properties": { "ID": 600, "ESTADO": "Hidalgo", "MUNICIPIO": "Tula de Allende", "ADVC": "El Sabino Grande de Michimaltongo", "NO_CERT": 586, "INSTRUMENT": "Certificado CONANP - 586/2024", "FECHA_EXP": "30/09/2024", "VIGENCIA": "15 años", "FUENTE": "Cartografía temática, Plano Interno de Reconocimiento de Tierras Comunales", "HA_CERT": 112.369343, "ECOSISTEMA": "Vegetación secundaria arbustiva de matorral crasicaule, pastizal inducido y agricultura de temporal anual", "NOM_059": "Fauna: Crotalus molossus, Anas diazi, Cratogeomys fumosus. Flora: Brahea dulcis, Erythrina americana, Hymenocallis concinna.", "TIPO_PROP": "Prop.Social_Ejido_TUC", "NOTA": null, "area": 112, "area_ha": 112 }, "geometry": { "type": "MultiPolygon", "coordinates": [ [ [ [ -99.419087366688473, 20.140359675358923, 0.0 ], [ -99.427641218866995, 20.13998773914301, 0.0 ], [ -99.426261193898824, 20.152664465792611, 0.0 ], [ -99.424898340585798, 20.15239278419978, 0.0 ], [ -99.424764474700623, 20.151170611834463, 0.0 ], [ -99.41511866569374, 20.146376368274957, 0.0 ], [ -99.419087366688473, 20.140359675358923, 0.0 ] ] ] ] } },
{ "type": "Feature", "properties": { "ID": 601, "ESTADO": "Hidalgo", "MUNICIPIO": "Tepetitlán", "ADVC": "Santa María Daxtho", "NO_CERT": 585, "INSTRUMENT": "Certificado CONANP - 585/2024", "FECHA_EXP": "30/09/2024", "VIGENCIA": "15 años", "FUENTE": "Cartografía temática, Plano Interno de Reconocimiento de Tierras Comunales", "HA_CERT": 134.989428, "ECOSISTEMA": "Vegetación secundaria arbustiva de matorral crasicaule, pastizal inducido y agricultura de temporal anual", "NOM_059": "Fauna: Crotalus molossus, Anas diazi, Cratogeomys fumosus. Flora: Brahea dulcis, Erythrina americana, Hymenocallis concinna.", "TIPO_PROP": "Prop.Social_Ejido_TUC", "NOTA": null, "area": 135, "area_ha": 135 }, "geometry": { "type": "MultiPolygon", "coordinates": [ [ [ [ -99.415285506121052, 20.135525739321565, 0.0 ], [ -99.410085079262856, 20.13526926256657, 0.0 ], [ -99.410975649106774, 20.134229359397583, 0.0 ], [ -99.410345680308751, 20.13384049614217, 0.0 ], [ -99.408790683243296, 20.131935390306179, 0.0 ], [ -99.40850554329603, 20.131772205622955, 0.0 ], [ -99.40835380968042, 20.131610091132984, 0.0 ], [ -99.408285251662903, 20.131496024721912, 0.0 ], [ -99.408124893548859, 20.130748608061996, 0.0 ], [ -99.408014561122968, 20.130234360427551, 0.0 ], [ -99.407995657373533, 20.130146243954179, 0.0 ], [ -99.407955509838757, 20.129959118418757, 0.0 ], [ -99.407685176329665, 20.129152512878303, 0.0 ], [ -99.407103738546553, 20.128092312010779, 0.0 ], [ -99.419163924175635, 20.12624525021829, 0.0 ], [ -99.419087366688473, 20.140359674459546, 0.0 ], [ -99.41511866569374, 20.146376369174277, 0.0 ], [ -99.415285506121052, 20.135525739321565, 0.0 ] ] ] ] } },
{ "type": "Feature", "properties": { "ID": 612, "ESTADO": "Hidalgo", "MUNICIPIO": "Tula de Allende", "ADVC": "El Sabino", "NO_CERT": 598, "INSTRUMENT": "Certificado CONANP-598/2025", "FECHA_EXP": "20/02/2025", "VIGENCIA": "15 años", "FUENTE": "PROCEDE y Levantamiento en campo con GPS", "HA_CERT": 142.7, "ECOSISTEMA": "Bosque de encino y matorral crasicaule", "NOM_059": "Fauna: Crotalus molossus, Anas diazi, Cratogeomys fumosus. Flora: Brahea dulcis, Erythrina americana, Hymenocallis concinna.", "TIPO_PROP": "Propiedad Social Ejido (Tierras de Uso Común)", "NOTA": null, "area": 143, "area_ha": 143 }, "geometry": { "type": "MultiPolygon", "coordinates": [ [ [ [ -99.43421400505602, 20.153977500432159, 0.0 ], [ -99.426261194605871, 20.152664466274917, 0.0 ], [ -99.427641219202158, 20.139987739457915, 0.0 ], [ -99.433945497881794, 20.139891230739252, 0.0 ], [ -99.435579635175145, 20.147103951325619, 0.0 ], [ -99.436647286964543, 20.148852738684866, 0.0 ], [ -99.436698929809367, 20.148919746230444, 0.0 ], [ -99.436611438374058, 20.149048198419806, 0.0 ], [ -99.436596660923485, 20.149128770393055, 0.0 ], [ -99.437220746270881, 20.150046630552662, 0.0 ], [ -99.438533372648337, 20.15327126598423, 0.0 ], [ -99.438021700671214, 20.153084535831301, 0.0 ], [ -99.436631165449313, 20.154418962056923, 0.0 ], [ -99.435069101744872, 20.15454858606293, 0.0 ], [ -99.434939021419311, 20.15460705491282, 0.0 ], [ -99.434338765831384, 20.15437466290533, 0.0 ], [ -99.43421400505602, 20.153977500432159, 0.0 ] ] ] ] } },
{ "type": "Feature", "properties": { "ID": 613, "ESTADO": "Hidalgo", "MUNICIPIO": "Tepeji del Río de Ocampo", "ADVC": "Cerro Lobo", "NO_CERT": 599, "INSTRUMENT": "Certificado CONANP-599/2025", "FECHA_EXP": "20/02/2025", "VIGENCIA": "15 años", "FUENTE": "PROCEDE y Levantamiento en campo con GPS", "HA_CERT": 224.9351863, "ECOSISTEMA": "Bosque de encino y matorral crasicaule", "NOM_059": "Fauna: Crotalus molossus, Anas diazi, Cratogeomys fumosus. Flora: Brahea dulcis, Erythrina americana, Hymenocallis concinna.", "TIPO_PROP": "Propiedad Social Ejido (Tierras de Uso Común)", "NOTA": "Verificar la superficie", "area": 225, "area_ha": 225 }, "geometry": { "type": "MultiPolygon", "coordinates": [ [ [ [ -99.411530205871571, 20.025781898494863, 0.0 ], [ -99.405094417995258, 20.025034487828211, 0.0 ], [ -99.405149040022749, 20.023436644598526, 0.0 ], [ -99.40410643536103, 20.023591765837949, 0.0 ], [ -99.404137570818037, 20.024923347241693, 0.0 ], [ -99.402997821992173, 20.024790950215728, 0.0 ], [ -99.402902828956087, 20.024500483297203, 0.0 ], [ -99.402974040419053, 20.024023883953653, 0.0 ], [ -99.40239287429003, 20.02309218255774, 0.0 ], [ -99.401960809424224, 20.022522606145255, 0.0 ], [ -99.401220736098367, 20.02235832958079, 0.0 ], [ -99.400849957196698, 20.024541431237406, 0.0 ], [ -99.399223697460513, 20.024352495846681, 0.0 ], [ -99.400079974331575, 20.023024159971683, 0.0 ], [ -99.400655065651094, 20.022062264676762, 0.0 ], [ -99.399917309150766, 20.022038516566258, 0.0 ], [ -99.397601287178304, 20.021772313347959, 0.0 ], [ -99.396970280502288, 20.022447170685837, 0.0 ], [ -99.396741824735543, 20.022416222196739, 0.0 ], [ -99.39639006768283, 20.02273477945997, 0.0 ], [ -99.39664940450902, 20.024053370976102, 0.0 ], [ -99.393694123550006, 20.023709937808487, 0.0 ], [ -99.394541576896899, 20.020225500383624, 0.0 ], [ -99.394815144654572, 20.019857713105754, 0.0 ], [ -99.397884123498613, 20.018115178376636, 0.0 ], [ -99.40413175207506, 20.017422250337898, 0.0 ], [ -99.403965583795156, 20.016992448805784, 0.0 ], [ -99.403524999331083, 20.016389058822654, 0.0 ], [ -99.402991717659333, 20.016069865980967, 0.0 ], [ -99.4032735517129, 20.015251357934225, 0.0 ], [ -99.403840354423991, 20.015717501015438, 0.0 ], [ -99.404592690589197, 20.016275646451358, 0.0 ], [ -99.405084659816012, 20.015867331795281, 0.0 ], [ -99.405394137784995, 20.016009464467782, 0.0 ], [ -99.405750332651081, 20.015228427580755, 0.0 ], [ -99.406353842475212, 20.014683553657111, 0.0 ], [ -99.40695775266316, 20.014930851433185, 0.0 ], [ -99.407779393665095, 20.015213194598505, 0.0 ], [ -99.408210979457422, 20.015473230378749, 0.0 ], [ -99.409183146685194, 20.01518350436848, 0.0 ], [ -99.410445767575695, 20.014742650670254, 0.0 ], [ -99.411148893001169, 20.015096967270338, 0.0 ], [ -99.411851226532988, 20.015508007633578, 0.0 ], [ -99.411898227517341, 20.016364265904883, 0.0 ], [ -99.41198901936275, 20.016656911136277, 0.0 ], [ -99.411668276019626, 20.018377243384055, 0.0 ], [ -99.412036529735033, 20.018451237950121, 0.0 ], [ -99.412764894749614, 20.018360468084278, 0.0 ], [ -99.412822964760679, 20.018203455653111, 0.0 ], [ -99.413219287243209, 20.018186494221062, 0.0 ], [ -99.413598207756948, 20.018009164937819, 0.0 ], [ -99.413999842579742, 20.017858525238879, 0.0 ], [ -99.414081055483862, 20.017728881333078, 0.0 ], [ -99.415308492144604, 20.018003120757857, 0.0 ], [ -99.415829352915637, 20.01741994234429, 0.0 ], [ -99.41744376599614, 20.018487348918651, 0.0 ], [ -99.419555797859644, 20.020151327898251, 0.0 ], [ -99.419554974080711, 20.0218448240885, 0.0 ], [ -99.42219169022097, 20.022627994740269, 0.0 ], [ -99.42109161435981, 20.023257361118951, 0.0 ], [ -99.421463310765887, 20.024070621573365, 0.0 ], [ -99.423141201217831, 20.022863837298768, 0.0 ], [ -99.422995886367246, 20.022823740891958, 0.0 ], [ -99.423720910166224, 20.022401341221421, 0.0 ], [ -99.421679157967873, 20.024495465312526, 0.0 ], [ -99.421823826573117, 20.024887835909613, 0.0 ], [ -99.420817451131271, 20.026883367251529, 0.0 ], [ -99.411530205871571, 20.025781898494863, 0.0 ] ], [ [ -99.414255479657513, 20.024199859950965, 0.0 ], [ -99.414078784039617, 20.024193538429053, 0.0 ], [ -99.41347120320124, 20.025196994077618, 0.0 ], [ -99.41370554476795, 20.025481478893955, 0.0 ], [ -99.414859179153083, 20.025474146143083, 0.0 ], [ -99.414862213840379, 20.024421244477608, 0.0 ], [ -99.414255479657513, 20.024199859950965, 0.0 ] ], [ [ -99.406679625776576, 20.022180099543053, 0.0 ], [ -99.406343997972812, 20.022091218216797, 0.0 ], [ -99.40597145613097, 20.02240879821662, 0.0 ], [ -99.406714470624834, 20.022876894633839, 0.0 ], [ -99.406695147287707, 20.023052501749039, 0.0 ], [ -99.406904866014756, 20.023078165150324, 0.0 ], [ -99.406933138736107, 20.023302233112119, 0.0 ], [ -99.407586214306122, 20.023461349884162, 0.0 ], [ -99.407778917984629, 20.023023854572617, 0.0 ], [ -99.406679625776576, 20.022180099543053, 0.0 ] ], [ [ -99.403067871756534, 20.020775524539925, 0.0 ], [ -99.402318291091547, 20.020734340295363, 0.0 ], [ -99.402059507890769, 20.021678626483506, 0.0 ], [ -99.402894340871569, 20.02175179131369, 0.0 ], [ -99.403067871756534, 20.020775524539925, 0.0 ] ] ] ] } },
{ "type": "Feature", "properties": { "ID": 617, "ESTADO": "Hidalgo", "MUNICIPIO": "Tula de Allende", "ADVC": "El Chabacano", "NO_CERT": 603, "INSTRUMENT": "Certificado CONANP-603/2025", "FECHA_EXP": "28/02/2025", "VIGENCIA": "15 años", "FUENTE": "PROCEDE y Levantamiento en campo con GPS", "HA_CERT": 217.0, "ECOSISTEMA": "Matorral crasicaule", "NOM_059": "Fauna: Crotalus molossus, Anas diazi, Cratogeomys fumosus. Flora: Brahea dulcis, Erythrina americana, Hymenocallis concinna.", "TIPO_PROP": "Propiedad Social Ejido (Tierras de Uso Común)", "NOTA": null, "area": 217, "area_ha": 217 }, "geometry": { "type": "MultiPolygon", "coordinates": [ [ [ [ -99.46768874878228, 20.103028658174427, 0.0 ], [ -99.465179702097487, 20.102763130656395, 0.0 ], [ -99.462856436807897, 20.102314599010466, 0.0 ], [ -99.46320623346088, 20.101652399647548, 0.0 ], [ -99.465547481124986, 20.102506404821149, 0.0 ], [ -99.4677246965976, 20.102881715853187, 0.0 ], [ -99.467725701515462, 20.102881889398247, 0.0 ], [ -99.46772815876335, 20.102884723914201, 0.0 ], [ -99.467727287468847, 20.102896044254411, 0.0 ], [ -99.467726937890859, 20.102902985099096, 0.0 ], [ -99.46772681953496, 20.102905326731616, 0.0 ], [ -99.467726356259504, 20.102905871947879, 0.0 ], [ -99.467725501918039, 20.102905509143913, 0.0 ], [ -99.467723139080704, 20.102909662188551, 0.0 ], [ -99.467723052884594, 20.102910593161372, 0.0 ], [ -99.46772301118375, 20.102911045993103, 0.0 ], [ -99.467719977931267, 20.102943910208069, 0.0 ], [ -99.467712962441567, 20.102974514142772, 0.0 ], [ -99.46768874878228, 20.103028658174427, 0.0 ] ] ], [ [ [ -99.459870552314271, 20.102514384780754, 0.0 ], [ -99.459830256967848, 20.101095313073014, 0.0 ], [ -99.463101439362333, 20.101627574392968, 0.0 ], [ -99.462756559130071, 20.102307365295474, 0.0 ], [ -99.462274785816021, 20.103282215097458, 0.0 ], [ -99.460440585280253, 20.10254091466771, 0.0 ], [ -99.459870552314271, 20.102514384780754, 0.0 ] ] ], [ [ [ -99.442687823950223, 20.116097791178838, 0.0 ], [ -99.442843165973727, 20.106107829783863, 0.0 ], [ -99.443767308422082, 20.106155393146135, 0.0 ], [ -99.444303862901052, 20.106154978082259, 0.0 ], [ -99.44444643701928, 20.105776523671011, 0.0 ], [ -99.444486815865673, 20.105723350441114, 0.0 ], [ -99.444683666351352, 20.105291792403076, 0.0 ], [ -99.444717277928419, 20.105221294475029, 0.0 ], [ -99.444905388379141, 20.104801115126122, 0.0 ], [ -99.444965210317434, 20.104713040378616, 0.0 ], [ -99.4454621143027, 20.104546693892186, 0.0 ], [ -99.446256359104609, 20.10468170997655, 0.0 ], [ -99.447124051617777, 20.104741135079966, 0.0 ], [ -99.448444693969066, 20.103133703314139, 0.0 ], [ -99.448384582319648, 20.1029289952242, 0.0 ], [ -99.447688477346844, 20.10267669963622, 0.0 ], [ -99.451356716515875, 20.099960427581994, 0.0 ], [ -99.451473247037029, 20.099780830751396, 0.0 ], [ -99.453419216782549, 20.100116131709456, 0.0 ], [ -99.453541366310731, 20.100269557189563, 0.0 ], [ -99.454206238867016, 20.100226365821403, 0.0 ], [ -99.454007717412992, 20.100933780833323, 0.0 ], [ -99.453700185808202, 20.101824176767192, 0.0 ], [ -99.452782165577617, 20.102345093758171, 0.0 ], [ -99.452513430735692, 20.102805704343218, 0.0 ], [ -99.452636916740119, 20.103251587144655, 0.0 ], [ -99.452477233738193, 20.103562650680662, 0.0 ], [ -99.450858002454879, 20.103124809429399, 0.0 ], [ -99.450403082762421, 20.103800885756005, 0.0 ], [ -99.453416799995708, 20.10534839983859, 0.0 ], [ -99.453877918857302, 20.105750037249027, 0.0 ], [ -99.45530050250494, 20.107044925053124, 0.0 ], [ -99.454763524192117, 20.107573024030675, 0.0 ], [ -99.454222905827748, 20.108181220030193, 0.0 ], [ -99.455792586046186, 20.109282653494461, 0.0 ], [ -99.456510459481592, 20.109331090054074, 0.0 ], [ -99.456571384552731, 20.109360855376899, 0.0 ], [ -99.457453707934462, 20.110285794554954, 0.0 ], [ -99.459787851535339, 20.111309311940481, 0.0 ], [ -99.460603881841166, 20.110460627008933, 0.0 ], [ -99.461789216752095, 20.10915822464624, 0.0 ], [ -99.461831964176895, 20.109207868701844, 0.0 ], [ -99.462545583324754, 20.109410184474712, 0.0 ], [ -99.46411097519325, 20.107763657898655, 0.0 ], [ -99.464151980405802, 20.107728425730325, 0.0 ], [ -99.464358556415789, 20.107812542799419, 0.0 ], [ -99.464973681544222, 20.108124790352516, 0.0 ], [ -99.465009421808929, 20.108140833265853, 0.0 ], [ -99.464889844980746, 20.108340008627408, 0.0 ], [ -99.464634129745889, 20.108721230050719, 0.0 ], [ -99.462895462968334, 20.111313182129837, 0.0 ], [ -99.461924082744872, 20.114111823815662, 0.0 ], [ -99.445015204241656, 20.115857509995973, 0.0 ], [ -99.44355664572538, 20.116008092892173, 0.0 ], [ -99.442687823950223, 20.116097791178838, 0.0 ] ] ] ] } }
]
}
