{
"type": "FeatureCollection",
"name": "endho",
"crs": { "type": "name", "properties": { "name": "urn:ogc:def:crs:EPSG::32614" } },
"features": [
{ "type": "Feature", "properties": { "id": 153, "clvrha": "XIII", "rha": "Aguas del Valle de México", "clvedo": "13", "estado": "Hidalgo", "clase": "Creados", "clvhumedal": "RH26Dj_HUM_C_4383", "elemento": "Antrópico", "superficie": 1278, "anio": 2020 }, "geometry": { "type": "MultiPolygon", "coordinates": [ [ [ [ 461621.726106283313129, 2229355.888481150846928 ], [ 461628.300708349328488, 2229355.156852566637099 ], [ 461628.30281057220418, 2229355.162381138652563 ], [ 461645.389676709542982, 2229353.262166150379926 ], [ 461846.789282910176553, 2229330.862867948133498 ], [ 462056.360839354631025, 2229161.83564680442214 ], [ 462094.210610455833375, 2229131.330318970605731 ], [ 462098.231010398943909, 2229128.075765795074403 ], [ 462391.305804835399613, 2228890.773558237589896 ], [ 462442.417034062149469, 2228849.561229309998453 ], [ 462573.651330093038268, 2228743.740997713524848 ], [ 462761.104151082108729, 2228718.718822752591223 ], [ 462849.455656435748097, 2228555.687509084586054 ], [ 462824.480723874003161, 2228443.680266278330237 ], [ 462699.502451862732414, 2228318.678539395332336 ], [ 462599.657698417489883, 2228180.675899884663522 ], [ 462524.698928728699684, 2227993.688938022125512 ], [ 462537.351084391528275, 2227693.653695850167423 ], [ 462588.054333099513315, 2227305.578716730698943 ], [ 462576.492159855784848, 2227105.526490679942071 ], [ 462677.140469440433662, 2226793.507980671711266 ], [ 462677.402063780871686, 2226555.45945304678753 ], [ 462778.38211377611151, 2226168.419870315585285 ], [ 462740.338153229793534, 2226068.416952281259 ], [ 462640.369108643673826, 2226018.419826327357441 ], [ 462665.87150017922977, 2225705.381332248449326 ], [ 462679.139473382907454, 2225530.361375714186579 ], [ 462638.016460617131088, 2225260.431190776173025 ], [ 462621.998003484855872, 2225155.290781923569739 ], [ 462609.830854354135226, 2224968.249879187904298 ], [ 462660.10209697537357, 2224893.26471731858328 ], [ 462660.107306698570028, 2224893.256959686987102 ], [ 462835.469300365948584, 2224843.235791345592588 ], [ 462944.687387801066507, 2224690.217454040423036 ], [ 463025.666014604677912, 2224577.229282033629715 ], [ 463207.775571850477718, 2224540.164080372545868 ], [ 463377.039644803560805, 2224509.276278114877641 ], [ 463377.053240553359501, 2224509.279569426551461 ], [ 463382.928677578631323, 2224508.208162663504481 ], [ 463508.146708603540901, 2224540.192645655013621 ], [ 463652.1000637258403, 2224534.630605169106275 ], [ 463687.580700707447249, 2224533.258492874447256 ], [ 463687.715517471602652, 2224533.246038734447211 ], [ 463689.316776368650608, 2224533.184047813992947 ], [ 463883.560506725742016, 2224515.125917686615139 ], [ 463989.517706442857161, 2224471.150125029496849 ], [ 464064.394000938045792, 2224327.132934524212033 ], [ 464082.730263171950355, 2224196.145942031405866 ], [ 464058.000808506796602, 2224096.121802959125489 ], [ 464013.862213192041963, 2223971.1477817944251 ], [ 463963.745578069821931, 2223852.137722668703645 ], [ 463938.666659495211206, 2223715.141847769264132 ], [ 463932.207056752522476, 2223527.11377428425476 ], [ 463944.236548146174755, 2223346.08122703852132 ], [ 463999.886198293825146, 2223196.194379052612931 ], [ 464043.670930887223221, 2223077.320169339422137 ], [ 464068.651409896556288, 2222927.3010473838076 ], [ 463968.864708530833013, 2222796.259306393098086 ], [ 463918.10152073786594, 2222660.03380009625107 ], [ 463824.815751511137933, 2222771.276695856358856 ], [ 463743.688358247745782, 2222802.279407411348075 ], [ 463637.675767702574376, 2222783.247079282533377 ], [ 463543.799286597175524, 2222902.289002353325486 ], [ 463529.011507216549944, 2222911.430859263055027 ], [ 463412.740443706978112, 2222983.300351937767118 ], [ 463349.602116147405468, 2222890.279921678360552 ], [ 463344.347960596089251, 2222872.876984428614378 ], [ 463324.834553015825804, 2222808.249686866533011 ], [ 463281.717228902503848, 2222677.285178031772375 ], [ 463281.746654351765756, 2222558.267789247445762 ], [ 463218.743447322631255, 2222533.293332608882338 ], [ 463124.620659837615676, 2222446.2983453059569 ], [ 463113.612269604753237, 2222413.137020114343613 ], [ 463099.725211188488174, 2222371.306896581314504 ], [ 463105.243487332365476, 2222366.126130701508373 ], [ 463124.034235319471918, 2222348.483150087762624 ], [ 463193.44870668038493, 2222283.315094311255962 ], [ 463212.622667071875185, 2222215.336195683572441 ], [ 463262.551441316085402, 2222083.370046280324459 ], [ 463312.511575752287172, 2221977.365609068889171 ], [ 463362.456559861660935, 2221858.384995850268751 ], [ 463367.866229455452412, 2221845.68276700982824 ], [ 463399.493172515474726, 2221771.412213425152004 ], [ 463331.374704504618421, 2221633.437653518281877 ], [ 463274.313379429513589, 2221508.470664205495268 ], [ 463231.182053165568504, 2221365.535980031825602 ], [ 463187.105722366017289, 2221321.54738025739789 ], [ 463237.291235341283027, 2221202.562679238151759 ], [ 463249.111010501685087, 2221096.609858775977045 ], [ 463243.137750798894558, 2221015.590440726839006 ], [ 463168.099566849123221, 2221002.593094754498452 ], [ 463087.165562949667219, 2221070.570844162255526 ], [ 463049.025592064252123, 2221102.60338996630162 ], [ 462987.017478903871961, 2221221.539580516982824 ], [ 462999.335200848814566, 2221352.494444715324789 ], [ 463052.224789979343768, 2221394.739770436193794 ], [ 463093.241454779985361, 2221427.501085317227989 ], [ 463137.359414424281567, 2221558.452966032084078 ], [ 463062.30828986724373, 2221758.401031949557364 ], [ 462924.429111599165481, 2221883.394612514413893 ], [ 462806.510204965365119, 2222052.353123230859637 ], [ 462674.560590735054575, 2222196.331510109826922 ], [ 462549.653065998747479, 2222377.29502813052386 ], [ 462462.731167484540492, 2222540.316591915208846 ], [ 462356.662139169231523, 2222627.296648895833641 ], [ 462320.509744892653544, 2222643.218458880204707 ], [ 462256.724400144419633, 2222671.310070336330682 ], [ 462156.616213942004833, 2222696.298072319477797 ], [ 462168.585305767075624, 2222752.278879253659397 ], [ 462227.273339980456512, 2222763.490159425418824 ], [ 462299.566524990135804, 2222777.301562923006713 ], [ 462431.592042669071816, 2222840.307103298138827 ], [ 462488.910998085804749, 2222873.777738815173507 ], [ 462537.733624517568387, 2222902.288073657080531 ], [ 462608.632843742379919, 2222910.920266383793205 ], [ 462693.689223139139358, 2222921.277554755099118 ], [ 462849.80415809340775, 2223033.319440955296159 ], [ 462899.16641329578124, 2223076.661845283117145 ], [ 462956.867284423206002, 2223127.323643897660077 ], [ 463043.983709373685997, 2223233.229484336916357 ], [ 463074.625327362969983, 2223240.977357682306319 ], [ 463193.897896394191775, 2223271.138621483463794 ], [ 463406.909647113352548, 2223283.130717621184886 ], [ 463582.02954212698387, 2223315.081933769397438 ], [ 463669.049453259736765, 2223421.110553307458758 ], [ 463663.246719481307082, 2223633.132723684422672 ], [ 463657.728656591963954, 2223808.150707853958011 ], [ 463620.051242383022327, 2223977.137207108549774 ], [ 463507.863074399356265, 2224046.180242856964469 ], [ 463345.014223885606043, 2224033.165131482761353 ], [ 463066.811963309650309, 2224033.182942534796894 ], [ 462975.676505796785932, 2224033.189419584814459 ], [ 462807.420781953667756, 2224046.194544740952551 ], [ 462644.11860178707866, 2224108.209111704491079 ], [ 462553.953876804676838, 2224182.750979857053608 ], [ 462462.656730479910038, 2224258.228669876698405 ], [ 462331.607915523520205, 2224383.243962568230927 ], [ 462374.910369703662582, 2224483.257800434250385 ], [ 462493.98587823525304, 2224558.22121247369796 ], [ 462607.056707584706601, 2224621.244432357139885 ], [ 462707.231013249082025, 2224665.226433888543397 ], [ 462747.244685963727534, 2224730.264118556398898 ], [ 462635.210349406057503, 2224768.265956831164658 ], [ 462547.031252705957741, 2224830.302036121953279 ], [ 462509.824610893148929, 2224880.280376234091818 ], [ 462534.999864891229663, 2225030.292799852788448 ], [ 462546.772180326632224, 2225193.296150496229529 ], [ 462521.835296978068072, 2225355.318379359319806 ], [ 462562.65257302869577, 2225411.423374479170889 ], [ 462604.073434891062789, 2225468.361571533605456 ], [ 462528.813957282458432, 2225580.38016295293346 ], [ 462491.338472987816203, 2225554.298868234734982 ], [ 462403.809752787288744, 2225493.385831751860678 ], [ 462290.764367229829077, 2225480.397221765946597 ], [ 462203.509878171491437, 2225530.378563181962818 ], [ 462203.590204841515515, 2225530.787844814360142 ], [ 462203.582897848042194, 2225530.792287235613912 ], [ 462228.232492031936999, 2225655.445819561369717 ], [ 462278.090037810732611, 2225780.436484378762543 ], [ 462253.092077211942524, 2225880.432305568829179 ], [ 462239.587456874549389, 2226043.493803198914975 ], [ 462192.264900478767231, 2226027.658757376484573 ], [ 462164.739250408718362, 2226018.440531265921891 ], [ 461989.380047922721133, 2226018.495164510793984 ], [ 461877.462542042136192, 2225893.487301498185843 ], [ 461727.391889242688194, 2225730.486784529872239 ], [ 461632.56762405927293, 2225550.065570214297622 ], [ 461602.825017500319518, 2225493.473474074620754 ], [ 461534.016987736453302, 2225435.754846981726587 ], [ 461527.740173183789011, 2225430.488947051111609 ], [ 461526.766372642130591, 2225427.343819046858698 ], [ 461501.638992087740917, 2225346.166566158179194 ], [ 461508.019729784340598, 2225332.237579533364624 ], [ 461444.541689261444844, 2225163.222827877383679 ], [ 461357.566044640436303, 2225100.233266983646899 ], [ 461306.509591193695087, 2225063.256581119727343 ], [ 461216.248672491521575, 2225030.277096538804471 ], [ 461169.811480292119086, 2225013.310714564286172 ], [ 461169.502873866469599, 2225013.19741914793849 ], [ 461156.510100728017278, 2225101.216359762009233 ], [ 461106.597197945113294, 2225126.202836922835559 ], [ 460969.580521849449724, 2225051.241461976896971 ], [ 460887.07544932764722, 2224989.265621029306203 ], [ 460894.384833490999881, 2224905.426832732278854 ], [ 460944.43015043385094, 2224780.421451169997454 ], [ 460951.394970296765678, 2224759.965105643030256 ], [ 460971.219931820349302, 2224701.739127883687615 ], [ 460982.579545428918209, 2224668.375074718613178 ], [ 460969.530560518091079, 2224518.395052189007401 ], [ 460957.709113292803522, 2224455.375260821077973 ], [ 460956.79597812256543, 2224454.646926931105554 ], [ 460956.49238067085389, 2224451.178296543192118 ], [ 460944.661522344278637, 2224388.196163415908813 ], [ 460819.674221819324885, 2224288.212180675007403 ], [ 460784.729553984827362, 2224150.373831084463745 ], [ 460781.7188086041715, 2224138.204270909074694 ], [ 460768.778776077902876, 2224143.300711557269096 ], [ 460746.622485412226524, 2224152.246900521218777 ], [ 460794.61564952385379, 2224205.393543670885265 ], [ 460732.23842890287051, 2224230.388070695567876 ], [ 460632.0275821708492, 2224293.412732535973191 ], [ 460621.59904105955502, 2224303.814367320854217 ], [ 460556.828471838554833, 2224368.417120689060539 ], [ 460544.010540347546339, 2224443.444174288772047 ], [ 460518.930022123851813, 2224605.458735321182758 ], [ 460694.088484346226323, 2224630.428819539491087 ], [ 460857.423231945431326, 2224668.455690865870565 ], [ 460832.348884074774105, 2224780.44416453037411 ], [ 460518.681126445822883, 2224693.45370523352176 ], [ 460368.660684309783392, 2224643.48007845133543 ], [ 460106.05739726050524, 2224605.50454784091562 ], [ 459880.809383102809079, 2224468.514363217633218 ], [ 459692.485473087697756, 2224443.533080915454775 ], [ 459404.977823926485144, 2224455.570593302603811 ], [ 459397.060723149159458, 2224372.195967401377857 ], [ 459391.968333848810289, 2224318.554608970880508 ], [ 459342.25123976561008, 2224168.554890013299882 ], [ 459129.855355062289163, 2224105.560771449003369 ], [ 459004.743262020056136, 2224143.584618201479316 ], [ 458866.526684670126997, 2224143.615045906510204 ], [ 458829.183754802623298, 2224136.16374257626012 ], [ 458741.104014277283568, 2224118.592896604910493 ], [ 458695.386247139947955, 2224057.542764948215336 ], [ 458666.224322094931267, 2224018.602865252178162 ], [ 458666.085438383975998, 2223830.575003582052886 ], [ 458766.552417545055505, 2223605.478661806788296 ], [ 458666.549229763564654, 2223555.528416549321264 ], [ 458541.153099070477765, 2223543.563710134942085 ], [ 458525.826122652448248, 2223577.841857862658799 ], [ 458491.098376017354894, 2223655.510025698691607 ], [ 458482.267075323441532, 2223809.382884870283306 ], [ 458478.866685061599128, 2223868.629467110615224 ], [ 458465.947965956875123, 2224055.632774358615279 ], [ 458445.701525707845576, 2224117.18485757522285 ], [ 458428.77822588669369, 2224168.630937829148024 ], [ 458428.581965497112833, 2224171.80525311594829 ], [ 458425.183909224870149, 2224226.657395157963037 ], [ 458415.533826510771178, 2224343.657953411806375 ], [ 458540.469180435058661, 2224418.665886412374675 ], [ 458600.214035128941759, 2224427.185422668233514 ], [ 458715.605618707486428, 2224443.638342913240194 ], [ 458840.957666882663034, 2224505.643272452522069 ], [ 458828.981410394364502, 2224668.66211424395442 ], [ 458856.920674757915549, 2224800.791006492916495 ], [ 458865.98314668162493, 2224843.650837398599833 ], [ 458895.468287966039497, 2224856.883026349358261 ], [ 459004.159428067039698, 2224905.660908671561629 ], [ 459041.724338785163127, 2225018.413379428442568 ], [ 459054.136736403102987, 2225055.66803292511031 ], [ 459066.577652767591644, 2225168.636821416206658 ], [ 459066.584969548915979, 2225168.636804210487753 ], [ 459066.590307720645797, 2225168.684377240482718 ], [ 459140.446596810535993, 2225155.896251837257296 ], [ 459140.461238174233586, 2225155.899537394288927 ], [ 459141.682653103605844, 2225155.688621837180108 ], [ 459219.010849164973479, 2225175.233167392667383 ], [ 459291.767338130157441, 2225193.622344574891031 ], [ 459291.788230245292652, 2225193.616762510035187 ], [ 459291.987995152070653, 2225193.668307467829436 ], [ 459317.836651053628884, 2225188.49851377075538 ], [ 459415.810107661876827, 2225168.909126399084926 ], [ 459415.831015323055908, 2225168.910184293519706 ], [ 459417.159967037907336, 2225168.644811980891973 ], [ 459530.212766369339079, 2225180.61220104014501 ], [ 459541.842807945562527, 2225280.657599139027297 ], [ 459667.140313002862968, 2225418.649339890573174 ], [ 459686.525960128055885, 2225477.548553984146565 ], [ 459686.636417296133004, 2225477.853731059934944 ], [ 459699.360810919897631, 2225516.514646537136286 ], [ 459724.765216553583741, 2225593.699385884683579 ], [ 459727.247733762138523, 2225590.575126291718334 ], [ 459750.891093493206427, 2225560.818183476105332 ], [ 459769.648671695846133, 2225537.208892771974206 ], [ 459774.814888594613876, 2225530.708715270739049 ], [ 459887.120293949265033, 2225530.649810540489852 ], [ 459887.563941562664695, 2225530.852409931831062 ], [ 459887.587984444922768, 2225530.853461158461869 ], [ 460025.295919456169941, 2225593.656083134934306 ], [ 460187.064050810178742, 2225818.657060679979622 ], [ 460299.916360229661223, 2225993.634688684716821 ], [ 460349.996928365319036, 2226165.357481407001615 ], [ 460349.992787943047006, 2226165.375197098590434 ], [ 460361.751156548794825, 2226205.695428935810924 ], [ 460324.372119510080665, 2226355.701734434813261 ], [ 460335.924016958859283, 2226605.739823913667351 ], [ 460235.544520832190756, 2226743.765815634280443 ], [ 460085.169295846309979, 2226880.790501343086362 ], [ 460048.358865759393666, 2226903.980601052287966 ], [ 459985.136079844553024, 2226943.812351498752832 ], [ 459927.40373432834167, 2227001.3257936690934 ], [ 459859.646792996441945, 2227068.826783625409007 ], [ 459865.487063018896151, 2227068.82658418500796 ], [ 459865.47872233344242, 2227068.835456574335694 ], [ 460072.94725883519277, 2227068.817154866177589 ], [ 460073.350977304042317, 2227068.944598499685526 ], [ 460073.383376622165088, 2227068.944524116348475 ], [ 460139.237576150451787, 2227089.758796035777777 ], [ 460348.170140682312194, 2227155.791456662584096 ], [ 460351.947597758844495, 2227155.47519742557779 ], [ 460351.96642530412646, 2227155.481794353108853 ], [ 460648.666215115226805, 2227130.763867647852749 ], [ 460648.874433943419717, 2227131.329997049178928 ], [ 460648.883835149696097, 2227131.327762493398041 ], [ 460685.473233432683628, 2227230.757550998590887 ], [ 460750.322002316010185, 2227397.10753415664658 ], [ 460750.313651357777417, 2227397.111979574430734 ], [ 460773.186875051644165, 2227455.785423093941063 ], [ 460634.976467168598901, 2227518.80123045342043 ], [ 460334.490700550086331, 2227518.825689542107284 ], [ 460272.414233993098605, 2227568.844908696599305 ], [ 460211.471644779667258, 2227618.222124458290637 ], [ 460136.403829101123847, 2227679.0458605280146 ], [ 460134.168315709161106, 2227680.857027839869261 ], [ 460137.407557468279265, 2227681.054329401347786 ], [ 460347.409259416279383, 2227693.815076020546257 ], [ 460397.308627975638956, 2227780.85277258977294 ], [ 460472.277251068851911, 2227930.849152152426541 ], [ 460522.255988731689285, 2227955.844197804573923 ], [ 460528.090731081843842, 2227955.84422770049423 ], [ 460528.106422441778705, 2227955.850831927265972 ], [ 460609.40925248991698, 2227955.84679209953174 ], [ 460722.453593202400953, 2227943.828496950678527 ], [ 460724.545050343498588, 2227944.392585732974112 ], [ 460724.571172491298057, 2227944.390313428360969 ], [ 460859.597469329484738, 2227980.821865770034492 ], [ 460905.106760218157433, 2228062.537956352811307 ], [ 460905.101562202034984, 2228062.550141111481935 ], [ 460922.518169407499954, 2228093.822320124134421 ], [ 460872.170614633942023, 2228218.847867714241147 ], [ 460783.935952118132263, 2228318.870335918385535 ], [ 460633.645237914926838, 2228405.889027321711183 ], [ 460521.568762118811719, 2228493.90892732096836 ], [ 460333.129497000132687, 2228555.930485830176622 ], [ 460171.152235742774792, 2228555.936878261622041 ], [ 460149.602380539523438, 2228565.151506729424 ], [ 459995.784814674872905, 2228630.921970429830253 ], [ 460039.449929041031282, 2228674.895824495237321 ], [ 460132.846397704211995, 2228768.951891732402146 ], [ 460232.677182582672685, 2228905.924879485275596 ], [ 460420.760912807483692, 2228930.962623150553554 ], [ 460570.892201639420819, 2229005.963813050184399 ], [ 460578.216800424444955, 2229005.963791956659406 ], [ 460578.230400780215859, 2229005.970400961581618 ], [ 460721.06891163054388, 2229005.954540582373738 ], [ 461096.591944212384988, 2228955.932625705841929 ], [ 461246.826377910270821, 2228955.883510547224432 ], [ 461249.04540447605541, 2228956.075543790590018 ], [ 461249.139459155558143, 2228956.07644066400826 ], [ 461396.752181796182413, 2228968.860460454132408 ], [ 461534.160270341846626, 2229005.856210791505873 ], [ 461602.104853388445918, 2229073.992416160181165 ], [ 461602.103835275454912, 2229074.004591481760144 ], [ 461608.94717515463708, 2229080.867253270931542 ], [ 461599.962140429008286, 2229200.512990917544812 ], [ 461599.966369388974272, 2229200.535114428494126 ], [ 461596.711851434607524, 2229243.87180710490793 ], [ 461607.730836871138308, 2229293.220329795964062 ], [ 461621.726106283313129, 2229355.888481150846928 ] ] ] ] } }
]
}
