{
"type": "FeatureCollection",
"name": "estabilizacion de taludes",
"crs": { "type": "name", "properties": { "name": "urn:ogc:def:crs:OGC:1.3:CRS84" } },
"features": [
{ "type": "Feature", "properties": { "id": null, "Name": "tapete", "description": null, "timestamp": null, "begin": null, "end": null, "altitudeMode": null, "tessellate": null, "extrude": null, "visibility": null, "drawOrder": null, "icon": null, "anio": 2025 }, "geometry": { "type": "MultiLineString", "coordinates": [ [ [ -99.338206786033467, 20.049141756532919, 0.0 ], [ -99.33810244374564, 20.049331691089328, 0.0 ], [ -99.338051629082031, 20.049444758664993, 0.0 ], [ -99.338001994146055, 20.04952722781108, 0.0 ], [ -99.337957357914988, 20.049617924818445, 0.0 ], [ -99.337943795789741, 20.049681496604435, 0.0 ], [ -99.337943795789741, 20.049681496604435, 0.0 ], [ -99.337937775860354, 20.049778003686999, 0.0 ], [ -99.337926757161256, 20.049866282892786, 0.0 ], [ -99.337940987888132, 20.049998760602112, 0.0 ], [ -99.337968804732938, 20.050195228920682, 0.0 ], [ -99.338029130739514, 20.050433501140645, 0.0 ] ] ] } },
{ "type": "Feature", "properties": { "id": null, "Name": "tapete", "description": null, "timestamp": null, "begin": null, "end": null, "altitudeMode": null, "tessellate": null, "extrude": null, "visibility": null, "drawOrder": null, "icon": null, "anio": 2025 }, "geometry": { "type": "MultiLineString", "coordinates": [ [ [ -99.337495203408693, 20.050494305144529, 0.0 ], [ -99.337496366737881, 20.050274614881076, 0.0 ], [ -99.337503020107576, 20.050019508627205, 0.0 ], [ -99.33749542180567, 20.049832454515041, 0.0 ], [ -99.337484296953903, 20.049679419604203, 0.0 ], [ -99.337480174389626, 20.049434537640352, 0.0 ], [ -99.337551766822315, 20.049250733633155, 0.0 ], [ -99.337696391409779, 20.04906747952219, 0.0 ], [ -99.33775288722218, 20.04901693829078, 0.0 ], [ -99.337793194188521, 20.048958786546383, 0.0 ], [ -99.337830286247993, 20.048909810633408, 0.0 ], [ -99.337864088213749, 20.048834860182616, 0.0 ], [ -99.337883505099356, 20.048742224495172, 0.0 ], [ -99.337862968734768, 20.048694333667584, 0.0 ], [ -99.337826386436603, 20.048633383758727, 0.0 ], [ -99.337248653350358, 20.047956378149571, 0.0 ] ] ] } },
{ "type": "Feature", "properties": { "id": "", "Name": "tapete", "description": null, "timestamp": null, "begin": null, "end": null, "altitudeMode": null, "tessellate": null, "extrude": null, "visibility": null, "drawOrder": null, "icon": null, "anio": 2025 }, "geometry": { "type": "MultiLineString", "coordinates": [ [ [ -99.338086479108682, 20.048387004412604, 0.0 ], [ -99.337816805164053, 20.048082760776818, 0.0 ], [ -99.337601701252879, 20.047828966301715, 0.0 ], [ -99.337396231051656, 20.047587258182173, 0.0 ], [ -99.337274178489963, 20.04741802082291, 0.0 ], [ -99.337184233971172, 20.047288063450644, 0.0 ], [ -99.337132666458785, 20.04713382286009, 0.0 ], [ -99.337129037772129, 20.046934097089299, 0.0 ], [ -99.337167104495322, 20.046764554365506, 0.0 ], [ -99.337212348519429, 20.04665005500782, 0.0 ], [ -99.337244985285452, 20.046578908792661, 0.0 ] ] ] } },
{ "type": "Feature", "properties": { "id": null, "Name": "viejo", "description": null, "timestamp": null, "begin": null, "end": null, "altitudeMode": null, "tessellate": 1, "extrude": 0, "visibility": -1, "drawOrder": null, "icon": null, "anio": 2017 }, "geometry": { "type": "MultiLineString", "coordinates": [ [ [ -99.338029130739514, 20.050433501140645, 0.0 ], [ -99.338029130739514, 20.050433501140645, 0.0 ], [ -99.338072051411359, 20.050594941901281, 0.0 ], [ -99.338098349804909, 20.05064825864363, 0.0 ], [ -99.338117145392971, 20.051031866966866, 0.0 ], [ -99.338040360029083, 20.051362314179055, 0.0 ], [ -99.337799641816943, 20.051632259109347, 0.0 ], [ -99.337627477069276, 20.05170199429088, 0.0 ] ], [ [ -99.337495203408693, 20.050494305144529, 0.0 ], [ -99.337494491410993, 20.050497491514683, 0.0 ], [ -99.337498969993305, 20.050538819542258, 0.0 ], [ -99.337517247813423, 20.050580118826019, 0.0 ], [ -99.33758640835174, 20.050897944489979, 0.0 ], [ -99.337551820725395, 20.051208486447479, 0.0 ], [ -99.337540701636129, 20.051227511672387, 0.0 ], [ -99.33742441123951, 20.051437540242759, 0.0 ], [ -99.337419477270615, 20.051443775177521, 0.0 ], [ -99.337410726570653, 20.05146761480254, 0.0 ], [ -99.337285956254789, 20.051576480142788, 0.0 ] ], [ [ -99.336898081093324, 20.046506691291125, 0.0 ], [ -99.337083583600119, 20.046120431403246, 0.0 ], [ -99.337227001307255, 20.045885498642914, 0.0 ] ], [ [ -99.336855683305018, 20.044038408306495, 0.0 ], [ -99.336805441998308, 20.044001022809798, 0.0 ], [ -99.336772609064937, 20.043979937110205, 0.0 ], [ -99.33674052350888, 20.04394114143771, 0.0 ], [ -99.336569710926071, 20.043734040178364, 0.0 ], [ -99.336514309804855, 20.04360444886542, 0.0 ], [ -99.336448801990699, 20.043492028235939, 0.0 ], [ -99.336370733911068, 20.043294724027174, 0.0 ], [ -99.336291020670203, 20.043055644109824, 0.0 ], [ -99.336290717775896, 20.042913348873089, 0.0 ], [ -99.336383063561087, 20.042765404568954, 0.0 ], [ -99.336446616019757, 20.042694135803806, 0.0 ] ] ] } },
{ "type": "Feature", "properties": { "id": null, "Name": "faltante", "description": null, "timestamp": null, "begin": null, "end": null, "altitudeMode": null, "tessellate": null, "extrude": null, "visibility": null, "drawOrder": null, "icon": null, "anio": 2026 }, "geometry": { "type": "MultiLineString", "coordinates": [ [ [ -99.336855683305018, 20.044038408306495, 0.0 ], [ -99.337045365223901, 20.044218196922618, 0.0 ], [ -99.337245685355569, 20.044385367148106, 0.0 ], [ -99.337527578837623, 20.044604302126853, 0.0 ], [ -99.337621204134962, 20.044687677143116, 0.0 ], [ -99.33770153099988, 20.044786207322197, 0.0 ], [ -99.337750771317047, 20.044893565945625, 0.0 ], [ -99.337760250742406, 20.044962251145868, 0.0 ], [ -99.337761974981532, 20.045040253937508, 0.0 ], [ -99.337754332491883, 20.045107971923812, 0.0 ], [ -99.337748209684491, 20.045158025253087, 0.0 ], [ -99.337729652436749, 20.045219876826739, 0.0 ], [ -99.337700174131726, 20.045272918371424, 0.0 ], [ -99.33767998074282, 20.045297977741537, 0.0 ], [ -99.337656707049277, 20.045339232930957, 0.0 ], [ -99.337227001307255, 20.045885498642914, 0.0 ] ] ] } },
{ "type": "Feature", "properties": { "id": null, "Name": "faltante", "description": null, "timestamp": null, "begin": null, "end": null, "altitudeMode": null, "tessellate": null, "extrude": null, "visibility": null, "drawOrder": null, "icon": null, "anio": 2026 }, "geometry": { "type": "MultiLineString", "coordinates": [ [ [ -99.339139393452342, 20.042844567270127, 0.0 ], [ -99.338851362863124, 20.042814469216491, 0.0 ], [ -99.338380594497451, 20.042711381458592, 0.0 ], [ -99.338119318462049, 20.042667762703498, 0.0 ], [ -99.337937333966323, 20.042637518905387, 0.0 ], [ -99.337762782598631, 20.042622145174818, 0.0 ], [ -99.337469643643473, 20.042624326656526, 0.0 ], [ -99.337173086907043, 20.042636734898462, 0.0 ], [ -99.336797087447749, 20.042792534581547, 0.0 ], [ -99.336694939959102, 20.042893184184987, 0.0 ], [ -99.336687192850462, 20.042952727911914, 0.0 ], [ -99.336683501659678, 20.043068072338812, 0.0 ], [ -99.336727101966062, 20.043205650118786, 0.0 ], [ -99.336766836732195, 20.043376720294503, 0.0 ], [ -99.336818255677329, 20.043488239232659, 0.0 ], [ -99.336885351305568, 20.043566243249781, 0.0 ], [ -99.337147993408166, 20.043844636119456, 0.0 ], [ -99.33797231586847, 20.044564692859062, 0.0 ] ] ] } },
{ "type": "Feature", "properties": { "id": null, "Name": "tapete", "description": null, "timestamp": null, "begin": null, "end": null, "altitudeMode": null, "tessellate": null, "extrude": null, "visibility": null, "drawOrder": null, "icon": null, "anio": 2025 }, "geometry": { "type": "MultiLineString", "coordinates": [ [ [ -99.337391757739539, 20.046242027204443, 0.0 ], [ -99.337508144625588, 20.046100222865292, 0.0 ], [ -99.337638301760762, 20.045969693204327, 0.0 ], [ -99.337790242166179, 20.045836996048404, 0.0 ], [ -99.337868167793047, 20.045716668577288, 0.0 ], [ -99.338000560678765, 20.045531633276092, 0.0 ], [ -99.338106471969809, 20.04542602561861, 0.0 ] ] ] } },
{ "type": "Feature", "properties": { "id": "", "Name": "viejo", "description": null, "timestamp": null, "begin": null, "end": null, "altitudeMode": null, "tessellate": null, "extrude": null, "visibility": null, "drawOrder": null, "icon": null, "anio": 2017 }, "geometry": { "type": "MultiLineString", "coordinates": [ [ [ -99.338206786033467, 20.049141756532915, 0.0 ], [ -99.338290319238837, 20.048881113552735, 0.0 ], [ -99.338302075407853, 20.048792664705346, 0.0 ], [ -99.338291947476009, 20.048711783365079, 0.0 ], [ -99.338249912339762, 20.048606504694391, 0.0 ], [ -99.3382052016035, 20.048538297681183, 0.0 ], [ -99.338134177545683, 20.048449558575108, 0.0 ], [ -99.338086479108682, 20.048387004412604, 0.0 ] ] ] } },
{ "type": "Feature", "properties": { "id": null, "Name": "viejo", "description": null, "timestamp": null, "begin": null, "end": null, "altitudeMode": null, "tessellate": null, "extrude": null, "visibility": null, "drawOrder": null, "icon": null, "anio": 2017 }, "geometry": { "type": "MultiLineString", "coordinates": [ [ [ -99.337248653350358, 20.047956378149571, 0.0 ], [ -99.336962793314129, 20.047636418418097, 0.0 ], [ -99.336866747464953, 20.047520207419499, 0.0 ], [ -99.336798065567493, 20.047400711094699, 0.0 ], [ -99.336756747564522, 20.04727792947627, 0.0 ], [ -99.336748466608398, 20.047173499099419, 0.0 ], [ -99.336764732239786, 20.047035912701535, 0.0 ], [ -99.336857939800055, 20.046598860801289, 0.0 ], [ -99.336901472061115, 20.046512319882613, 0.0 ] ] ] } },
{ "type": "Feature", "properties": { "id": null, "Name": "viejo", "description": null, "timestamp": null, "begin": null, "end": null, "altitudeMode": null, "tessellate": null, "extrude": null, "visibility": null, "drawOrder": null, "icon": null, "anio": 2017 }, "geometry": { "type": "MultiLineString", "coordinates": [ [ [ -99.338106471969809, 20.04542602561861, 0.0 ], [ -99.338165973576793, 20.045307005527416, 0.0 ], [ -99.338233779748677, 20.045105911247013, 0.0 ], [ -99.338228452515509, 20.045003536157591, 0.0 ], [ -99.338199405686524, 20.044869802829108, 0.0 ], [ -99.338145145348236, 20.044751354840042, 0.0 ], [ -99.337984574954262, 20.044550129098461, 0.0 ] ] ] } },
{ "type": "Feature", "properties": { "id": null, "Name": "viejo", "description": null, "timestamp": null, "begin": null, "end": null, "altitudeMode": null, "tessellate": null, "extrude": null, "visibility": null, "drawOrder": null, "icon": null, "anio": 2017 }, "geometry": { "type": "MultiLineString", "coordinates": [ [ [ -99.337244985285452, 20.046578908792661, 0.0 ], [ -99.337286945848007, 20.046497853019407, 0.0 ], [ -99.337309019506549, 20.046454584976459, 0.0 ], [ -99.337314379323487, 20.046444403583056, 0.0 ], [ -99.337341138343405, 20.0463394285558, 0.0 ] ] ] } },
{ "type": "Feature", "properties": { "id": null, "Name": "faltante", "description": null, "timestamp": null, "begin": null, "end": null, "altitudeMode": null, "tessellate": null, "extrude": null, "visibility": null, "drawOrder": null, "icon": null, "anio": 2025 }, "geometry": { "type": "MultiLineString", "coordinates": [ [ [ -99.337391757739539, 20.046242027204443, 0.0 ], [ -99.337347488526703, 20.046324320609202, 0.0 ], [ -99.337341138343405, 20.0463394285558, 0.0 ] ] ] } }
]
}
