{"type":"FeatureCollection","name":"estaciones automaticas","crs":{"type":"name","properties":{"name":"urn:ogc:def:crs:OGC:1.3:CRS84"}},"features":[{"type":"Feature","properties":{"FID":0},"geometry":{"type":"Point","coordinates":[-99.2949175,19.9589938]}},{"type":"Feature","properties":{"FID":1},"geometry":{"type":"Point","coordinates":[-99.3403045,20.0596721]}},{"type":"Feature","properties":{"FID":2},"geometry":{"type":"Point","coordinates":[-99.2761946,20.0692104]}},{"type":"Feature","properties":{"FID":null},"geometry":{"type":"Point","coordinates":[-99.3668787,20.140072]}},{"type":"Feature","properties":{"FID":null},"geometry":{"type":"Point","coordinates":[-99.3149356,19.9466518]}}]}