{
"type": "FeatureCollection",
"name": "estaciones hidrometricas_monitoreo",
"crs": { "type": "name", "properties": { "name": "urn:ogc:def:crs:OGC:1.3:CRS84" } },
"features": [
{ "type": "Feature", "properties": { "id": "ID_00000", "Name": "Río el Santo", "description": "<html xmlns:fo=\"http://www.w3.org/1999/XSL/Format\" xmlns:msxsl=\"urn:schemas-microsoft-com:xslt\">\n\n<head>\n\n<META http-equiv=\"Content-Type\" content=\"text/html\">\n\n<meta http-equiv=\"content-type\" content=\"text/html; charset=UTF-8\">\n\n</head>\n\n<body style=\"margin:0px 0px 0px 0px;overflow:auto;background:#FFFFFF;\">\n\n<table style=\"font-family:Arial,Verdana,Times;font-size:12px;text-align:left;width:100%;border-collapse:collapse;padding:3px 3px 3px 3px\">\n\n<tr style=\"text-align:center;font-weight:bold;background:#9CBCE2\">\n\n<td>R</td>\n\n</tr>\n\n<tr>\n\n<td>\n\n<table style=\"font-family:Arial,Verdana,Times;font-size:12px;text-align:left;width:100%;border-spacing:0px; padding:3px 3px 3px 3px\">\n\n<tr>\n\n<td>FID</td>\n\n<td>0</td>\n\n</tr>\n\n<tr bgcolor=\"#D4E4F3\">\n\n<td>NAME</td>\n\n<td>R</td>\n\n</tr>\n\n<tr>\n\n<td>LAYER</td>\n\n<td>Unknown Point Feature</td>\n\n</tr>\n\n<tr bgcolor=\"#D4E4F3\">\n\n<td>FID_1</td>\n\n<td>4</td>\n\n</tr>\n\n<tr>\n\n<td>No</td>\n\n<td>3</td>\n\n</tr>\n\n<tr bgcolor=\"#D4E4F3\">\n\n<td>Estaci</td>\n\n<td>Rno El Salto</td>\n\n</tr>\n\n<tr>\n\n<td>Tipo</td>\n\n<td>H</td>\n\n</tr>\n\n<tr bgcolor=\"#D4E4F3\">\n\n<td>Latitud</td>\n\n<td>19.9499</td>\n\n</tr>\n\n<tr>\n\n<td>Longitud</td>\n\n<td>-99.2957</td>\n\n</tr>\n\n<tr bgcolor=\"#D4E4F3\">\n\n<td>F6</td>\n\n<td></td>\n\n</tr>\n\n<tr>\n\n<td>KML_STYLE</td>\n\n<td>msn_ltblu-pushpin</td>\n\n</tr>\n\n<tr bgcolor=\"#D4E4F3\">\n\n<td>KML_FOLDER</td>\n\n<td>Sitios_(30MDP)_V5_30052025</td>\n\n</tr>\n\n</table>\n\n</td>\n\n</tr>\n\n</table>\n\n</body>\n\n</html>", "timestamp": null, "begin": null, "end": null, "altitudeMode": null, "tessellate": -1, "extrude": 0, "visibility": -1, "drawOrder": null, "icon": null, "snippet": "" }, "geometry": { "type": "Point", "coordinates": [ -99.295752675698452, 19.949933990950608, 0.0 ] } },
{ "type": "Feature", "properties": { "id": "ID_00001", "Name": "TEO", "description": "<html xmlns:fo=\"http://www.w3.org/1999/XSL/Format\" xmlns:msxsl=\"urn:schemas-microsoft-com:xslt\">\n\n<head>\n\n<META http-equiv=\"Content-Type\" content=\"text/html\">\n\n<meta http-equiv=\"content-type\" content=\"text/html; charset=UTF-8\">\n\n</head>\n\n<body style=\"margin:0px 0px 0px 0px;overflow:auto;background:#FFFFFF;\">\n\n<table style=\"font-family:Arial,Verdana,Times;font-size:12px;text-align:left;width:100%;border-collapse:collapse;padding:3px 3px 3px 3px\">\n\n<tr style=\"text-align:center;font-weight:bold;background:#9CBCE2\">\n\n<td>TEO</td>\n\n</tr>\n\n<tr>\n\n<td>\n\n<table style=\"font-family:Arial,Verdana,Times;font-size:12px;text-align:left;width:100%;border-spacing:0px; padding:3px 3px 3px 3px\">\n\n<tr>\n\n<td>FID</td>\n\n<td>1</td>\n\n</tr>\n\n<tr bgcolor=\"#D4E4F3\">\n\n<td>NAME</td>\n\n<td>TEO</td>\n\n</tr>\n\n<tr>\n\n<td>LAYER</td>\n\n<td>Unknown Point Feature</td>\n\n</tr>\n\n<tr bgcolor=\"#D4E4F3\">\n\n<td>FID_1</td>\n\n<td>5</td>\n\n</tr>\n\n<tr>\n\n<td>No</td>\n\n<td>4</td>\n\n</tr>\n\n<tr bgcolor=\"#D4E4F3\">\n\n<td>Estaci</td>\n\n<td>TEO</td>\n\n</tr>\n\n<tr>\n\n<td>Tipo</td>\n\n<td>H</td>\n\n</tr>\n\n<tr bgcolor=\"#D4E4F3\">\n\n<td>Latitud</td>\n\n<td>19.9482</td>\n\n</tr>\n\n<tr>\n\n<td>Longitud</td>\n\n<td>-99.2957</td>\n\n</tr>\n\n<tr bgcolor=\"#D4E4F3\">\n\n<td>F6</td>\n\n<td></td>\n\n</tr>\n\n<tr>\n\n<td>KML_STYLE</td>\n\n<td>msn_ltblu-pushpin</td>\n\n</tr>\n\n<tr bgcolor=\"#D4E4F3\">\n\n<td>KML_FOLDER</td>\n\n<td>Sitios_(30MDP)_V5_30052025</td>\n\n</tr>\n\n</table>\n\n</td>\n\n</tr>\n\n</table>\n\n</body>\n\n</html>", "timestamp": null, "begin": null, "end": null, "altitudeMode": null, "tessellate": -1, "extrude": 0, "visibility": -1, "drawOrder": null, "icon": null, "snippet": "" }, "geometry": { "type": "Point", "coordinates": [ -99.29567667567494, 19.948168990549249, 0.0 ] } },
{ "type": "Feature", "properties": { "id": "ID_00002", "Name": "TEC", "description": "<html xmlns:fo=\"http://www.w3.org/1999/XSL/Format\" xmlns:msxsl=\"urn:schemas-microsoft-com:xslt\">\n\n<head>\n\n<META http-equiv=\"Content-Type\" content=\"text/html\">\n\n<meta http-equiv=\"content-type\" content=\"text/html; charset=UTF-8\">\n\n</head>\n\n<body style=\"margin:0px 0px 0px 0px;overflow:auto;background:#FFFFFF;\">\n\n<table style=\"font-family:Arial,Verdana,Times;font-size:12px;text-align:left;width:100%;border-collapse:collapse;padding:3px 3px 3px 3px\">\n\n<tr style=\"text-align:center;font-weight:bold;background:#9CBCE2\">\n\n<td>TEC</td>\n\n</tr>\n\n<tr>\n\n<td>\n\n<table style=\"font-family:Arial,Verdana,Times;font-size:12px;text-align:left;width:100%;border-spacing:0px; padding:3px 3px 3px 3px\">\n\n<tr>\n\n<td>FID</td>\n\n<td>2</td>\n\n</tr>\n\n<tr bgcolor=\"#D4E4F3\">\n\n<td>NAME</td>\n\n<td>TEC</td>\n\n</tr>\n\n<tr>\n\n<td>LAYER</td>\n\n<td>Unknown Point Feature</td>\n\n</tr>\n\n<tr bgcolor=\"#D4E4F3\">\n\n<td>FID_1</td>\n\n<td>6</td>\n\n</tr>\n\n<tr>\n\n<td>No</td>\n\n<td>5</td>\n\n</tr>\n\n<tr bgcolor=\"#D4E4F3\">\n\n<td>Estaci</td>\n\n<td>TEC</td>\n\n</tr>\n\n<tr>\n\n<td>Tipo</td>\n\n<td>H</td>\n\n</tr>\n\n<tr bgcolor=\"#D4E4F3\">\n\n<td>Latitud</td>\n\n<td>19.9491</td>\n\n</tr>\n\n<tr>\n\n<td>Longitud</td>\n\n<td>-99.2967</td>\n\n</tr>\n\n<tr bgcolor=\"#D4E4F3\">\n\n<td>F6</td>\n\n<td></td>\n\n</tr>\n\n<tr>\n\n<td>KML_STYLE</td>\n\n<td>msn_ltblu-pushpin</td>\n\n</tr>\n\n<tr bgcolor=\"#D4E4F3\">\n\n<td>KML_FOLDER</td>\n\n<td>Sitios_(30MDP)_V5_30052025</td>\n\n</tr>\n\n</table>\n\n</td>\n\n</tr>\n\n</table>\n\n</body>\n\n</html>", "timestamp": null, "begin": null, "end": null, "altitudeMode": null, "tessellate": -1, "extrude": 0, "visibility": -1, "drawOrder": null, "icon": null, "snippet": "" }, "geometry": { "type": "Point", "coordinates": [ -99.296702675929197, 19.94907999075398, 0.0 ] } },
{ "type": "Feature", "properties": { "id": "ID_00003", "Name": "Rio Tula", "description": "<html xmlns:fo=\"http://www.w3.org/1999/XSL/Format\" xmlns:msxsl=\"urn:schemas-microsoft-com:xslt\">\n\n<head>\n\n<META http-equiv=\"Content-Type\" content=\"text/html\">\n\n<meta http-equiv=\"content-type\" content=\"text/html; charset=UTF-8\">\n\n</head>\n\n<body style=\"margin:0px 0px 0px 0px;overflow:auto;background:#FFFFFF;\">\n\n<table style=\"font-family:Arial,Verdana,Times;font-size:12px;text-align:left;width:100%;border-collapse:collapse;padding:3px 3px 3px 3px\">\n\n<tr style=\"text-align:center;font-weight:bold;background:#9CBCE2\">\n\n<td>Rio Tula</td>\n\n</tr>\n\n<tr>\n\n<td>\n\n<table style=\"font-family:Arial,Verdana,Times;font-size:12px;text-align:left;width:100%;border-spacing:0px; padding:3px 3px 3px 3px\">\n\n<tr>\n\n<td>FID</td>\n\n<td>3</td>\n\n</tr>\n\n<tr bgcolor=\"#D4E4F3\">\n\n<td>NAME</td>\n\n<td>Rio Tula</td>\n\n</tr>\n\n<tr>\n\n<td>LAYER</td>\n\n<td>Unknown Point Feature</td>\n\n</tr>\n\n<tr bgcolor=\"#D4E4F3\">\n\n<td>FID_1</td>\n\n<td>7</td>\n\n</tr>\n\n<tr>\n\n<td>No</td>\n\n<td>6</td>\n\n</tr>\n\n<tr bgcolor=\"#D4E4F3\">\n\n<td>Estaci</td>\n\n<td>Rno Tula</td>\n\n</tr>\n\n<tr>\n\n<td>Tipo</td>\n\n<td>H</td>\n\n</tr>\n\n<tr bgcolor=\"#D4E4F3\">\n\n<td>Latitud</td>\n\n<td>20.0566</td>\n\n</tr>\n\n<tr>\n\n<td>Longitud</td>\n\n<td>-99.3493</td>\n\n</tr>\n\n<tr bgcolor=\"#D4E4F3\">\n\n<td>F6</td>\n\n<td></td>\n\n</tr>\n\n<tr>\n\n<td>KML_STYLE</td>\n\n<td>msn_ltblu-pushpin</td>\n\n</tr>\n\n<tr bgcolor=\"#D4E4F3\">\n\n<td>KML_FOLDER</td>\n\n<td>Sitios_(30MDP)_V5_30052025</td>\n\n</tr>\n\n</table>\n\n</td>\n\n</tr>\n\n</table>\n\n</body>\n\n</html>", "timestamp": null, "begin": null, "end": null, "altitudeMode": null, "tessellate": -1, "extrude": 0, "visibility": -1, "drawOrder": null, "icon": null, "snippet": "" }, "geometry": { "type": "Point", "coordinates": [ -99.349339689155144, 20.05662201505476, 0.0 ] } },
{ "type": "Feature", "properties": { "id": "ID_00004", "Name": "Jasso II", "description": "<html xmlns:fo=\"http://www.w3.org/1999/XSL/Format\" xmlns:msxsl=\"urn:schemas-microsoft-com:xslt\">\n\n<head>\n\n<META http-equiv=\"Content-Type\" content=\"text/html\">\n\n<meta http-equiv=\"content-type\" content=\"text/html; charset=UTF-8\">\n\n</head>\n\n<body style=\"margin:0px 0px 0px 0px;overflow:auto;background:#FFFFFF;\">\n\n<table style=\"font-family:Arial,Verdana,Times;font-size:12px;text-align:left;width:100%;border-collapse:collapse;padding:3px 3px 3px 3px\">\n\n<tr style=\"text-align:center;font-weight:bold;background:#9CBCE2\">\n\n<td>Jasso II</td>\n\n</tr>\n\n<tr>\n\n<td>\n\n<table style=\"font-family:Arial,Verdana,Times;font-size:12px;text-align:left;width:100%;border-spacing:0px; padding:3px 3px 3px 3px\">\n\n<tr>\n\n<td>FID</td>\n\n<td>4</td>\n\n</tr>\n\n<tr bgcolor=\"#D4E4F3\">\n\n<td>NAME</td>\n\n<td>Jasso II</td>\n\n</tr>\n\n<tr>\n\n<td>LAYER</td>\n\n<td>Unknown Point Feature</td>\n\n</tr>\n\n<tr bgcolor=\"#D4E4F3\">\n\n<td>FID_1</td>\n\n<td>10</td>\n\n</tr>\n\n<tr>\n\n<td>No</td>\n\n<td>9</td>\n\n</tr>\n\n<tr bgcolor=\"#D4E4F3\">\n\n<td>Estaci</td>\n\n<td>Jasso II</td>\n\n</tr>\n\n<tr>\n\n<td>Tipo</td>\n\n<td>H</td>\n\n</tr>\n\n<tr bgcolor=\"#D4E4F3\">\n\n<td>Latitud</td>\n\n<td>19.9875</td>\n\n</tr>\n\n<tr>\n\n<td>Longitud</td>\n\n<td>-99.3225</td>\n\n</tr>\n\n<tr bgcolor=\"#D4E4F3\">\n\n<td>F6</td>\n\n<td></td>\n\n</tr>\n\n<tr>\n\n<td>KML_STYLE</td>\n\n<td>msn_ltblu-pushpin</td>\n\n</tr>\n\n<tr bgcolor=\"#D4E4F3\">\n\n<td>KML_FOLDER</td>\n\n<td>Sitios_(30MDP)_V5_30052025</td>\n\n</tr>\n\n</table>\n\n</td>\n\n</tr>\n\n</table>\n\n</body>\n\n</html>", "timestamp": null, "begin": null, "end": null, "altitudeMode": null, "tessellate": -1, "extrude": 0, "visibility": -1, "drawOrder": null, "icon": null, "snippet": "" }, "geometry": { "type": "Point", "coordinates": [ -99.322507682367771, 19.987502999426329, 0.0 ] } },
{ "type": "Feature", "properties": { "id": "ID_00005", "Name": "Tlautla", "description": "<html xmlns:fo=\"http://www.w3.org/1999/XSL/Format\" xmlns:msxsl=\"urn:schemas-microsoft-com:xslt\">\n\n<head>\n\n<META http-equiv=\"Content-Type\" content=\"text/html\">\n\n<meta http-equiv=\"content-type\" content=\"text/html; charset=UTF-8\">\n\n</head>\n\n<body style=\"margin:0px 0px 0px 0px;overflow:auto;background:#FFFFFF;\">\n\n<table style=\"font-family:Arial,Verdana,Times;font-size:12px;text-align:left;width:100%;border-collapse:collapse;padding:3px 3px 3px 3px\">\n\n<tr style=\"text-align:center;font-weight:bold;background:#9CBCE2\">\n\n<td>Tlautla</td>\n\n</tr>\n\n<tr>\n\n<td>\n\n<table style=\"font-family:Arial,Verdana,Times;font-size:12px;text-align:left;width:100%;border-spacing:0px; padding:3px 3px 3px 3px\">\n\n<tr>\n\n<td>FID</td>\n\n<td>5</td>\n\n</tr>\n\n<tr bgcolor=\"#D4E4F3\">\n\n<td>NAME</td>\n\n<td>Tlautla</td>\n\n</tr>\n\n<tr>\n\n<td>LAYER</td>\n\n<td>Unknown Point Feature</td>\n\n</tr>\n\n<tr bgcolor=\"#D4E4F3\">\n\n<td>FID_1</td>\n\n<td>13</td>\n\n</tr>\n\n<tr>\n\n<td>No</td>\n\n<td>12</td>\n\n</tr>\n\n<tr bgcolor=\"#D4E4F3\">\n\n<td>Estaci</td>\n\n<td>Tlautla</td>\n\n</tr>\n\n<tr>\n\n<td>Tipo</td>\n\n<td>H</td>\n\n</tr>\n\n<tr bgcolor=\"#D4E4F3\">\n\n<td>Latitud</td>\n\n<td>19.9966</td>\n\n</tr>\n\n<tr>\n\n<td>Longitud</td>\n\n<td>-99.3302</td>\n\n</tr>\n\n<tr bgcolor=\"#D4E4F3\">\n\n<td>F6</td>\n\n<td></td>\n\n</tr>\n\n<tr>\n\n<td>KML_STYLE</td>\n\n<td>msn_ltblu-pushpin</td>\n\n</tr>\n\n<tr bgcolor=\"#D4E4F3\">\n\n<td>KML_FOLDER</td>\n\n<td>Sitios_(30MDP)_V5_30052025</td>\n\n</tr>\n\n</table>\n\n</td>\n\n</tr>\n\n</table>\n\n</body>\n\n</html>", "timestamp": null, "begin": null, "end": null, "altitudeMode": null, "tessellate": -1, "extrude": 0, "visibility": -1, "drawOrder": null, "icon": null, "snippet": "" }, "geometry": { "type": "Point", "coordinates": [ -99.330234684289067, 19.996576001468341, 0.0 ] } },
{ "type": "Feature", "properties": { "id": "ID_00006", "Name": "Tula 5", "description": "<html xmlns:fo=\"http://www.w3.org/1999/XSL/Format\" xmlns:msxsl=\"urn:schemas-microsoft-com:xslt\">\n\n<head>\n\n<META http-equiv=\"Content-Type\" content=\"text/html\">\n\n<meta http-equiv=\"content-type\" content=\"text/html; charset=UTF-8\">\n\n</head>\n\n<body style=\"margin:0px 0px 0px 0px;overflow:auto;background:#FFFFFF;\">\n\n<table style=\"font-family:Arial,Verdana,Times;font-size:12px;text-align:left;width:100%;border-collapse:collapse;padding:3px 3px 3px 3px\">\n\n<tr style=\"text-align:center;font-weight:bold;background:#9CBCE2\">\n\n<td>Tula 5</td>\n\n</tr>\n\n<tr>\n\n<td>\n\n<table style=\"font-family:Arial,Verdana,Times;font-size:12px;text-align:left;width:100%;border-spacing:0px; padding:3px 3px 3px 3px\">\n\n<tr>\n\n<td>FID</td>\n\n<td>6</td>\n\n</tr>\n\n<tr bgcolor=\"#D4E4F3\">\n\n<td>NAME</td>\n\n<td>Tula 5</td>\n\n</tr>\n\n<tr>\n\n<td>LAYER</td>\n\n<td>Unknown Point Feature</td>\n\n</tr>\n\n<tr bgcolor=\"#D4E4F3\">\n\n<td>FID_1</td>\n\n<td>15</td>\n\n</tr>\n\n<tr>\n\n<td>No</td>\n\n<td>14</td>\n\n</tr>\n\n<tr bgcolor=\"#D4E4F3\">\n\n<td>Estaci</td>\n\n<td>Tula 5</td>\n\n</tr>\n\n<tr>\n\n<td>Tipo</td>\n\n<td>H</td>\n\n</tr>\n\n<tr bgcolor=\"#D4E4F3\">\n\n<td>Latitud</td>\n\n<td>20.02</td>\n\n</tr>\n\n<tr>\n\n<td>Longitud</td>\n\n<td>-99.3357</td>\n\n</tr>\n\n<tr bgcolor=\"#D4E4F3\">\n\n<td>F6</td>\n\n<td></td>\n\n</tr>\n\n<tr>\n\n<td>KML_STYLE</td>\n\n<td>msn_ltblu-pushpin</td>\n\n</tr>\n\n<tr bgcolor=\"#D4E4F3\">\n\n<td>KML_FOLDER</td>\n\n<td>Sitios_(30MDP)_V5_30052025</td>\n\n</tr>\n\n</table>\n\n</td>\n\n</tr>\n\n</table>\n\n</body>\n\n</html>", "timestamp": null, "begin": null, "end": null, "altitudeMode": null, "tessellate": -1, "extrude": 0, "visibility": -1, "drawOrder": null, "icon": null, "snippet": "" }, "geometry": { "type": "Point", "coordinates": [ -99.335683685694676, 20.020008706777961, 0.0 ] } },
{ "type": "Feature", "properties": { "id": "ID_00007", "Name": "GRAN CANAL (TULAHP08)", "description": "<html xmlns:fo=\"http://www.w3.org/1999/XSL/Format\" xmlns:msxsl=\"urn:schemas-microsoft-com:xslt\">\n\n<head>\n\n<META http-equiv=\"Content-Type\" content=\"text/html\">\n\n<meta http-equiv=\"content-type\" content=\"text/html; charset=UTF-8\">\n\n</head>\n\n<body style=\"margin:0px 0px 0px 0px;overflow:auto;background:#FFFFFF;\">\n\n<table style=\"font-family:Arial,Verdana,Times;font-size:12px;text-align:left;width:100%;border-collapse:collapse;padding:3px 3px 3px 3px\">\n\n<tr style=\"text-align:center;font-weight:bold;background:#9CBCE2\">\n\n<td>GRAN CANAL (TULAHP08)</td>\n\n</tr>\n\n<tr>\n\n<td>\n\n<table style=\"font-family:Arial,Verdana,Times;font-size:12px;text-align:left;width:100%;border-spacing:0px; padding:3px 3px 3px 3px\">\n\n<tr>\n\n<td>FID</td>\n\n<td>7</td>\n\n</tr>\n\n<tr bgcolor=\"#D4E4F3\">\n\n<td>NAME</td>\n\n<td>GRAN CANAL (TULAHP08)</td>\n\n</tr>\n\n<tr>\n\n<td>LAYER</td>\n\n<td>Unknown Point Feature</td>\n\n</tr>\n\n<tr bgcolor=\"#D4E4F3\">\n\n<td>FID_1</td>\n\n<td>17</td>\n\n</tr>\n\n<tr>\n\n<td>No</td>\n\n<td>16</td>\n\n</tr>\n\n<tr bgcolor=\"#D4E4F3\">\n\n<td>Estaci</td>\n\n<td>GRAN CANAL (TULAHP08)</td>\n\n</tr>\n\n<tr>\n\n<td>Tipo</td>\n\n<td>H</td>\n\n</tr>\n\n<tr bgcolor=\"#D4E4F3\">\n\n<td>Latitud</td>\n\n<td>19.8114</td>\n\n</tr>\n\n<tr>\n\n<td>Longitud</td>\n\n<td>-99.11</td>\n\n</tr>\n\n<tr bgcolor=\"#D4E4F3\">\n\n<td>F6</td>\n\n<td></td>\n\n</tr>\n\n<tr>\n\n<td>KML_STYLE</td>\n\n<td>msn_ltblu-pushpin</td>\n\n</tr>\n\n<tr bgcolor=\"#D4E4F3\">\n\n<td>KML_FOLDER</td>\n\n<td>Sitios_(30MDP)_V5_30052025</td>\n\n</tr>\n\n</table>\n\n</td>\n\n</tr>\n\n</table>\n\n</body>\n\n</html>", "timestamp": null, "begin": null, "end": null, "altitudeMode": null, "tessellate": -1, "extrude": 0, "visibility": -1, "drawOrder": null, "icon": null, "snippet": "" }, "geometry": { "type": "Point", "coordinates": [ -99.110018629711078, 19.811359959776041, 0.0 ] } }
]
}
