{
"type": "FeatureCollection",
"name": "estaciones hidroclimatologicas_monitoreo",
"crs": { "type": "name", "properties": { "name": "urn:ogc:def:crs:OGC:1.3:CRS84" } },
"features": [
{ "type": "Feature", "properties": { "id": "ID_00000", "Name": "Río Tula 1", "description": "<html xmlns:fo=\"http://www.w3.org/1999/XSL/Format\" xmlns:msxsl=\"urn:schemas-microsoft-com:xslt\">\n\n<head>\n\n<META http-equiv=\"Content-Type\" content=\"text/html\">\n\n<meta http-equiv=\"content-type\" content=\"text/html; charset=UTF-8\">\n\n</head>\n\n<body style=\"margin:0px 0px 0px 0px;overflow:auto;background:#FFFFFF;\">\n\n<table style=\"font-family:Arial,Verdana,Times;font-size:12px;text-align:left;width:100%;border-collapse:collapse;padding:3px 3px 3px 3px\">\n\n<tr style=\"text-align:center;font-weight:bold;background:#9CBCE2\">\n\n<td>R焚o Tula 1</td>\n\n</tr>\n\n<tr>\n\n<td>\n\n<table style=\"font-family:Arial,Verdana,Times;font-size:12px;text-align:left;width:100%;border-spacing:0px; padding:3px 3px 3px 3px\">\n\n<tr>\n\n<td>FID</td>\n\n<td>0</td>\n\n</tr>\n\n<tr bgcolor=\"#D4E4F3\">\n\n<td>NAME</td>\n\n<td>R焚o Tula 1</td>\n\n</tr>\n\n<tr>\n\n<td>LAYER</td>\n\n<td>Unknown Point Feature</td>\n\n</tr>\n\n<tr bgcolor=\"#D4E4F3\">\n\n<td>FID_1</td>\n\n<td>2</td>\n\n</tr>\n\n<tr>\n\n<td>No</td>\n\n<td>1</td>\n\n</tr>\n\n<tr bgcolor=\"#D4E4F3\">\n\n<td>Estaci</td>\n\n<td>Rno Tula 1</td>\n\n</tr>\n\n<tr>\n\n<td>Tipo</td>\n\n<td>HC</td>\n\n</tr>\n\n<tr bgcolor=\"#D4E4F3\">\n\n<td>Latitud</td>\n\n<td>19.9531</td>\n\n</tr>\n\n<tr>\n\n<td>Longitud</td>\n\n<td>-99.2985</td>\n\n</tr>\n\n<tr bgcolor=\"#D4E4F3\">\n\n<td>F6</td>\n\n<td></td>\n\n</tr>\n\n<tr>\n\n<td>KML_STYLE</td>\n\n<td>IconStyle00</td>\n\n</tr>\n\n<tr bgcolor=\"#D4E4F3\">\n\n<td>KML_FOLDER</td>\n\n<td>Sitios_(30MDP)_V5_30052025</td>\n\n</tr>\n\n</table>\n\n</td>\n\n</tr>\n\n</table>\n\n</body>\n\n</html>", "timestamp": null, "begin": null, "end": null, "altitudeMode": null, "tessellate": -1, "extrude": 0, "visibility": -1, "drawOrder": null, "icon": null, "snippet": "" }, "geometry": { "type": "Point", "coordinates": [ -99.298477676375782, 19.953093991662758, 0.0 ] } },
{ "type": "Feature", "properties": { "id": "ID_00001", "Name": "Lago de Zumpango I a R2o de las Avenidas", "description": "<html xmlns:fo=\"http://www.w3.org/1999/XSL/Format\" xmlns:msxsl=\"urn:schemas-microsoft-com:xslt\">\n\n<head>\n\n<META http-equiv=\"Content-Type\" content=\"text/html\">\n\n<meta http-equiv=\"content-type\" content=\"text/html; charset=UTF-8\">\n\n</head>\n\n<body style=\"margin:0px 0px 0px 0px;overflow:auto;background:#FFFFFF;\">\n\n<table style=\"font-family:Arial,Verdana,Times;font-size:12px;text-align:left;width:100%;border-collapse:collapse;padding:3px 3px 3px 3px\">\n\n<tr style=\"text-align:center;font-weight:bold;background:#9CBCE2\">\n\n<td>Lago de Zumpango I a R2o de las Avenidas</td>\n\n</tr>\n\n<tr>\n\n<td>\n\n<table style=\"font-family:Arial,Verdana,Times;font-size:12px;text-align:left;width:100%;border-spacing:0px; padding:3px 3px 3px 3px\">\n\n<tr>\n\n<td>FID</td>\n\n<td>1</td>\n\n</tr>\n\n<tr bgcolor=\"#D4E4F3\">\n\n<td>NAME</td>\n\n<td>Lago de Zumpango I a R2o de las Avenidas</td>\n\n</tr>\n\n<tr>\n\n<td>LAYER</td>\n\n<td>Unknown Point Feature</td>\n\n</tr>\n\n<tr bgcolor=\"#D4E4F3\">\n\n<td>FID_1</td>\n\n<td>3</td>\n\n</tr>\n\n<tr>\n\n<td>No</td>\n\n<td>2</td>\n\n</tr>\n\n<tr bgcolor=\"#D4E4F3\">\n\n<td>Estaci</td>\n\n<td>Lago de Zumpango I a R2o de las Avenidas</td>\n\n</tr>\n\n<tr>\n\n<td>Tipo</td>\n\n<td>HC</td>\n\n</tr>\n\n<tr bgcolor=\"#D4E4F3\">\n\n<td>Latitud</td>\n\n<td>19.8128</td>\n\n</tr>\n\n<tr>\n\n<td>Longitud</td>\n\n<td>-99.0481</td>\n\n</tr>\n\n<tr bgcolor=\"#D4E4F3\">\n\n<td>F6</td>\n\n<td></td>\n\n</tr>\n\n<tr>\n\n<td>KML_STYLE</td>\n\n<td>IconStyle00</td>\n\n</tr>\n\n<tr bgcolor=\"#D4E4F3\">\n\n<td>KML_FOLDER</td>\n\n<td>Sitios_(30MDP)_V5_30052025</td>\n\n</tr>\n\n</table>\n\n</td>\n\n</tr>\n\n</table>\n\n</body>\n\n</html>", "timestamp": null, "begin": null, "end": null, "altitudeMode": null, "tessellate": -1, "extrude": 0, "visibility": -1, "drawOrder": null, "icon": null, "snippet": "" }, "geometry": { "type": "Point", "coordinates": [ -99.048074614467524, 19.812804960236686, 0.0 ] } },
{ "type": "Feature", "properties": { "id": "ID_00002", "Name": "Puente Colgante", "description": "<html xmlns:fo=\"http://www.w3.org/1999/XSL/Format\" xmlns:msxsl=\"urn:schemas-microsoft-com:xslt\">\n\n<head>\n\n<META http-equiv=\"Content-Type\" content=\"text/html\">\n\n<meta http-equiv=\"content-type\" content=\"text/html; charset=UTF-8\">\n\n</head>\n\n<body style=\"margin:0px 0px 0px 0px;overflow:auto;background:#FFFFFF;\">\n\n<table style=\"font-family:Arial,Verdana,Times;font-size:12px;text-align:left;width:100%;border-collapse:collapse;padding:3px 3px 3px 3px\">\n\n<tr style=\"text-align:center;font-weight:bold;background:#9CBCE2\">\n\n<td>Puente Colgante</td>\n\n</tr>\n\n<tr>\n\n<td>\n\n<table style=\"font-family:Arial,Verdana,Times;font-size:12px;text-align:left;width:100%;border-spacing:0px; padding:3px 3px 3px 3px\">\n\n<tr>\n\n<td>FID</td>\n\n<td>2</td>\n\n</tr>\n\n<tr bgcolor=\"#D4E4F3\">\n\n<td>NAME</td>\n\n<td>Puente Colgante</td>\n\n</tr>\n\n<tr>\n\n<td>LAYER</td>\n\n<td>Unknown Point Feature</td>\n\n</tr>\n\n<tr bgcolor=\"#D4E4F3\">\n\n<td>FID_1</td>\n\n<td>8</td>\n\n</tr>\n\n<tr>\n\n<td>No</td>\n\n<td>7</td>\n\n</tr>\n\n<tr bgcolor=\"#D4E4F3\">\n\n<td>Estaci</td>\n\n<td>Puente Colgante</td>\n\n</tr>\n\n<tr>\n\n<td>Tipo</td>\n\n<td>HC</td>\n\n</tr>\n\n<tr bgcolor=\"#D4E4F3\">\n\n<td>Latitud</td>\n\n<td>19.775</td>\n\n</tr>\n\n<tr>\n\n<td>Longitud</td>\n\n<td>-99.1887</td>\n\n</tr>\n\n<tr bgcolor=\"#D4E4F3\">\n\n<td>F6</td>\n\n<td></td>\n\n</tr>\n\n<tr>\n\n<td>KML_STYLE</td>\n\n<td>IconStyle00</td>\n\n</tr>\n\n<tr bgcolor=\"#D4E4F3\">\n\n<td>KML_FOLDER</td>\n\n<td>Sitios_(30MDP)_V5_30052025</td>\n\n</tr>\n\n</table>\n\n</td>\n\n</tr>\n\n</table>\n\n</body>\n\n</html>", "timestamp": null, "begin": null, "end": null, "altitudeMode": null, "tessellate": -1, "extrude": 0, "visibility": -1, "drawOrder": null, "icon": null, "snippet": "" }, "geometry": { "type": "Point", "coordinates": [ -99.188723648984336, 19.774959951301827, 0.0 ] } },
{ "type": "Feature", "properties": { "id": "ID_00003", "Name": "Ixmiquilpan II", "description": "<html xmlns:fo=\"http://www.w3.org/1999/XSL/Format\" xmlns:msxsl=\"urn:schemas-microsoft-com:xslt\">\n\n<head>\n\n<META http-equiv=\"Content-Type\" content=\"text/html\">\n\n<meta http-equiv=\"content-type\" content=\"text/html; charset=UTF-8\">\n\n</head>\n\n<body style=\"margin:0px 0px 0px 0px;overflow:auto;background:#FFFFFF;\">\n\n<table style=\"font-family:Arial,Verdana,Times;font-size:12px;text-align:left;width:100%;border-collapse:collapse;padding:3px 3px 3px 3px\">\n\n<tr style=\"text-align:center;font-weight:bold;background:#9CBCE2\">\n\n<td>Ixmiquilpan II</td>\n\n</tr>\n\n<tr>\n\n<td>\n\n<table style=\"font-family:Arial,Verdana,Times;font-size:12px;text-align:left;width:100%;border-spacing:0px; padding:3px 3px 3px 3px\">\n\n<tr>\n\n<td>FID</td>\n\n<td>3</td>\n\n</tr>\n\n<tr bgcolor=\"#D4E4F3\">\n\n<td>NAME</td>\n\n<td>Ixmiquilpan II</td>\n\n</tr>\n\n<tr>\n\n<td>LAYER</td>\n\n<td>Unknown Point Feature</td>\n\n</tr>\n\n<tr bgcolor=\"#D4E4F3\">\n\n<td>FID_1</td>\n\n<td>9</td>\n\n</tr>\n\n<tr>\n\n<td>No</td>\n\n<td>8</td>\n\n</tr>\n\n<tr bgcolor=\"#D4E4F3\">\n\n<td>Estaci</td>\n\n<td>Ixmiquilpan II</td>\n\n</tr>\n\n<tr>\n\n<td>Tipo</td>\n\n<td>HC</td>\n\n</tr>\n\n<tr bgcolor=\"#D4E4F3\">\n\n<td>Latitud</td>\n\n<td>20.4792</td>\n\n</tr>\n\n<tr>\n\n<td>Longitud</td>\n\n<td>-99.2225</td>\n\n</tr>\n\n<tr bgcolor=\"#D4E4F3\">\n\n<td>F6</td>\n\n<td></td>\n\n</tr>\n\n<tr>\n\n<td>KML_STYLE</td>\n\n<td>IconStyle00</td>\n\n</tr>\n\n<tr bgcolor=\"#D4E4F3\">\n\n<td>KML_FOLDER</td>\n\n<td>Sitios_(30MDP)_V5_30052025</td>\n\n</tr>\n\n</table>\n\n</td>\n\n</tr>\n\n</table>\n\n</body>\n\n</html>", "timestamp": null, "begin": null, "end": null, "altitudeMode": null, "tessellate": -1, "extrude": 0, "visibility": -1, "drawOrder": null, "icon": null, "snippet": "" }, "geometry": { "type": "Point", "coordinates": [ -99.222507659725608, 20.47917311124413, 0.0 ] } },
{ "type": "Feature", "properties": { "id": "ID_00004", "Name": "Km. 27 + 250", "description": "<html xmlns:fo=\"http://www.w3.org/1999/XSL/Format\" xmlns:msxsl=\"urn:schemas-microsoft-com:xslt\">\n\n<head>\n\n<META http-equiv=\"Content-Type\" content=\"text/html\">\n\n<meta http-equiv=\"content-type\" content=\"text/html; charset=UTF-8\">\n\n</head>\n\n<body style=\"margin:0px 0px 0px 0px;overflow:auto;background:#FFFFFF;\">\n\n<table style=\"font-family:Arial,Verdana,Times;font-size:12px;text-align:left;width:100%;border-collapse:collapse;padding:3px 3px 3px 3px\">\n\n<tr style=\"text-align:center;font-weight:bold;background:#9CBCE2\">\n\n<td>Km. 27 + 250</td>\n\n</tr>\n\n<tr>\n\n<td>\n\n<table style=\"font-family:Arial,Verdana,Times;font-size:12px;text-align:left;width:100%;border-spacing:0px; padding:3px 3px 3px 3px\">\n\n<tr>\n\n<td>FID</td>\n\n<td>4</td>\n\n</tr>\n\n<tr bgcolor=\"#D4E4F3\">\n\n<td>NAME</td>\n\n<td>Km. 27 + 250</td>\n\n</tr>\n\n<tr>\n\n<td>LAYER</td>\n\n<td>Unknown Point Feature</td>\n\n</tr>\n\n<tr bgcolor=\"#D4E4F3\">\n\n<td>FID_1</td>\n\n<td>11</td>\n\n</tr>\n\n<tr>\n\n<td>No</td>\n\n<td>10</td>\n\n</tr>\n\n<tr bgcolor=\"#D4E4F3\">\n\n<td>Estaci</td>\n\n<td>Km. 27 + 250</td>\n\n</tr>\n\n<tr>\n\n<td>Tipo</td>\n\n<td>HC</td>\n\n</tr>\n\n<tr bgcolor=\"#D4E4F3\">\n\n<td>Latitud</td>\n\n<td>19.6407</td>\n\n</tr>\n\n<tr>\n\n<td>Longitud</td>\n\n<td>-99.0537</td>\n\n</tr>\n\n<tr bgcolor=\"#D4E4F3\">\n\n<td>F6</td>\n\n<td></td>\n\n</tr>\n\n<tr>\n\n<td>KML_STYLE</td>\n\n<td>IconStyle00</td>\n\n</tr>\n\n<tr bgcolor=\"#D4E4F3\">\n\n<td>KML_FOLDER</td>\n\n<td>Sitios_(30MDP)_V5_30052025</td>\n\n</tr>\n\n</table>\n\n</td>\n\n</tr>\n\n</table>\n\n</body>\n\n</html>", "timestamp": null, "begin": null, "end": null, "altitudeMode": null, "tessellate": -1, "extrude": 0, "visibility": -1, "drawOrder": null, "icon": null, "snippet": "" }, "geometry": { "type": "Point", "coordinates": [ -99.053717615505576, 19.640732920824348, 0.0 ] } },
{ "type": "Feature", "properties": { "id": "ID_00005", "Name": "Presa Guadalupe", "description": "<html xmlns:fo=\"http://www.w3.org/1999/XSL/Format\" xmlns:msxsl=\"urn:schemas-microsoft-com:xslt\">\n\n<head>\n\n<META http-equiv=\"Content-Type\" content=\"text/html\">\n\n<meta http-equiv=\"content-type\" content=\"text/html; charset=UTF-8\">\n\n</head>\n\n<body style=\"margin:0px 0px 0px 0px;overflow:auto;background:#FFFFFF;\">\n\n<table style=\"font-family:Arial,Verdana,Times;font-size:12px;text-align:left;width:100%;border-collapse:collapse;padding:3px 3px 3px 3px\">\n\n<tr style=\"text-align:center;font-weight:bold;background:#9CBCE2\">\n\n<td>Presa Guadalupe</td>\n\n</tr>\n\n<tr>\n\n<td>\n\n<table style=\"font-family:Arial,Verdana,Times;font-size:12px;text-align:left;width:100%;border-spacing:0px; padding:3px 3px 3px 3px\">\n\n<tr>\n\n<td>FID</td>\n\n<td>5</td>\n\n</tr>\n\n<tr bgcolor=\"#D4E4F3\">\n\n<td>NAME</td>\n\n<td>Presa Guadalupe</td>\n\n</tr>\n\n<tr>\n\n<td>LAYER</td>\n\n<td>Unknown Point Feature</td>\n\n</tr>\n\n<tr bgcolor=\"#D4E4F3\">\n\n<td>FID_1</td>\n\n<td>12</td>\n\n</tr>\n\n<tr>\n\n<td>No</td>\n\n<td>11</td>\n\n</tr>\n\n<tr bgcolor=\"#D4E4F3\">\n\n<td>Estaci</td>\n\n<td>Presa Guadalupe</td>\n\n</tr>\n\n<tr>\n\n<td>Tipo</td>\n\n<td>HC</td>\n\n</tr>\n\n<tr bgcolor=\"#D4E4F3\">\n\n<td>Latitud</td>\n\n<td>19.635</td>\n\n</tr>\n\n<tr>\n\n<td>Longitud</td>\n\n<td>-99.2505</td>\n\n</tr>\n\n<tr bgcolor=\"#D4E4F3\">\n\n<td>F6</td>\n\n<td></td>\n\n</tr>\n\n<tr>\n\n<td>KML_STYLE</td>\n\n<td>IconStyle00</td>\n\n</tr>\n\n<tr bgcolor=\"#D4E4F3\">\n\n<td>KML_FOLDER</td>\n\n<td>Sitios_(30MDP)_V5_30052025</td>\n\n</tr>\n\n</table>\n\n</td>\n\n</tr>\n\n</table>\n\n</body>\n\n</html>", "timestamp": null, "begin": null, "end": null, "altitudeMode": null, "tessellate": -1, "extrude": 0, "visibility": -1, "drawOrder": null, "icon": null, "snippet": "" }, "geometry": { "type": "Point", "coordinates": [ -99.250527663908031, 19.635022919223328, 0.0 ] } },
{ "type": "Feature", "properties": { "id": "ID_00006", "Name": "Puente Metlac", "description": "<html xmlns:fo=\"http://www.w3.org/1999/XSL/Format\" xmlns:msxsl=\"urn:schemas-microsoft-com:xslt\">\n\n<head>\n\n<META http-equiv=\"Content-Type\" content=\"text/html\">\n\n<meta http-equiv=\"content-type\" content=\"text/html; charset=UTF-8\">\n\n</head>\n\n<body style=\"margin:0px 0px 0px 0px;overflow:auto;background:#FFFFFF;\">\n\n<table style=\"font-family:Arial,Verdana,Times;font-size:12px;text-align:left;width:100%;border-collapse:collapse;padding:3px 3px 3px 3px\">\n\n<tr style=\"text-align:center;font-weight:bold;background:#9CBCE2\">\n\n<td>Puente Metlac</td>\n\n</tr>\n\n<tr>\n\n<td>\n\n<table style=\"font-family:Arial,Verdana,Times;font-size:12px;text-align:left;width:100%;border-spacing:0px; padding:3px 3px 3px 3px\">\n\n<tr>\n\n<td>FID</td>\n\n<td>6</td>\n\n</tr>\n\n<tr bgcolor=\"#D4E4F3\">\n\n<td>NAME</td>\n\n<td>Puente Metlac</td>\n\n</tr>\n\n<tr>\n\n<td>LAYER</td>\n\n<td>Unknown Point Feature</td>\n\n</tr>\n\n<tr bgcolor=\"#D4E4F3\">\n\n<td>FID_1</td>\n\n<td>14</td>\n\n</tr>\n\n<tr>\n\n<td>No</td>\n\n<td>13</td>\n\n</tr>\n\n<tr bgcolor=\"#D4E4F3\">\n\n<td>Estaci</td>\n\n<td>Puente Metlac</td>\n\n</tr>\n\n<tr>\n\n<td>Tipo</td>\n\n<td>HC</td>\n\n</tr>\n\n<tr bgcolor=\"#D4E4F3\">\n\n<td>Latitud</td>\n\n<td>20.053</td>\n\n</tr>\n\n<tr>\n\n<td>Longitud</td>\n\n<td>-99.3363</td>\n\n</tr>\n\n<tr bgcolor=\"#D4E4F3\">\n\n<td>F6</td>\n\n<td></td>\n\n</tr>\n\n<tr>\n\n<td>KML_STYLE</td>\n\n<td>IconStyle00</td>\n\n</tr>\n\n<tr bgcolor=\"#D4E4F3\">\n\n<td>KML_FOLDER</td>\n\n<td>Sitios_(30MDP)_V5_30052025</td>\n\n</tr>\n\n</table>\n\n</td>\n\n</tr>\n\n</table>\n\n</body>\n\n</html>", "timestamp": null, "begin": null, "end": null, "altitudeMode": null, "tessellate": -1, "extrude": 0, "visibility": -1, "drawOrder": null, "icon": null, "snippet": "" }, "geometry": { "type": "Point", "coordinates": [ -99.336299685946884, 20.052967014261448, 0.0 ] } },
{ "type": "Feature", "properties": { "id": "ID_00007", "Name": "TULAHP07", "description": "<html xmlns:fo=\"http://www.w3.org/1999/XSL/Format\" xmlns:msxsl=\"urn:schemas-microsoft-com:xslt\">\n\n<head>\n\n<META http-equiv=\"Content-Type\" content=\"text/html\">\n\n<meta http-equiv=\"content-type\" content=\"text/html; charset=UTF-8\">\n\n</head>\n\n<body style=\"margin:0px 0px 0px 0px;overflow:auto;background:#FFFFFF;\">\n\n<table style=\"font-family:Arial,Verdana,Times;font-size:12px;text-align:left;width:100%;border-collapse:collapse;padding:3px 3px 3px 3px\">\n\n<tr style=\"text-align:center;font-weight:bold;background:#9CBCE2\">\n\n<td>TULAHP07</td>\n\n</tr>\n\n<tr>\n\n<td>\n\n<table style=\"font-family:Arial,Verdana,Times;font-size:12px;text-align:left;width:100%;border-spacing:0px; padding:3px 3px 3px 3px\">\n\n<tr>\n\n<td>FID</td>\n\n<td>7</td>\n\n</tr>\n\n<tr bgcolor=\"#D4E4F3\">\n\n<td>NAME</td>\n\n<td>TULAHP07</td>\n\n</tr>\n\n<tr>\n\n<td>LAYER</td>\n\n<td>Unknown Point Feature</td>\n\n</tr>\n\n<tr bgcolor=\"#D4E4F3\">\n\n<td>FID_1</td>\n\n<td>16</td>\n\n</tr>\n\n<tr>\n\n<td>No</td>\n\n<td>15</td>\n\n</tr>\n\n<tr bgcolor=\"#D4E4F3\">\n\n<td>Estaci</td>\n\n<td>TULAHP07</td>\n\n</tr>\n\n<tr>\n\n<td>Tipo</td>\n\n<td>HC</td>\n\n</tr>\n\n<tr bgcolor=\"#D4E4F3\">\n\n<td>Latitud</td>\n\n<td>20.131</td>\n\n</tr>\n\n<tr>\n\n<td>Longitud</td>\n\n<td>-99.242</td>\n\n</tr>\n\n<tr bgcolor=\"#D4E4F3\">\n\n<td>F6</td>\n\n<td></td>\n\n</tr>\n\n<tr>\n\n<td>KML_STYLE</td>\n\n<td>IconStyle00</td>\n\n</tr>\n\n<tr bgcolor=\"#D4E4F3\">\n\n<td>KML_FOLDER</td>\n\n<td>Sitios_(30MDP)_V5_30052025</td>\n\n</tr>\n\n</table>\n\n</td>\n\n</tr>\n\n</table>\n\n</body>\n\n</html>", "timestamp": null, "begin": null, "end": null, "altitudeMode": null, "tessellate": -1, "extrude": 0, "visibility": -1, "drawOrder": null, "icon": null, "snippet": "" }, "geometry": { "type": "Point", "coordinates": [ -99.242007663073224, 20.131003032261159, 0.0 ] } },
{ "type": "Feature", "properties": { "id": "ID_00008", "Name": "TULAHP11 (Endho)", "description": "<html xmlns:fo=\"http://www.w3.org/1999/XSL/Format\" xmlns:msxsl=\"urn:schemas-microsoft-com:xslt\">\n\n<head>\n\n<META http-equiv=\"Content-Type\" content=\"text/html\">\n\n<meta http-equiv=\"content-type\" content=\"text/html; charset=UTF-8\">\n\n</head>\n\n<body style=\"margin:0px 0px 0px 0px;overflow:auto;background:#FFFFFF;\">\n\n<table style=\"font-family:Arial,Verdana,Times;font-size:12px;text-align:left;width:100%;border-collapse:collapse;padding:3px 3px 3px 3px\">\n\n<tr style=\"text-align:center;font-weight:bold;background:#9CBCE2\">\n\n<td>TULAHP11 (Endho)</td>\n\n</tr>\n\n<tr>\n\n<td>\n\n<table style=\"font-family:Arial,Verdana,Times;font-size:12px;text-align:left;width:100%;border-spacing:0px; padding:3px 3px 3px 3px\">\n\n<tr>\n\n<td>FID</td>\n\n<td>8</td>\n\n</tr>\n\n<tr bgcolor=\"#D4E4F3\">\n\n<td>NAME</td>\n\n<td>TULAHP11 (Endho)</td>\n\n</tr>\n\n<tr>\n\n<td>LAYER</td>\n\n<td>Unknown Point Feature</td>\n\n</tr>\n\n<tr bgcolor=\"#D4E4F3\">\n\n<td>FID_1</td>\n\n<td>18</td>\n\n</tr>\n\n<tr>\n\n<td>No</td>\n\n<td>17</td>\n\n</tr>\n\n<tr bgcolor=\"#D4E4F3\">\n\n<td>Estaci</td>\n\n<td>TULAHP11 (Endho)</td>\n\n</tr>\n\n<tr>\n\n<td>Tipo</td>\n\n<td>HC</td>\n\n</tr>\n\n<tr bgcolor=\"#D4E4F3\">\n\n<td>Latitud</td>\n\n<td>20.1573</td>\n\n</tr>\n\n<tr>\n\n<td>Longitud</td>\n\n<td>-99.3599</td>\n\n</tr>\n\n<tr bgcolor=\"#D4E4F3\">\n\n<td>F6</td>\n\n<td></td>\n\n</tr>\n\n<tr>\n\n<td>KML_STYLE</td>\n\n<td>IconStyle00</td>\n\n</tr>\n\n<tr bgcolor=\"#D4E4F3\">\n\n<td>KML_FOLDER</td>\n\n<td>Sitios_(30MDP)_V5_30052025</td>\n\n</tr>\n\n</table>\n\n</td>\n\n</tr>\n\n</table>\n\n</body>\n\n</html>", "timestamp": null, "begin": null, "end": null, "altitudeMode": null, "tessellate": -1, "extrude": 0, "visibility": -1, "drawOrder": null, "icon": null, "snippet": "" }, "geometry": { "type": "Point", "coordinates": [ -99.359871692071366, 20.157302037861456, 0.0 ] } },
{ "type": "Feature", "properties": { "id": "ID_00009", "Name": "TULAHP13 (Danxho)", "description": "<html xmlns:fo=\"http://www.w3.org/1999/XSL/Format\" xmlns:msxsl=\"urn:schemas-microsoft-com:xslt\">\n\n<head>\n\n<META http-equiv=\"Content-Type\" content=\"text/html\">\n\n<meta http-equiv=\"content-type\" content=\"text/html; charset=UTF-8\">\n\n</head>\n\n<body style=\"margin:0px 0px 0px 0px;overflow:auto;background:#FFFFFF;\">\n\n<table style=\"font-family:Arial,Verdana,Times;font-size:12px;text-align:left;width:100%;border-collapse:collapse;padding:3px 3px 3px 3px\">\n\n<tr style=\"text-align:center;font-weight:bold;background:#9CBCE2\">\n\n<td>TULAHP13 (Danxho)</td>\n\n</tr>\n\n<tr>\n\n<td>\n\n<table style=\"font-family:Arial,Verdana,Times;font-size:12px;text-align:left;width:100%;border-spacing:0px; padding:3px 3px 3px 3px\">\n\n<tr>\n\n<td>FID</td>\n\n<td>9</td>\n\n</tr>\n\n<tr bgcolor=\"#D4E4F3\">\n\n<td>NAME</td>\n\n<td>TULAHP13 (Danxho)</td>\n\n</tr>\n\n<tr>\n\n<td>LAYER</td>\n\n<td>Unknown Point Feature</td>\n\n</tr>\n\n<tr bgcolor=\"#D4E4F3\">\n\n<td>FID_1</td>\n\n<td>19</td>\n\n</tr>\n\n<tr>\n\n<td>No</td>\n\n<td>18</td>\n\n</tr>\n\n<tr bgcolor=\"#D4E4F3\">\n\n<td>Estaci</td>\n\n<td>TULAHP13 (Danxho)</td>\n\n</tr>\n\n<tr>\n\n<td>Tipo</td>\n\n<td>HC</td>\n\n</tr>\n\n<tr bgcolor=\"#D4E4F3\">\n\n<td>Latitud</td>\n\n<td>19.8352</td>\n\n</tr>\n\n<tr>\n\n<td>Longitud</td>\n\n<td>-99.3851</td>\n\n</tr>\n\n<tr bgcolor=\"#D4E4F3\">\n\n<td>F6</td>\n\n<td></td>\n\n</tr>\n\n<tr>\n\n<td>KML_STYLE</td>\n\n<td>IconStyle00</td>\n\n</tr>\n\n<tr bgcolor=\"#D4E4F3\">\n\n<td>KML_FOLDER</td>\n\n<td>Sitios_(30MDP)_V5_30052025</td>\n\n</tr>\n\n</table>\n\n</td>\n\n</tr>\n\n</table>\n\n</body>\n\n</html>", "timestamp": null, "begin": null, "end": null, "altitudeMode": null, "tessellate": -1, "extrude": 0, "visibility": -1, "drawOrder": null, "icon": null, "snippet": "" }, "geometry": { "type": "Point", "coordinates": [ -99.385087697316777, 19.835202964644228, 0.0 ] } },
{ "type": "Feature", "properties": { "id": "ID_00010", "Name": "TULAHP14 (Taxhimay)", "description": "<html xmlns:fo=\"http://www.w3.org/1999/XSL/Format\" xmlns:msxsl=\"urn:schemas-microsoft-com:xslt\">\n\n<head>\n\n<META http-equiv=\"Content-Type\" content=\"text/html\">\n\n<meta http-equiv=\"content-type\" content=\"text/html; charset=UTF-8\">\n\n</head>\n\n<body style=\"margin:0px 0px 0px 0px;overflow:auto;background:#FFFFFF;\">\n\n<table style=\"font-family:Arial,Verdana,Times;font-size:12px;text-align:left;width:100%;border-collapse:collapse;padding:3px 3px 3px 3px\">\n\n<tr style=\"text-align:center;font-weight:bold;background:#9CBCE2\">\n\n<td>TULAHP14 (Taxhimay)</td>\n\n</tr>\n\n<tr>\n\n<td>\n\n<table style=\"font-family:Arial,Verdana,Times;font-size:12px;text-align:left;width:100%;border-spacing:0px; padding:3px 3px 3px 3px\">\n\n<tr>\n\n<td>FID</td>\n\n<td>10</td>\n\n</tr>\n\n<tr bgcolor=\"#D4E4F3\">\n\n<td>NAME</td>\n\n<td>TULAHP14 (Taxhimay)</td>\n\n</tr>\n\n<tr>\n\n<td>LAYER</td>\n\n<td>Unknown Point Feature</td>\n\n</tr>\n\n<tr bgcolor=\"#D4E4F3\">\n\n<td>FID_1</td>\n\n<td>20</td>\n\n</tr>\n\n<tr>\n\n<td>No</td>\n\n<td>19</td>\n\n</tr>\n\n<tr bgcolor=\"#D4E4F3\">\n\n<td>Estaci</td>\n\n<td>TULAHP14 (Taxhimay)</td>\n\n</tr>\n\n<tr>\n\n<td>Tipo</td>\n\n<td>HC</td>\n\n</tr>\n\n<tr bgcolor=\"#D4E4F3\">\n\n<td>Latitud</td>\n\n<td>19.8845</td>\n\n</tr>\n\n<tr>\n\n<td>Longitud</td>\n\n<td>-99.5599</td>\n\n</tr>\n\n<tr bgcolor=\"#D4E4F3\">\n\n<td>F6</td>\n\n<td></td>\n\n</tr>\n\n<tr>\n\n<td>KML_STYLE</td>\n\n<td>IconStyle00</td>\n\n</tr>\n\n<tr bgcolor=\"#D4E4F3\">\n\n<td>KML_FOLDER</td>\n\n<td>Sitios_(30MDP)_V5_30052025</td>\n\n</tr>\n\n</table>\n\n</td>\n\n</tr>\n\n</table>\n\n</body>\n\n</html>", "timestamp": null, "begin": null, "end": null, "altitudeMode": null, "tessellate": -1, "extrude": 0, "visibility": -1, "drawOrder": null, "icon": null, "snippet": "" }, "geometry": { "type": "Point", "coordinates": [ -99.559877740222731, 19.884514975480883, 0.0 ] } },
{ "type": "Feature", "properties": { "id": "ID_00011", "Name": "TULAHP31", "description": "<html xmlns:fo=\"http://www.w3.org/1999/XSL/Format\" xmlns:msxsl=\"urn:schemas-microsoft-com:xslt\">\n\n<head>\n\n<META http-equiv=\"Content-Type\" content=\"text/html\">\n\n<meta http-equiv=\"content-type\" content=\"text/html; charset=UTF-8\">\n\n</head>\n\n<body style=\"margin:0px 0px 0px 0px;overflow:auto;background:#FFFFFF;\">\n\n<table style=\"font-family:Arial,Verdana,Times;font-size:12px;text-align:left;width:100%;border-collapse:collapse;padding:3px 3px 3px 3px\">\n\n<tr style=\"text-align:center;font-weight:bold;background:#9CBCE2\">\n\n<td>TULAHP31</td>\n\n</tr>\n\n<tr>\n\n<td>\n\n<table style=\"font-family:Arial,Verdana,Times;font-size:12px;text-align:left;width:100%;border-spacing:0px; padding:3px 3px 3px 3px\">\n\n<tr>\n\n<td>FID</td>\n\n<td>11</td>\n\n</tr>\n\n<tr bgcolor=\"#D4E4F3\">\n\n<td>NAME</td>\n\n<td>TULAHP31</td>\n\n</tr>\n\n<tr>\n\n<td>LAYER</td>\n\n<td>Unknown Point Feature</td>\n\n</tr>\n\n<tr bgcolor=\"#D4E4F3\">\n\n<td>FID_1</td>\n\n<td>21</td>\n\n</tr>\n\n<tr>\n\n<td>No</td>\n\n<td>20</td>\n\n</tr>\n\n<tr bgcolor=\"#D4E4F3\">\n\n<td>Estaci</td>\n\n<td>TULAHP31</td>\n\n</tr>\n\n<tr>\n\n<td>Tipo</td>\n\n<td>HC</td>\n\n</tr>\n\n<tr bgcolor=\"#D4E4F3\">\n\n<td>Latitud</td>\n\n<td>19.5296</td>\n\n</tr>\n\n<tr>\n\n<td>Longitud</td>\n\n<td>-99.2609</td>\n\n</tr>\n\n<tr bgcolor=\"#D4E4F3\">\n\n<td>F6</td>\n\n<td></td>\n\n</tr>\n\n<tr>\n\n<td>KML_STYLE</td>\n\n<td>IconStyle00</td>\n\n</tr>\n\n<tr bgcolor=\"#D4E4F3\">\n\n<td>KML_FOLDER</td>\n\n<td>Sitios_(30MDP)_V5_30052025</td>\n\n</tr>\n\n</table>\n\n</td>\n\n</tr>\n\n</table>\n\n</body>\n\n</html>", "timestamp": null, "begin": null, "end": null, "altitudeMode": null, "tessellate": -1, "extrude": 0, "visibility": -1, "drawOrder": null, "icon": null, "snippet": "" }, "geometry": { "type": "Point", "coordinates": [ -99.260945666319159, 19.529565895088432, 0.0 ] } },
{ "type": "Feature", "properties": { "id": "ID_00012", "Name": "TULAHP12 (Requena)", "description": "<html xmlns:fo=\"http://www.w3.org/1999/XSL/Format\" xmlns:msxsl=\"urn:schemas-microsoft-com:xslt\">\n\n<head>\n\n<META http-equiv=\"Content-Type\" content=\"text/html\">\n\n<meta http-equiv=\"content-type\" content=\"text/html; charset=UTF-8\">\n\n</head>\n\n<body style=\"margin:0px 0px 0px 0px;overflow:auto;background:#FFFFFF;\">\n\n<table style=\"font-family:Arial,Verdana,Times;font-size:12px;text-align:left;width:100%;border-collapse:collapse;padding:3px 3px 3px 3px\">\n\n<tr style=\"text-align:center;font-weight:bold;background:#9CBCE2\">\n\n<td>TULAHP12 (Requena)</td>\n\n</tr>\n\n<tr>\n\n<td>\n\n<table style=\"font-family:Arial,Verdana,Times;font-size:12px;text-align:left;width:100%;border-spacing:0px; padding:3px 3px 3px 3px\">\n\n<tr>\n\n<td>FID</td>\n\n<td>12</td>\n\n</tr>\n\n<tr bgcolor=\"#D4E4F3\">\n\n<td>NAME</td>\n\n<td>TULAHP12 (Requena)</td>\n\n</tr>\n\n<tr>\n\n<td>LAYER</td>\n\n<td>Unknown Point Feature</td>\n\n</tr>\n\n<tr bgcolor=\"#D4E4F3\">\n\n<td>FID_1</td>\n\n<td>22</td>\n\n</tr>\n\n<tr>\n\n<td>No</td>\n\n<td>21</td>\n\n</tr>\n\n<tr bgcolor=\"#D4E4F3\">\n\n<td>Estaci</td>\n\n<td>TULAHP12 (Requena)</td>\n\n</tr>\n\n<tr>\n\n<td>Tipo</td>\n\n<td>HC</td>\n\n</tr>\n\n<tr bgcolor=\"#D4E4F3\">\n\n<td>Latitud</td>\n\n<td>19.9627</td>\n\n</tr>\n\n<tr>\n\n<td>Longitud</td>\n\n<td>-99.3099</td>\n\n</tr>\n\n<tr bgcolor=\"#D4E4F3\">\n\n<td>F6</td>\n\n<td></td>\n\n</tr>\n\n<tr>\n\n<td>KML_STYLE</td>\n\n<td>IconStyle00</td>\n\n</tr>\n\n<tr bgcolor=\"#D4E4F3\">\n\n<td>KML_FOLDER</td>\n\n<td>Sitios_(30MDP)_V5_30052025</td>\n\n</tr>\n\n</table>\n\n</td>\n\n</tr>\n\n</table>\n\n</body>\n\n</html>", "timestamp": null, "begin": null, "end": null, "altitudeMode": null, "tessellate": -1, "extrude": 0, "visibility": -1, "drawOrder": null, "icon": null, "snippet": "" }, "geometry": { "type": "Point", "coordinates": [ -99.30992467921071, 19.962673993813208, 0.0 ] } }
]
}
