{
"type": "FeatureCollection",
"name": "industrias",
"crs": { "type": "name", "properties": { "name": "urn:ogc:def:crs:OGC:1.3:CRS84" } },
"features": [
{ "type": "Feature", "properties": { "ID-IV": "REPDA-00154", "Nombre/Raz": "pilgrims pride s", "Municipio": "TEPEJI DEL RÍO DE OCAMPO", "Estado": "HIDALGO", "Latitud": 19.8863925, "Longitud": -99.34083361, "Cuenca": "Presa Requena", "Distancia": "1.5", "Río más": "Tepeji", "País": "México", "Descarga a": "SIN DATO", "Uso": "Industrial", "Prioritari": "Sí", "Cuerpo de": "Río, arrroyo o cuerpo de agua", "VOLUMEN AN": "686400", "CUERPO REC": "RIO", "FORMA DE D": "SIN DATO", "Cuerpo d_1": "Río, arrroyo o cuerpo de agua", "Actividad": "Matanza de Aves", "Parametros": "1", "Parametr_1": "0", "Parámetro": "3", "Cuerpo r_1": "Río", "Volumen _1": "16,08", "USO_DESTIN": "Descarga a bien nacional", "ACTIVIDAD_": "Matanza, empacado y procesamiento de carne de ganado, aves y otros animales comestibles", "Estatus": null, "Expediente": null, "TIPO_DE_VI": "INSPECCION", "OBJETO_DE_": "RESIDUOS PELIGROSOS", "ESTATUS_DE": "CERRADO", "Ranking Co": null, "Comentario": null, "Ranking Pr": null, "A investig": null, "Comentar_1": null, "Preselecci": false, "Excluida": true, "Inspeccion": true, "En polígo": false, "Quién inv": null, "Visita rea": null, "Comentar_2": "FALSE", "Parque ind": "FALSE\r" }, "geometry": { "type": "Point", "coordinates": [ -99.34083361, 19.8863925 ] } },
{ "type": "Feature", "properties": { "ID-IV": "REPDA-01943", "Nombre/Raz": "FLEXICO, S. DE R.L. DE C.V.", "Municipio": null, "Estado": null, "Latitud": null, "Longitud": null, "Cuenca": "N/A", "Distancia": "N/A", "Río más": "N/A", "País": "México", "Descarga a": "N/A", "Uso": "N/A", "Prioritari": "No", "Cuerpo de": null, "VOLUMEN AN": "N/A", "CUERPO REC": "N/A", "FORMA DE D": "N/A", "Cuerpo d_1": "Río, arrroyo o cuerpo de agua", "Actividad": "Descarga Aguas Residuales (DAR)", "Parametros": "N/A", "Parametr_1": "N/A", "Parámetro": "2", "Cuerpo r_1": "Río", "Volumen _1": "128,072", "USO_DESTIN": "Descarga a bien nacional", "ACTIVIDAD_": "N/A", "Estatus": null, "Expediente": null, "TIPO_DE_VI": "N/A", "OBJETO_DE_": "N/A", "ESTATUS_DE": "N/A", "Ranking Co": null, "Comentario": null, "Ranking Pr": null, "A investig": null, "Comentar_1": null, "Preselecci": true, "Excluida": false, "Inspeccion": true, "En polígo": false, "Quién inv": "FALSE", "Visita rea": null, "Comentar_2": "FALSE", "Parque ind": "FALSE\r" }, "geometry": null },
{ "type": "Feature", "properties": { "ID-IV": "REPDA-00559", "Nombre/Raz": "manufacturas kaltex", "Municipio": "TEPEJI DEL RÍO DE OCAMPO", "Estado": "HIDALGO", "Latitud": 19.97111111, "Longitud": -99.36472222, "Cuenca": "Presa Endhó", "Distancia": "2.8", "Río más": "Río Tlautla o Coscomate", "País": "México", "Descarga a": "Río Tula", "Uso": "Industrial", "Prioritari": "No", "Cuerpo de": "Río, arrroyo o cuerpo de agua", "VOLUMEN AN": "150663", "CUERPO REC": "Río Jilotepec", "FORMA DE D": "Libre con tuberia", "Cuerpo d_1": "Río, arrroyo o cuerpo de agua", "Actividad": "PREPARACION DE HILO Y TELA", "Parametros": "2", "Parametr_1": "0", "Parámetro": "3", "Cuerpo r_1": "Arroyo", "Volumen _1": "0", "USO_DESTIN": "Descarga a bien nacional", "ACTIVIDAD_": "Preparación e hilado de fibras textiles fabricación de hilos", "Estatus": null, "Expediente": null, "TIPO_DE_VI": "N/A", "OBJETO_DE_": "N/A", "ESTATUS_DE": "N/A", "Ranking Co": null, "Comentario": null, "Ranking Pr": null, "A investig": null, "Comentar_1": null, "Preselecci": false, "Excluida": true, "Inspeccion": true, "En polígo": false, "Quién inv": null, "Visita rea": null, "Comentar_2": "FALSE", "Parque ind": "FALSE\r" }, "geometry": { "type": "Point", "coordinates": [ -99.36472222, 19.97111111 ] } },
{ "type": "Feature", "properties": { "ID-IV": "REPDA-00561", "Nombre/Raz": "manufacturas kaltex", "Municipio": "TEPEJI DEL RÍO DE OCAMPO", "Estado": "HIDALGO", "Latitud": 19.92833333, "Longitud": -99.33916667, "Cuenca": "Presa Requena", "Distancia": "30.9", "Río más": "Río Tula", "País": "México", "Descarga a": "Presa Requena", "Uso": "Industrial", "Prioritari": "Sí", "Cuerpo de": "Río, arrroyo o cuerpo de agua", "VOLUMEN AN": "150663", "CUERPO REC": "Río Jilotepec", "FORMA DE D": "Libre con tuberia", "Cuerpo d_1": "Río, arrroyo o cuerpo de agua", "Actividad": "PREPARACION DE HILO Y TELA", "Parametros": "2", "Parametr_1": "0", "Parámetro": "3", "Cuerpo r_1": "Arroyo", "Volumen _1": "0", "USO_DESTIN": "Descarga a bien nacional", "ACTIVIDAD_": "Preparación e hilado de fibras textiles fabricación de hilos", "Estatus": null, "Expediente": null, "TIPO_DE_VI": "N/A", "OBJETO_DE_": "N/A", "ESTATUS_DE": "N/A", "Ranking Co": null, "Comentario": null, "Ranking Pr": null, "A investig": null, "Comentar_1": null, "Preselecci": false, "Excluida": true, "Inspeccion": true, "En polígo": false, "Quién inv": null, "Visita rea": null, "Comentar_2": "FALSE", "Parque ind": "FALSE\r" }, "geometry": { "type": "Point", "coordinates": [ -99.33916667, 19.92833333 ] } },
{ "type": "Feature", "properties": { "ID-IV": "REPDA-01848", "Nombre/Raz": "autotransportes valle mezquital", "Municipio": "TULA DE ALLENDE", "Estado": "HIDALGO", "Latitud": 20.03472222, "Longitud": -99.33888889000001, "Cuenca": "Presa Endhó", "Distancia": "19.1", "Río más": "Río Tula", "País": "México", "Descarga a": "RIO TULA", "Uso": "Servicios", "Prioritari": "Sí", "Cuerpo de": "Río, arrroyo o cuerpo de agua", "VOLUMEN AN": "2664", "CUERPO REC": "RIO TULA", "FORMA DE D": "LIBRE CON TUBERIA", "Cuerpo d_1": "N/A", "Actividad": "AUTOTRANSPORTE PUBLICO FEDERAL DE PASAJEROS", "Parametros": "1", "Parametr_1": "1", "Parámetro": "1", "Cuerpo r_1": "Río", "Volumen _1": null, "USO_DESTIN": null, "ACTIVIDAD_": "Transporte de pasajeros por tierra, incluido el turístico", "Estatus": null, "Expediente": null, "TIPO_DE_VI": "N/A", "OBJETO_DE_": "N/A", "ESTATUS_DE": "N/A", "Ranking Co": null, "Comentario": null, "Ranking Pr": null, "A investig": null, "Comentar_1": null, "Preselecci": false, "Excluida": true, "Inspeccion": true, "En polígo": false, "Quién inv": "FALSE", "Visita rea": null, "Comentar_2": "FALSE", "Parque ind": "FALSE\r" }, "geometry": { "type": "Point", "coordinates": [ -99.33888889, 20.03472222 ] } },
{ "type": "Feature", "properties": { "ID-IV": "REPDA-01447", "Nombre/Raz": "truper", "Municipio": "JILOTEPEC", "Estado": "MÉXICO", "Latitud": 19.97480556, "Longitud": -99.52947222, "Cuenca": "Presa Endhó", "Distancia": "14.5", "Río más": "Río Tlautla o Coscomate", "País": "México", "Descarga a": "ARROYO LA ORGANERA", "Uso": "Industrial", "Prioritari": "Sí", "Cuerpo de": "Río, arrroyo o cuerpo de agua", "VOLUMEN AN": "40862.01", "CUERPO REC": "ARROYO COLORADO", "FORMA DE D": "LIBRE CON TUBERÍA", "Cuerpo d_1": "Río, arrroyo o cuerpo de agua", "Actividad": null, "Parametros": "0", "Parametr_1": "0", "Parámetro": "1", "Cuerpo r_1": "Arroyo colorado", "Volumen _1": "0", "USO_DESTIN": "-1", "ACTIVIDAD_": "Fabricación de herramientas de mano; sólo mediante procesos térmicos o de fundición; no incluye la microindustria", "Estatus": null, "Expediente": null, "TIPO_DE_VI": "INSPECCION", "OBJETO_DE_": "AGUAS", "ESTATUS_DE": "CERRADO", "Ranking Co": null, "Comentario": null, "Ranking Pr": null, "A investig": null, "Comentar_1": null, "Preselecci": false, "Excluida": true, "Inspeccion": true, "En polígo": false, "Quién inv": null, "Visita rea": null, "Comentar_2": "FALSE", "Parque ind": "FALSE\r" }, "geometry": { "type": "Point", "coordinates": [ -99.52947222, 19.97480556 ] } },
{ "type": "Feature", "properties": { "ID-IV": "REPDA-01448", "Nombre/Raz": "truper", "Municipio": "JILOTEPEC", "Estado": "MÉXICO", "Latitud": 19.97377778, "Longitud": -99.52572222000001, "Cuenca": "Presa Endhó", "Distancia": "14.1", "Río más": "Río Tlautla o Coscomate", "País": "México", "Descarga a": "ARROYO LA ORGANERA", "Uso": "Servicios", "Prioritari": "No", "Cuerpo de": "Río, arrroyo o cuerpo de agua", "VOLUMEN AN": "40862.01", "CUERPO REC": "ARROYO COLORADO", "FORMA DE D": "LIBRE CON TUBERÍA", "Cuerpo d_1": "Río, arrroyo o cuerpo de agua", "Actividad": null, "Parametros": "0", "Parametr_1": "0", "Parámetro": "1", "Cuerpo r_1": "Arroyo colorado", "Volumen _1": "0", "USO_DESTIN": "-1", "ACTIVIDAD_": "Fabricación de herramientas de mano; sólo mediante procesos térmicos o de fundición; no incluye la microindustria", "Estatus": null, "Expediente": null, "TIPO_DE_VI": "INSPECCION", "OBJETO_DE_": "AGUAS", "ESTATUS_DE": "CERRADO", "Ranking Co": null, "Comentario": null, "Ranking Pr": null, "A investig": null, "Comentar_1": null, "Preselecci": false, "Excluida": false, "Inspeccion": true, "En polígo": false, "Quién inv": "FALSE", "Visita rea": null, "Comentar_2": "FALSE", "Parque ind": "FALSE\r" }, "geometry": { "type": "Point", "coordinates": [ -99.52572222, 19.97377778 ] } },
{ "type": "Feature", "properties": { "ID-IV": "REPDA-00560", "Nombre/Raz": "manufacturas kaltex", "Municipio": "TEPEJI DEL RÍO DE OCAMPO", "Estado": "HIDALGO", "Latitud": 19.97222222, "Longitud": -99.36333333, "Cuenca": "Presa Endhó", "Distancia": "2.9", "Río más": "Río Tlautla o Coscomate", "País": "México", "Descarga a": "RÍO JILOTEPEC", "Uso": "Industrial", "Prioritari": "No", "Cuerpo de": "Río, arrroyo o cuerpo de agua", "VOLUMEN AN": "150663", "CUERPO REC": "Río Jilotepec", "FORMA DE D": "Libre con tuberia", "Cuerpo d_1": "Río, arrroyo o cuerpo de agua", "Actividad": "PREPARACION DE HILO Y TELA", "Parametros": "2", "Parametr_1": "0", "Parámetro": "3", "Cuerpo r_1": "Arroyo", "Volumen _1": "0", "USO_DESTIN": "Descarga a bien nacional", "ACTIVIDAD_": "Preparación e hilado de fibras textiles fabricación de hilos", "Estatus": null, "Expediente": null, "TIPO_DE_VI": "N/A", "OBJETO_DE_": "N/A", "ESTATUS_DE": "N/A", "Ranking Co": null, "Comentario": null, "Ranking Pr": null, "A investig": null, "Comentar_1": null, "Preselecci": false, "Excluida": true, "Inspeccion": true, "En polígo": false, "Quién inv": null, "Visita rea": null, "Comentar_2": "FALSE", "Parque ind": "FALSE\r" }, "geometry": { "type": "Point", "coordinates": [ -99.36333333, 19.97222222 ] } },
{ "type": "Feature", "properties": { "ID-IV": "REPDA-00163", "Nombre/Raz": "sigma alimentos centro", "Municipio": "ATITALAQUIA", "Estado": "HIDALGO", "Latitud": 20.05055583, "Longitud": -99.25580583, "Cuenca": "Río Salado", "Distancia": "18.8", "Río más": "Río Tula", "País": "México", "Descarga a": "SIN DATO", "Uso": "Industrial", "Prioritari": "Sí", "Cuerpo de": "Río, arrroyo o cuerpo de agua", "VOLUMEN AN": "360000", "CUERPO REC": "RIO", "FORMA DE D": "SIN DATO", "Cuerpo d_1": "Río, arrroyo o cuerpo de agua", "Actividad": "Preparación de embutidos y carnes frías/Preparación de pizzas", "Parametros": "1", "Parametr_1": "0", "Parámetro": "1", "Cuerpo r_1": "Canal natural", "Volumen _1": "0", "USO_DESTIN": "Descarga a bien nacional", "ACTIVIDAD_": "Matanza, empacado y procesamiento de carne de ganado, aves y otros animales comestibles", "Estatus": null, "Expediente": null, "TIPO_DE_VI": "INSPECCION", "OBJETO_DE_": "AGUAS", "ESTATUS_DE": "CERRADO", "Ranking Co": null, "Comentario": null, "Ranking Pr": null, "A investig": null, "Comentar_1": null, "Preselecci": false, "Excluida": true, "Inspeccion": true, "En polígo": false, "Quién inv": null, "Visita rea": null, "Comentar_2": "FALSE", "Parque ind": "FALSE\r" }, "geometry": { "type": "Point", "coordinates": [ -99.25580583, 20.05055583 ] } },
{ "type": "Feature", "properties": { "ID-IV": "REPDA-01801", "Nombre/Raz": "embotelladora niagara mexico s", "Municipio": "SOYANIQUILPAN DE JUÁREZ", "Estado": "MÉXICO", "Latitud": 19.99775, "Longitud": -99.51733333, "Cuenca": "Presa Endhó", "Distancia": "13.4", "Río más": "Río Tlautla o Coscomate", "País": "México", "Descarga a": "AFLUENTE DEL RIO ROSAS", "Uso": "Industrial", "Prioritari": "Sí", "Cuerpo de": "Río, arrroyo o cuerpo de agua", "VOLUMEN AN": "922720", "CUERPO REC": "ARROYO SIN NOMBRE AFLUENTE DEL RIO ROSAS", "FORMA DE D": "LIBRE CON TUBERIA", "Cuerpo d_1": "Río, arrroyo o cuerpo de agua", "Actividad": "Descarga Aguas Residuales (DAR)", "Parametros": "13", "Parametr_1": "0", "Parámetro": "4", "Cuerpo r_1": "Arroyo", "Volumen _1": "0", "USO_DESTIN": "Descarga a bien nacional", "ACTIVIDAD_": null, "Estatus": null, "Expediente": null, "TIPO_DE_VI": "N/A", "OBJETO_DE_": "N/A", "ESTATUS_DE": "N/A", "Ranking Co": null, "Comentario": null, "Ranking Pr": null, "A investig": null, "Comentar_1": null, "Preselecci": false, "Excluida": true, "Inspeccion": true, "En polígo": false, "Quién inv": null, "Visita rea": null, "Comentar_2": "FALSE", "Parque ind": "FALSE\r" }, "geometry": { "type": "Point", "coordinates": [ -99.51733333, 19.99775 ] } },
{ "type": "Feature", "properties": { "ID-IV": "REPDA-01777", "Nombre/Raz": "truper", "Municipio": "JILOTEPEC", "Estado": "MÉXICO", "Latitud": 19.97402778, "Longitud": -99.52047222, "Cuenca": "Presa Endhó", "Distancia": "13.6", "Río más": "Río Tlautla o Coscomate", "País": "México", "Descarga a": "RIO TULA", "Uso": "Industrial", "Prioritari": "No", "Cuerpo de": "Río, arrroyo o cuerpo de agua", "VOLUMEN AN": "40862.01", "CUERPO REC": "ARROYO COLORADO", "FORMA DE D": "LIBRE CON TUBERÍA", "Cuerpo d_1": "Río, arrroyo o cuerpo de agua", "Actividad": null, "Parametros": "0", "Parametr_1": "0", "Parámetro": "1", "Cuerpo r_1": "Arroyo colorado", "Volumen _1": "0", "USO_DESTIN": "-1", "ACTIVIDAD_": "Fabricación de herramientas de mano; sólo mediante procesos térmicos o de fundición; no incluye la microindustria", "Estatus": null, "Expediente": null, "TIPO_DE_VI": "INSPECCION", "OBJETO_DE_": "AGUAS", "ESTATUS_DE": "CERRADO", "Ranking Co": null, "Comentario": null, "Ranking Pr": null, "A investig": null, "Comentar_1": null, "Preselecci": false, "Excluida": true, "Inspeccion": true, "En polígo": false, "Quién inv": null, "Visita rea": null, "Comentar_2": "FALSE", "Parque ind": "FALSE\r" }, "geometry": { "type": "Point", "coordinates": [ -99.52047222, 19.97402778 ] } },
{ "type": "Feature", "properties": { "ID-IV": "REPDA-00181", "Nombre/Raz": "parque industrial tepeji rio", "Municipio": "TEPEJI DEL RÍO DE OCAMPO", "Estado": "HIDALGO", "Latitud": 19.84170694, "Longitud": -99.2784525, "Cuenca": "Río Cuautitlán", "Distancia": "40.8", "Río más": "Río Tula", "País": "México", "Descarga a": "SIN DATO", "Uso": "Industrial", "Prioritari": "No", "Cuerpo de": "Río, arrroyo o cuerpo de agua", "VOLUMEN AN": "315360", "CUERPO REC": "EMBALSES NATURALES Y ARTIFICIALES", "FORMA DE D": "SIN DATO", "Cuerpo d_1": "N/A", "Actividad": null, "Parametros": "N/A", "Parametr_1": "N/A", "Parámetro": "N/A", "Cuerpo r_1": "N/A", "Volumen _1": "N/A", "USO_DESTIN": "N/A", "ACTIVIDAD_": "N/A", "Estatus": null, "Expediente": "SIN INFORMACION", "TIPO_DE_VI": "N/A", "OBJETO_DE_": "N/A", "ESTATUS_DE": "N/A", "Ranking Co": "2", "Comentario": null, "Ranking Pr": null, "A investig": "NO", "Comentar_1": null, "Preselecci": true, "Excluida": false, "Inspeccion": true, "En polígo": true, "Quién inv": null, "Visita rea": null, "Comentar_2": "Revisar historial del permiso de descarga", "Parque ind": "FALSE\r" }, "geometry": { "type": "Point", "coordinates": [ -99.278452500000014, 19.84170694 ] } },
{ "type": "Feature", "properties": { "ID-IV": "REPDA-00002", "Nombre/Raz": "manufacturas kaltex s a c v", "Municipio": "TEPEJI DEL RÍO DE OCAMPO", "Estado": "HIDALGO", "Latitud": 19.96944444, "Longitud": -99.36416694, "Cuenca": "Presa Endhó", "Distancia": "2.9", "Río más": "Río Tlautla o Coscomate", "País": "México", "Descarga a": "SIN DATO", "Uso": "Industrial", "Prioritari": "Sí", "Cuerpo de": "Río, arrroyo o cuerpo de agua", "VOLUMEN AN": "63841", "CUERPO REC": "RIO", "FORMA DE D": "SIN DATO", "Cuerpo d_1": "N/A", "Actividad": "N/A", "Parametros": "N/A", "Parametr_1": "N/A", "Parámetro": null, "Cuerpo r_1": "N/A", "Volumen _1": "N/A", "USO_DESTIN": "N/A", "ACTIVIDAD_": "N/A", "Estatus": null, "Expediente": null, "TIPO_DE_VI": "N/A", "OBJETO_DE_": "N/A", "ESTATUS_DE": "N/A", "Ranking Co": null, "Comentario": null, "Ranking Pr": null, "A investig": null, "Comentar_1": null, "Preselecci": false, "Excluida": true, "Inspeccion": true, "En polígo": false, "Quién inv": null, "Visita rea": null, "Comentar_2": "FALSE", "Parque ind": "FALSE\r" }, "geometry": { "type": "Point", "coordinates": [ -99.36416694, 19.96944444 ] } },
{ "type": "Feature", "properties": { "ID-IV": "REPDA-00012", "Nombre/Raz": "gloria rojas colin", "Municipio": "PROGRESO DE OBREGÓN", "Estado": "HIDALGO", "Latitud": 20.2713875, "Longitud": -99.18722278, "Cuenca": "Río Tula", "Distancia": "16.1", "Río más": "Río Tula", "País": "México", "Descarga a": "SIN DATO", "Uso": "Servicios", "Prioritari": "Sí", "Cuerpo de": "Río, arrroyo o cuerpo de agua", "VOLUMEN AN": "26645", "CUERPO REC": "RIO", "FORMA DE D": "SIN DATO", "Cuerpo d_1": "N/A", "Actividad": "N/A", "Parametros": "N/A", "Parametr_1": "N/A", "Parámetro": null, "Cuerpo r_1": "N/A", "Volumen _1": "N/A", "USO_DESTIN": "N/A", "ACTIVIDAD_": "N/A", "Estatus": null, "Expediente": null, "TIPO_DE_VI": "N/A", "OBJETO_DE_": "N/A", "ESTATUS_DE": "N/A", "Ranking Co": null, "Comentario": null, "Ranking Pr": null, "A investig": null, "Comentar_1": null, "Preselecci": false, "Excluida": false, "Inspeccion": true, "En polígo": false, "Quién inv": "FALSE", "Visita rea": null, "Comentar_2": "FALSE", "Parque ind": "FALSE\r" }, "geometry": { "type": "Point", "coordinates": [ -99.18722278, 20.2713875 ] } },
{ "type": "Feature", "properties": { "ID-IV": "REPDA-00219", "Nombre/Raz": "embotelladora aga mexico", "Municipio": "TULTITLÁN", "Estado": "MÉXICO", "Latitud": 19.63578, "Longitud": -99.1644725, "Cuenca": "Presa Requena", "Distancia": "N/A", "Río más": "N/A", "País": "México", "Descarga a": "Río Cuatitlan", "Uso": "Industrial", "Prioritari": "No", "Cuerpo de": "Río, arrroyo o cuerpo de agua", "VOLUMEN AN": "99600", "CUERPO REC": "EMBALSES NATURALES Y ARTIFICIALES", "FORMA DE D": "SIN DATO", "Cuerpo d_1": "N/A", "Actividad": "N/A", "Parametros": "N/A", "Parametr_1": "N/A", "Parámetro": null, "Cuerpo r_1": "N/A", "Volumen _1": "N/A", "USO_DESTIN": "N/A", "ACTIVIDAD_": "Fabricación de todo tipo de pinturas, recubrimientos e impermeabilizantes; excluye productos base agua.", "Estatus": null, "Expediente": null, "TIPO_DE_VI": "N/A", "OBJETO_DE_": "N/A", "ESTATUS_DE": "N/A", "Ranking Co": null, "Comentario": null, "Ranking Pr": null, "A investig": null, "Comentar_1": null, "Preselecci": false, "Excluida": false, "Inspeccion": true, "En polígo": false, "Quién inv": null, "Visita rea": null, "Comentar_2": "FALSE", "Parque ind": "FALSE\r" }, "geometry": { "type": "Point", "coordinates": [ -99.1644725, 19.63578 ] } },
{ "type": "Feature", "properties": { "ID-IV": "REPDA-00045", "Nombre/Raz": "mccord payen mexico s", "Municipio": "TEPOTZOTLÁN", "Estado": "MÉXICO", "Latitud": 19.70311361, "Longitud": -99.21919444, "Cuenca": "Río Cuautitlán", "Distancia": "2.1", "Río más": "cuautitlan", "País": "México", "Descarga a": "SIN DATO", "Uso": "Industrial", "Prioritari": "No", "Cuerpo de": "Río, arrroyo o cuerpo de agua", "VOLUMEN AN": "61600", "CUERPO REC": "RIO", "FORMA DE D": "SIN DATO", "Cuerpo d_1": "N/A", "Actividad": "N/A", "Parametros": "1", "Parametr_1": "0", "Parámetro": "N/A", "Cuerpo r_1": "N/A", "Volumen _1": "N/A", "USO_DESTIN": "N/A", "ACTIVIDAD_": "Fabricación de otras autopartes; si incluye procesos térmicos o de fundición", "Estatus": null, "Expediente": null, "TIPO_DE_VI": "INSPECCION", "OBJETO_DE_": "AGUAS", "ESTATUS_DE": "EN PROCESO", "Ranking Co": null, "Comentario": null, "Ranking Pr": null, "A investig": null, "Comentar_1": null, "Preselecci": false, "Excluida": false, "Inspeccion": true, "En polígo": false, "Quién inv": null, "Visita rea": null, "Comentar_2": "FALSE", "Parque ind": "FALSE\r" }, "geometry": { "type": "Point", "coordinates": [ -99.21919444, 19.70311361 ] } },
{ "type": "Feature", "properties": { "ID-IV": "REPDA-00185", "Nombre/Raz": "regalos ultramar", "Municipio": "TEPEJI DEL RÍO DE OCAMPO", "Estado": "HIDALGO", "Latitud": 19.93222417, "Longitud": -99.335, "Cuenca": "Presa Requena", "Distancia": "30.5", "Río más": "Río Tula", "País": "México", "Descarga a": "SIN DATO", "Uso": "Industrial", "Prioritari": "Sí", "Cuerpo de": "Río, arrroyo o cuerpo de agua", "VOLUMEN AN": "100500", "CUERPO REC": "RIO", "FORMA DE D": "SIN DATO", "Cuerpo d_1": "N/A", "Actividad": null, "Parametros": "N/A", "Parametr_1": "N/A", "Parámetro": "N/A", "Cuerpo r_1": "N/A", "Volumen _1": "N/A", "USO_DESTIN": "N/A", "ACTIVIDAD_": "N/A", "Estatus": null, "Expediente": null, "TIPO_DE_VI": "N/A", "OBJETO_DE_": "N/A", "ESTATUS_DE": "N/A", "Ranking Co": null, "Comentario": null, "Ranking Pr": null, "A investig": null, "Comentar_1": null, "Preselecci": false, "Excluida": false, "Inspeccion": true, "En polígo": true, "Quién inv": null, "Visita rea": null, "Comentar_2": "FALSE", "Parque ind": "FALSE\r" }, "geometry": { "type": "Point", "coordinates": [ -99.335, 19.93222417 ] } },
{ "type": "Feature", "properties": { "ID-IV": "REPDA-00191", "Nombre/Raz": "salmitex", "Municipio": "TEPEJI DEL RÍO DE OCAMPO", "Estado": "HIDALGO", "Latitud": 19.96870083, "Longitud": -99.36866667, "Cuenca": "Presa Endhó", "Distancia": "2.5", "Río más": "Río Tlautla o Coscomate", "País": "México", "Descarga a": "SIN DATO", "Uso": "Industrial", "Prioritari": "Sí", "Cuerpo de": "Río, arrroyo o cuerpo de agua", "VOLUMEN AN": "219000", "CUERPO REC": "RIO", "FORMA DE D": "SIN DATO", "Cuerpo d_1": "N/A", "Actividad": null, "Parametros": "N/A", "Parametr_1": "N/A", "Parámetro": "N/A", "Cuerpo r_1": "N/A", "Volumen _1": "N/A", "USO_DESTIN": "N/A", "ACTIVIDAD_": "N/A", "Estatus": null, "Expediente": null, "TIPO_DE_VI": "VERIFICACION", "OBJETO_DE_": "AGUAS", "ESTATUS_DE": "EN PROCESO", "Ranking Co": null, "Comentario": null, "Ranking Pr": null, "A investig": null, "Comentar_1": null, "Preselecci": false, "Excluida": false, "Inspeccion": true, "En polígo": true, "Quién inv": null, "Visita rea": null, "Comentar_2": "FALSE", "Parque ind": "FALSE\r" }, "geometry": { "type": "Point", "coordinates": [ -99.36866667, 19.96870083 ] } },
{ "type": "Feature", "properties": { "ID-IV": "REPDA-00401", "Nombre/Raz": "elvira", "Municipio": "TEPEJI DEL RÍO DE OCAMPO", "Estado": "HIDALGO", "Latitud": 19.89388889, "Longitud": -99.33611111, "Cuenca": "Presa Requena", "Distancia": "2.3", "Río más": "Tepeji", "País": "México", "Descarga a": "RIO TEPEJI", "Uso": "Servicios", "Prioritari": "Sí", "Cuerpo de": "Río, arrroyo o cuerpo de agua", "VOLUMEN AN": "81.6", "CUERPO REC": "DREN SIN NOMBRE", "FORMA DE D": "CON TUBERIA", "Cuerpo d_1": "N/A", "Actividad": "N/A", "Parametros": "N/A", "Parametr_1": "N/A", "Parámetro": null, "Cuerpo r_1": "N/A", "Volumen _1": "N/A", "USO_DESTIN": "N/A", "ACTIVIDAD_": "N/A", "Estatus": null, "Expediente": null, "TIPO_DE_VI": "N/A", "OBJETO_DE_": "N/A", "ESTATUS_DE": "N/A", "Ranking Co": null, "Comentario": null, "Ranking Pr": null, "A investig": null, "Comentar_1": null, "Preselecci": false, "Excluida": false, "Inspeccion": true, "En polígo": false, "Quién inv": "FALSE", "Visita rea": null, "Comentar_2": "FALSE", "Parque ind": "FALSE\r" }, "geometry": { "type": "Point", "coordinates": [ -99.33611111, 19.89388889 ] } },
{ "type": "Feature", "properties": { "ID-IV": "REPDA-00544", "Nombre/Raz": "irma camila yolanda novoa gonzalez", "Municipio": "TASQUILLO", "Estado": "HIDALGO", "Latitud": 20.55, "Longitud": -99.3, "Cuenca": "Río Tula", "Distancia": "38.0", "Río más": "Río Tula", "País": "México", "Descarga a": "Río Tula", "Uso": "Servicios", "Prioritari": "No", "Cuerpo de": "Suelo o subsuelo", "VOLUMEN AN": "1332.25", "CUERPO REC": "Subsuelo Río Tula", "FORMA DE D": "Canal", "Cuerpo d_1": "N/A", "Actividad": "N/A", "Parametros": "N/A", "Parametr_1": "N/A", "Parámetro": null, "Cuerpo r_1": "N/A", "Volumen _1": "N/A", "USO_DESTIN": "N/A", "ACTIVIDAD_": "N/A", "Estatus": null, "Expediente": null, "TIPO_DE_VI": "N/A", "OBJETO_DE_": "N/A", "ESTATUS_DE": "N/A", "Ranking Co": null, "Comentario": null, "Ranking Pr": null, "A investig": null, "Comentar_1": null, "Preselecci": false, "Excluida": false, "Inspeccion": true, "En polígo": false, "Quién inv": "FALSE", "Visita rea": null, "Comentar_2": "FALSE", "Parque ind": "FALSE\r" }, "geometry": { "type": "Point", "coordinates": [ -99.3, 20.55 ] } },
{ "type": "Feature", "properties": { "ID-IV": "REPDA-00545", "Nombre/Raz": "irma camila yolanda novoa gonzalez", "Municipio": "TASQUILLO", "Estado": "HIDALGO", "Latitud": 20.55, "Longitud": -99.3, "Cuenca": "Río Tula", "Distancia": "38.0", "Río más": "Río Tula", "País": "México", "Descarga a": "Río Tula", "Uso": "Servicios", "Prioritari": "No", "Cuerpo de": "Suelo o subsuelo", "VOLUMEN AN": "1332.25", "CUERPO REC": "Subsuelo Río Tula", "FORMA DE D": "Canal", "Cuerpo d_1": "N/A", "Actividad": "N/A", "Parametros": "N/A", "Parametr_1": "N/A", "Parámetro": null, "Cuerpo r_1": "N/A", "Volumen _1": "N/A", "USO_DESTIN": "N/A", "ACTIVIDAD_": "N/A", "Estatus": null, "Expediente": null, "TIPO_DE_VI": "N/A", "OBJETO_DE_": "N/A", "ESTATUS_DE": "N/A", "Ranking Co": null, "Comentario": null, "Ranking Pr": null, "A investig": null, "Comentar_1": null, "Preselecci": false, "Excluida": false, "Inspeccion": true, "En polígo": false, "Quién inv": "FALSE", "Visita rea": null, "Comentar_2": "FALSE", "Parque ind": "FALSE\r" }, "geometry": { "type": "Point", "coordinates": [ -99.3, 20.55 ] } },
{ "type": "Feature", "properties": { "ID-IV": "REPDA-00546", "Nombre/Raz": "irma camila yolanda novoa gonzalez", "Municipio": "TASQUILLO", "Estado": "HIDALGO", "Latitud": 20.55, "Longitud": -99.3, "Cuenca": "Río Tula", "Distancia": "38.0", "Río más": "Río Tula", "País": "México", "Descarga a": "Río Tula", "Uso": "Servicios", "Prioritari": "No", "Cuerpo de": "Suelo o subsuelo", "VOLUMEN AN": "1332.25", "CUERPO REC": "Subsuelo Río Tula", "FORMA DE D": "Canal", "Cuerpo d_1": "N/A", "Actividad": "N/A", "Parametros": "N/A", "Parametr_1": "N/A", "Parámetro": null, "Cuerpo r_1": "N/A", "Volumen _1": "N/A", "USO_DESTIN": "N/A", "ACTIVIDAD_": "N/A", "Estatus": null, "Expediente": null, "TIPO_DE_VI": "N/A", "OBJETO_DE_": "N/A", "ESTATUS_DE": "N/A", "Ranking Co": null, "Comentario": null, "Ranking Pr": null, "A investig": null, "Comentar_1": null, "Preselecci": false, "Excluida": false, "Inspeccion": true, "En polígo": false, "Quién inv": "FALSE", "Visita rea": null, "Comentar_2": "FALSE", "Parque ind": "FALSE\r" }, "geometry": { "type": "Point", "coordinates": [ -99.3, 20.55 ] } },
{ "type": "Feature", "properties": { "ID-IV": "REPDA-00547", "Nombre/Raz": "irma camila yolanda novoa gonzalez", "Municipio": "TASQUILLO", "Estado": "HIDALGO", "Latitud": 20.55, "Longitud": -99.3, "Cuenca": "Río Tula", "Distancia": "38.0", "Río más": "Río Tula", "País": "México", "Descarga a": "Río Tula", "Uso": "Servicios", "Prioritari": "No", "Cuerpo de": "Suelo o subsuelo", "VOLUMEN AN": "1332.25", "CUERPO REC": "Subsuelo Río Tula", "FORMA DE D": "Canal", "Cuerpo d_1": "N/A", "Actividad": "N/A", "Parametros": "N/A", "Parametr_1": "N/A", "Parámetro": null, "Cuerpo r_1": "N/A", "Volumen _1": "N/A", "USO_DESTIN": "N/A", "ACTIVIDAD_": "N/A", "Estatus": null, "Expediente": null, "TIPO_DE_VI": "N/A", "OBJETO_DE_": "N/A", "ESTATUS_DE": "N/A", "Ranking Co": null, "Comentario": null, "Ranking Pr": null, "A investig": null, "Comentar_1": null, "Preselecci": false, "Excluida": false, "Inspeccion": true, "En polígo": false, "Quién inv": "FALSE", "Visita rea": null, "Comentar_2": "FALSE", "Parque ind": "FALSE\r" }, "geometry": { "type": "Point", "coordinates": [ -99.3, 20.55 ] } },
{ "type": "Feature", "properties": { "ID-IV": "REPDA-00337", "Nombre/Raz": "clarimex", "Municipio": "ATITALAQUIA", "Estado": "HIDALGO", "Latitud": 20.05694444, "Longitud": -99.26666667000001, "Cuenca": "Presa Endhó", "Distancia": "17.7", "Río más": "Río Tula", "País": "México", "Descarga a": "Río Salado", "Uso": "Industrial", "Prioritari": "No", "Cuerpo de": "Río, arrroyo o cuerpo de agua", "VOLUMEN AN": "0", "CUERPO REC": "Canal Salto-Tlamaco", "FORMA DE D": "Libre con tuberia", "Cuerpo d_1": "N/A", "Actividad": "N/A", "Parametros": "N/A", "Parametr_1": "N/A", "Parámetro": "N/A", "Cuerpo r_1": "N/A", "Volumen _1": "N/A", "USO_DESTIN": "N/A", "ACTIVIDAD_": "N/A", "Estatus": null, "Expediente": null, "TIPO_DE_VI": "INSPECCION", "OBJETO_DE_": "RESIDUOS PELIGROSOS", "ESTATUS_DE": "CERRADO", "Ranking Co": null, "Comentario": null, "Ranking Pr": null, "A investig": null, "Comentar_1": null, "Preselecci": false, "Excluida": true, "Inspeccion": true, "En polígo": true, "Quién inv": null, "Visita rea": null, "Comentar_2": "FALSE", "Parque ind": "FALSE\r" }, "geometry": { "type": "Point", "coordinates": [ -99.26666667, 20.05694444 ] } },
{ "type": "Feature", "properties": { "ID-IV": "REPDA-00910", "Nombre/Raz": "herramientas truper", "Municipio": "JILOTEPEC", "Estado": "MÉXICO", "Latitud": 19.96666667, "Longitud": -99.52916667, "Cuenca": "Presa Endhó", "Distancia": "14.5", "Río más": "Río Tlautla o Coscomate", "País": "México", "Descarga a": "ARROYO COLORADO", "Uso": "Industrial", "Prioritari": "Sí", "Cuerpo de": "Río, arrroyo o cuerpo de agua", "VOLUMEN AN": "0", "CUERPO REC": "ARROYO SIN NOMBRE", "FORMA DE D": "CANAL", "Cuerpo d_1": "N/A", "Actividad": "N/A", "Parametros": "N/A", "Parametr_1": "N/A", "Parámetro": null, "Cuerpo r_1": "N/A", "Volumen _1": "N/A", "USO_DESTIN": "N/A", "ACTIVIDAD_": "N/A", "Estatus": null, "Expediente": null, "TIPO_DE_VI": "N/A", "OBJETO_DE_": "N/A", "ESTATUS_DE": "N/A", "Ranking Co": null, "Comentario": null, "Ranking Pr": null, "A investig": null, "Comentar_1": null, "Preselecci": false, "Excluida": true, "Inspeccion": true, "En polígo": false, "Quién inv": null, "Visita rea": null, "Comentar_2": "FALSE", "Parque ind": "FALSE\r" }, "geometry": { "type": "Point", "coordinates": [ -99.52916667, 19.96666667 ] } },
{ "type": "Feature", "properties": { "ID-IV": "REPDA-00622", "Nombre/Raz": "quimir", "Municipio": "ATITALAQUIA", "Estado": "HIDALGO", "Latitud": 20.03741667, "Longitud": -99.25775, "Cuenca": "Río Salado", "Distancia": "20.1", "Río más": "Río Tula", "País": "México", "Descarga a": "SUBSUELO", "Uso": "Industrial", "Prioritari": "No", "Cuerpo de": "Suelo o subsuelo", "VOLUMEN AN": "21170", "CUERPO REC": "Subsuelo", "FORMA DE D": "Infiltración superficial", "Cuerpo d_1": "N/A", "Actividad": null, "Parametros": "1", "Parametr_1": "1", "Parámetro": null, "Cuerpo r_1": "N/A", "Volumen _1": "N/A", "USO_DESTIN": "N/A", "ACTIVIDAD_": "Fabricación de sustancias químicas cuando existe reacción química; excluye mezclas sin reacción química", "Estatus": null, "Expediente": null, "TIPO_DE_VI": "N/A", "OBJETO_DE_": "N/A", "ESTATUS_DE": "N/A", "Ranking Co": null, "Comentario": null, "Ranking Pr": null, "A investig": null, "Comentar_1": null, "Preselecci": false, "Excluida": false, "Inspeccion": true, "En polígo": true, "Quién inv": "FALSE", "Visita rea": null, "Comentar_2": "FALSE", "Parque ind": "FALSE\r" }, "geometry": { "type": "Point", "coordinates": [ -99.25775, 20.03741667 ] } },
{ "type": "Feature", "properties": { "ID-IV": "REPDA-00623", "Nombre/Raz": "quimir", "Municipio": "ATITALAQUIA", "Estado": "HIDALGO", "Latitud": 20.03747222, "Longitud": -99.26069444, "Cuenca": "Presa Endhó", "Distancia": "20.0", "Río más": "Río Tula", "País": "México", "Descarga a": "SUBSUELO", "Uso": "Servicios", "Prioritari": "Sí", "Cuerpo de": "Suelo o subsuelo", "VOLUMEN AN": "21170", "CUERPO REC": "Subsuelo", "FORMA DE D": "Infiltración superficial", "Cuerpo d_1": "N/A", "Actividad": null, "Parametros": "1", "Parametr_1": "1", "Parámetro": null, "Cuerpo r_1": "N/A", "Volumen _1": "N/A", "USO_DESTIN": "N/A", "ACTIVIDAD_": "Fabricación de sustancias químicas cuando existe reacción química; excluye mezclas sin reacción química", "Estatus": null, "Expediente": null, "TIPO_DE_VI": "N/A", "OBJETO_DE_": "N/A", "ESTATUS_DE": "N/A", "Ranking Co": null, "Comentario": null, "Ranking Pr": null, "A investig": null, "Comentar_1": null, "Preselecci": false, "Excluida": false, "Inspeccion": true, "En polígo": true, "Quién inv": "FALSE", "Visita rea": null, "Comentar_2": "FALSE", "Parque ind": "FALSE\r" }, "geometry": { "type": "Point", "coordinates": [ -99.26069444, 20.03747222 ] } },
{ "type": "Feature", "properties": { "ID-IV": "REPDA-00624", "Nombre/Raz": "quimir", "Municipio": "ATITALAQUIA", "Estado": "HIDALGO", "Latitud": 20.03791667, "Longitud": -99.25955556, "Cuenca": "Presa Endhó", "Distancia": "20.0", "Río más": "Río Tula", "País": "México", "Descarga a": "SUBSUELO", "Uso": "Servicios", "Prioritari": "Sí", "Cuerpo de": "Suelo o subsuelo", "VOLUMEN AN": "21170", "CUERPO REC": "Subsuelo", "FORMA DE D": "Infiltración superficial", "Cuerpo d_1": "N/A", "Actividad": null, "Parametros": "1", "Parametr_1": "1", "Parámetro": null, "Cuerpo r_1": "N/A", "Volumen _1": "N/A", "USO_DESTIN": "N/A", "ACTIVIDAD_": "Fabricación de sustancias químicas cuando existe reacción química; excluye mezclas sin reacción química", "Estatus": null, "Expediente": null, "TIPO_DE_VI": "N/A", "OBJETO_DE_": "N/A", "ESTATUS_DE": "N/A", "Ranking Co": null, "Comentario": null, "Ranking Pr": null, "A investig": null, "Comentar_1": null, "Preselecci": false, "Excluida": false, "Inspeccion": true, "En polígo": true, "Quién inv": "FALSE", "Visita rea": null, "Comentar_2": "FALSE", "Parque ind": "FALSE\r" }, "geometry": { "type": "Point", "coordinates": [ -99.25955556, 20.03791667 ] } },
{ "type": "Feature", "properties": { "ID-IV": "REPDA-00625", "Nombre/Raz": "quimir", "Municipio": "ATITALAQUIA", "Estado": "HIDALGO", "Latitud": 20.03761111, "Longitud": -99.25747222, "Cuenca": "Río Salado", "Distancia": "20.1", "Río más": "Río Tula", "País": "México", "Descarga a": "SUBSUELO", "Uso": "Servicios", "Prioritari": "Sí", "Cuerpo de": "Suelo o subsuelo", "VOLUMEN AN": "21170", "CUERPO REC": "Subsuelo", "FORMA DE D": "Infiltración superficial", "Cuerpo d_1": "N/A", "Actividad": null, "Parametros": "1", "Parametr_1": "1", "Parámetro": null, "Cuerpo r_1": "N/A", "Volumen _1": "N/A", "USO_DESTIN": "N/A", "ACTIVIDAD_": "Fabricación de sustancias químicas cuando existe reacción química; excluye mezclas sin reacción química", "Estatus": null, "Expediente": null, "TIPO_DE_VI": "N/A", "OBJETO_DE_": "N/A", "ESTATUS_DE": "N/A", "Ranking Co": null, "Comentario": null, "Ranking Pr": null, "A investig": null, "Comentar_1": null, "Preselecci": false, "Excluida": false, "Inspeccion": true, "En polígo": true, "Quién inv": "FALSE", "Visita rea": null, "Comentar_2": "FALSE", "Parque ind": "FALSE\r" }, "geometry": { "type": "Point", "coordinates": [ -99.25747222, 20.03761111 ] } },
{ "type": "Feature", "properties": { "ID-IV": "REPDA-00519", "Nombre/Raz": "servicio toda s a c v", "Municipio": "TULA DE ALLENDE", "Estado": "HIDALGO", "Latitud": 20.05416667, "Longitud": -99.33916667, "Cuenca": "Presa Endhó", "Distancia": "17.0", "Río más": "Río Tula", "País": "México", "Descarga a": "RIO TULA", "Uso": "Servicios", "Prioritari": "Sí", "Cuerpo de": "Río, arrroyo o cuerpo de agua", "VOLUMEN AN": "4730.4", "CUERPO REC": "Río Tula", "FORMA DE D": "Tubería", "Cuerpo d_1": "N/A", "Actividad": null, "Parametros": "N/A", "Parametr_1": "N/A", "Parámetro": "N/A", "Cuerpo r_1": "N/A", "Volumen _1": "N/A", "USO_DESTIN": "N/A", "ACTIVIDAD_": "N/A", "Estatus": null, "Expediente": null, "TIPO_DE_VI": "N/A", "OBJETO_DE_": "N/A", "ESTATUS_DE": "N/A", "Ranking Co": null, "Comentario": null, "Ranking Pr": null, "A investig": null, "Comentar_1": null, "Preselecci": false, "Excluida": false, "Inspeccion": true, "En polígo": true, "Quién inv": "FALSE", "Visita rea": null, "Comentar_2": "FALSE", "Parque ind": "FALSE\r" }, "geometry": { "type": "Point", "coordinates": [ -99.33916667, 20.05416667 ] } },
{ "type": "Feature", "properties": { "ID-IV": "REPDA-01700", "Nombre/Raz": "quimir", "Municipio": "TULTITLÁN", "Estado": "MÉXICO", "Latitud": 19.61269444, "Longitud": -99.17719444, "Cuenca": "Río Cuautitlán", "Distancia": "12.8", "Río más": "cuautitlan", "País": "México", "Descarga a": "EMISOR PONIENTE", "Uso": "Servicios", "Prioritari": "Sí", "Cuerpo de": "Suelo o subsuelo", "VOLUMEN AN": "21170", "CUERPO REC": "Subsuelo", "FORMA DE D": "Infiltración superficial", "Cuerpo d_1": "N/A", "Actividad": null, "Parametros": "1", "Parametr_1": "1", "Parámetro": null, "Cuerpo r_1": "N/A", "Volumen _1": "N/A", "USO_DESTIN": "N/A", "ACTIVIDAD_": "Fabricación de sustancias químicas cuando existe reacción química; excluye mezclas sin reacción química", "Estatus": null, "Expediente": null, "TIPO_DE_VI": "N/A", "OBJETO_DE_": "N/A", "ESTATUS_DE": "N/A", "Ranking Co": null, "Comentario": null, "Ranking Pr": null, "A investig": null, "Comentar_1": null, "Preselecci": false, "Excluida": false, "Inspeccion": true, "En polígo": true, "Quién inv": "FALSE", "Visita rea": null, "Comentar_2": "FALSE", "Parque ind": "FALSE\r" }, "geometry": { "type": "Point", "coordinates": [ -99.17719444, 19.61269444 ] } },
{ "type": "Feature", "properties": { "ID-IV": "REPDA-01708", "Nombre/Raz": "mccord payen mexico s", "Municipio": "TEPOTZOTLÁN", "Estado": "MÉXICO", "Latitud": 19.70388889, "Longitud": -99.21322222000001, "Cuenca": "Río Cuautitlán", "Distancia": "2.0", "Río más": "cuautitlan", "País": "México", "Descarga a": "RIO HONDO DE TEPOTZOTLAN", "Uso": "Servicios", "Prioritari": "Sí", "Cuerpo de": "Río, arrroyo o cuerpo de agua", "VOLUMEN AN": "61600", "CUERPO REC": "RIO", "FORMA DE D": "SIN DATO", "Cuerpo d_1": "N/A", "Actividad": "N/A", "Parametros": "1", "Parametr_1": "0", "Parámetro": "N/A", "Cuerpo r_1": "N/A", "Volumen _1": "N/A", "USO_DESTIN": "N/A", "ACTIVIDAD_": "Fabricación de otras autopartes; si incluye procesos térmicos o de fundición", "Estatus": null, "Expediente": null, "TIPO_DE_VI": "INSPECCION", "OBJETO_DE_": "AGUAS", "ESTATUS_DE": "EN PROCESO", "Ranking Co": null, "Comentario": null, "Ranking Pr": null, "A investig": null, "Comentar_1": null, "Preselecci": false, "Excluida": false, "Inspeccion": true, "En polígo": true, "Quién inv": "FALSE", "Visita rea": null, "Comentar_2": "FALSE", "Parque ind": "FALSE\r" }, "geometry": { "type": "Point", "coordinates": [ -99.21322222, 19.70388889 ] } },
{ "type": "Feature", "properties": { "ID-IV": "REPDA-01930", "Nombre/Raz": "becton dickinson mexico", "Municipio": "CUAUTITLÁN IZCALLI", "Estado": "MÉXICO", "Latitud": 19.66094444, "Longitud": -99.19961111000001, "Cuenca": "Río Cuautitlán", "Distancia": "7.0", "Río más": "cuautitlan", "País": "México", "Descarga a": "EMISOR DEL PONIENTE", "Uso": "Servicios", "Prioritari": "Sí", "Cuerpo de": "Suelo o subsuelo", "VOLUMEN AN": "12000", "CUERPO REC": "TIPO \"A \" RIEGO DE AREAS VERDES", "FORMA DE D": "BOMBEO", "Cuerpo d_1": "N/A", "Actividad": "N/A", "Parametros": "0", "Parametr_1": "0", "Parámetro": null, "Cuerpo r_1": "N/A", "Volumen _1": "N/A", "USO_DESTIN": "N/A", "ACTIVIDAD_": null, "Estatus": null, "Expediente": null, "TIPO_DE_VI": "INSPECCION", "OBJETO_DE_": "RESIDUOS BIOLOGICO INFECCIOSOS", "ESTATUS_DE": "EN PROCESO", "Ranking Co": null, "Comentario": null, "Ranking Pr": null, "A investig": null, "Comentar_1": null, "Preselecci": false, "Excluida": false, "Inspeccion": true, "En polígo": true, "Quién inv": "FALSE", "Visita rea": null, "Comentar_2": "FALSE", "Parque ind": "FALSE\r" }, "geometry": { "type": "Point", "coordinates": [ -99.19961111, 19.66094444 ] } },
{ "type": "Feature", "properties": { "ID-IV": "REPDA-01929", "Nombre/Raz": "mccord payen mexico s", "Municipio": "TEPOTZOTLÁN", "Estado": "MÉXICO", "Latitud": 19.70272222, "Longitud": -99.21211111, "Cuenca": "Río Cuautitlán", "Distancia": "2.2", "Río más": "cuautitlan", "País": "México", "Descarga a": "RIO CUAUTITLAN", "Uso": "Servicios", "Prioritari": "Sí", "Cuerpo de": "Río, arrroyo o cuerpo de agua", "VOLUMEN AN": "61600", "CUERPO REC": "RIO", "FORMA DE D": "SIN DATO", "Cuerpo d_1": "N/A", "Actividad": "N/A", "Parametros": "1", "Parametr_1": "0", "Parámetro": "N/A", "Cuerpo r_1": "N/A", "Volumen _1": "N/A", "USO_DESTIN": "N/A", "ACTIVIDAD_": "Fabricación de otras autopartes; si incluye procesos térmicos o de fundición", "Estatus": null, "Expediente": null, "TIPO_DE_VI": "INSPECCION", "OBJETO_DE_": "AGUAS", "ESTATUS_DE": "EN PROCESO", "Ranking Co": null, "Comentario": null, "Ranking Pr": null, "A investig": null, "Comentar_1": null, "Preselecci": false, "Excluida": false, "Inspeccion": true, "En polígo": true, "Quién inv": "FALSE", "Visita rea": null, "Comentar_2": "FALSE", "Parque ind": "FALSE\r" }, "geometry": { "type": "Point", "coordinates": [ -99.21211111, 19.70272222 ] } },
{ "type": "Feature", "properties": { "ID-IV": "REPDA-01107", "Nombre/Raz": "tenidos y torcidos colorin s a c v", "Municipio": "NICOLÁS ROMERO", "Estado": "MÉXICO", "Latitud": 19.615, "Longitud": -99.30666667, "Cuenca": "Río Cuautitlán", "Distancia": "15.2", "Río más": "cuautitlan", "País": "México", "Descarga a": "RIO SAN ILDEFONSO", "Uso": "Industrial", "Prioritari": "Sí", "Cuerpo de": "Río, arrroyo o cuerpo de agua", "VOLUMEN AN": "4000", "CUERPO REC": "RIO SIN NOMBRE", "FORMA DE D": "LIBRE CON TUBERIA", "Cuerpo d_1": "N/A", "Actividad": null, "Parametros": "N/A", "Parametr_1": "N/A", "Parámetro": "N/A", "Cuerpo r_1": "N/A", "Volumen _1": "N/A", "USO_DESTIN": "N/A", "ACTIVIDAD_": "N/A", "Estatus": null, "Expediente": "SIN INFORMACION", "TIPO_DE_VI": "N/A", "OBJETO_DE_": "N/A", "ESTATUS_DE": "N/A", "Ranking Co": "14'", "Comentario": null, "Ranking Pr": null, "A investig": "NO", "Comentar_1": "El permiso de descarga (1998) contempla tres puntos de descarga (éste y los dos siguientes) y ninguno se encuentra dentro de algún establecimiento. LA DIRECCION SE ENCUENTRA IZTAPALAPA", "Preselecci": true, "Excluida": false, "Inspeccion": true, "En polígo": true, "Quién inv": null, "Visita rea": null, "Comentar_2": null, "Parque ind": "FALSE\r" }, "geometry": { "type": "Point", "coordinates": [ -99.30666667, 19.615 ] } },
{ "type": "Feature", "properties": { "ID-IV": "REPDA-01108", "Nombre/Raz": "tenidos y torcidos colorin s a c v", "Municipio": "NICOLÁS ROMERO", "Estado": "MÉXICO", "Latitud": 19.615, "Longitud": -99.30638889, "Cuenca": "Río Cuautitlán", "Distancia": "15.1", "Río más": "cuautitlan", "País": "México", "Descarga a": "RIO SAN ILDEFONSO", "Uso": "Industrial", "Prioritari": "No", "Cuerpo de": "Río, arrroyo o cuerpo de agua", "VOLUMEN AN": "4000", "CUERPO REC": "RIO SIN NOMBRE", "FORMA DE D": "LIBRE CON TUBERIA", "Cuerpo d_1": "N/A", "Actividad": null, "Parametros": "N/A", "Parametr_1": "N/A", "Parámetro": "N/A", "Cuerpo r_1": "N/A", "Volumen _1": "N/A", "USO_DESTIN": "N/A", "ACTIVIDAD_": null, "Estatus": null, "Expediente": "SIN INFORMACION", "TIPO_DE_VI": "N/A", "OBJETO_DE_": "N/A", "ESTATUS_DE": "N/A", "Ranking Co": "14´´", "Comentario": null, "Ranking Pr": null, "A investig": "NO", "Comentar_1": "El permiso de descarga (1998) contempla tres puntos de descarga (éste y los dos siguientes) y ninguno se encuentra dentro de algún establecimiento. LA DIRECCION SE ENCUENTRA IZTAPALAPA", "Preselecci": true, "Excluida": false, "Inspeccion": true, "En polígo": true, "Quién inv": null, "Visita rea": null, "Comentar_2": null, "Parque ind": "FALSE\r" }, "geometry": { "type": "Point", "coordinates": [ -99.30638889, 19.615 ] } },
{ "type": "Feature", "properties": { "ID-IV": "REPDA-00557", "Nombre/Raz": "corporacion industrial delta", "Municipio": "ACTOPAN", "Estado": "HIDALGO", "Latitud": 20.23777778, "Longitud": -99.04833333000001, "Cuenca": "Río Actopan", "Distancia": "27.1", "Río más": "Río Salado", "País": "México", "Descarga a": "Río Chicavasco", "Uso": "Industrial", "Prioritari": "No", "Cuerpo de": "Canal", "VOLUMEN AN": "18250", "CUERPO REC": "Canal de riego", "FORMA DE D": "Tubería", "Cuerpo d_1": "N/A", "Actividad": "N/A", "Parametros": "N/A", "Parametr_1": "N/A", "Parámetro": "N/A", "Cuerpo r_1": "N/A", "Volumen _1": "N/A", "USO_DESTIN": "N/A", "ACTIVIDAD_": "N/A", "Estatus": null, "Expediente": "SIN INFORMACION", "TIPO_DE_VI": "N/A", "OBJETO_DE_": "N/A", "ESTATUS_DE": "N/A", "Ranking Co": "11", "Comentario": null, "Ranking Pr": null, "A investig": "NO", "Comentar_1": null, "Preselecci": true, "Excluida": true, "Inspeccion": true, "En polígo": true, "Quién inv": "Conagua", "Visita rea": false, "Comentar_2": null, "Parque ind": "FALSE\r" }, "geometry": { "type": "Point", "coordinates": [ -99.04833333, 20.23777778 ] } },
{ "type": "Feature", "properties": { "ID-IV": "REPDA-01137", "Nombre/Raz": "compania hulera tornel", "Municipio": "TULTITLÁN", "Estado": "MÉXICO", "Latitud": 19.62430556, "Longitud": -99.17013889, "Cuenca": "Río Cuautitlán", "Distancia": "11.9", "Río más": "cuautitlan", "País": "México", "Descarga a": "CANAL CARTAGENA", "Uso": "Industrial", "Prioritari": "No", "Cuerpo de": "Canal", "VOLUMEN AN": "54743", "CUERPO REC": "CANAL ENTUBADO", "FORMA DE D": "LIBRE CON TUBERIA", "Cuerpo d_1": "Río, arrroyo o cuerpo de agua", "Actividad": "FABRICACIÓN DE LLANTAS Y PRODUCTOS DE HULE", "Parametros": "0", "Parametr_1": "0", "Parámetro": "2", "Cuerpo r_1": "Canal natural", "Volumen _1": "29,96", "USO_DESTIN": "Descarga a bien nacional", "ACTIVIDAD_": "Fabricación de llantas y cámaras nuevas", "Estatus": "Concluido", "Expediente": "VI/AVM/MEX/2014/00145", "TIPO_DE_VI": "N/A", "OBJETO_DE_": "N/A", "ESTATUS_DE": "N/A", "Ranking Co": "9", "Comentario": null, "Ranking Pr": 7, "A investig": "si", "Comentar_1": null, "Preselecci": true, "Excluida": true, "Inspeccion": true, "En polígo": true, "Quién inv": "Conagua y profepa", "Visita rea": false, "Comentar_2": "Se tenían procedimientos hasta 2013. \nSigue el procedimiento.", "Parque ind": "FALSE\r" }, "geometry": { "type": "Point", "coordinates": [ -99.170138890000018, 19.62430556 ] } },
{ "type": "Feature", "properties": { "ID-IV": "REPDA-00967", "Nombre/Raz": "quimir s a c v", "Municipio": "TULTITLÁN", "Estado": "MÉXICO", "Latitud": 19.61472222, "Longitud": -99.18972222, "Cuenca": "Río Cuautitlán", "Distancia": "12.2", "Río más": "cuautitlan", "País": "México", "Descarga a": "GRAN CANAL", "Uso": "Industrial", "Prioritari": "Sí", "Cuerpo de": "Canal", "VOLUMEN AN": "326424", "CUERPO REC": "CANAL DE CASTERA", "FORMA DE D": "LIBRE CON TUBERIA", "Cuerpo d_1": "N/A", "Actividad": null, "Parametros": "N/A", "Parametr_1": "N/A", "Parámetro": "N/A", "Cuerpo r_1": "N/A", "Volumen _1": "N/A", "USO_DESTIN": "N/A", "ACTIVIDAD_": "N/A", "Estatus": null, "Expediente": "SIN INFORMACION", "TIPO_DE_VI": "N/A", "OBJETO_DE_": "N/A", "ESTATUS_DE": "N/A", "Ranking Co": "1", "Comentario": null, "Ranking Pr": 4, "A investig": "si", "Comentar_1": null, "Preselecci": true, "Excluida": true, "Inspeccion": true, "En polígo": true, "Quién inv": "Conagua y profepa", "Visita rea": false, "Comentar_2": null, "Parque ind": "FALSE\r" }, "geometry": { "type": "Point", "coordinates": [ -99.18972222, 19.61472222 ] } },
{ "type": "Feature", "properties": { "ID-IV": "REPDA-01109", "Nombre/Raz": "tenidos y torcidos colorin s a c v", "Municipio": "NICOLÁS ROMERO", "Estado": "MÉXICO", "Latitud": 19.615, "Longitud": -99.30722222, "Cuenca": "Río Cuautitlán", "Distancia": "15.2", "Río más": "cuautitlan", "País": "México", "Descarga a": "RIO SAN ILDEFONSO", "Uso": "Industrial", "Prioritari": "Sí", "Cuerpo de": "Río, arrroyo o cuerpo de agua", "VOLUMEN AN": "4000", "CUERPO REC": "RIO SIN NOMBRE", "FORMA DE D": "LIBRE CON TUBERIA", "Cuerpo d_1": "N/A", "Actividad": null, "Parametros": "N/A", "Parametr_1": "N/A", "Parámetro": "N/A", "Cuerpo r_1": "N/A", "Volumen _1": "N/A", "USO_DESTIN": "N/A", "ACTIVIDAD_": "N/A", "Estatus": null, "Expediente": "SIN INFORMACION", "TIPO_DE_VI": "N/A", "OBJETO_DE_": "N/A", "ESTATUS_DE": "N/A", "Ranking Co": "14", "Comentario": null, "Ranking Pr": null, "A investig": "NO", "Comentar_1": "El permiso de descarga (1998) contempla tres puntos de descarga (éste y los dos siguientes) y ninguno se encuentra dentro de algún establecimiento. LA DIRECCION SE ENCUENTRA EN IZTAPALAPA", "Preselecci": true, "Excluida": true, "Inspeccion": true, "En polígo": true, "Quién inv": "Conagua y profepa", "Visita rea": false, "Comentar_2": null, "Parque ind": "FALSE\r" }, "geometry": { "type": "Point", "coordinates": [ -99.30722222, 19.615 ] } },
{ "type": "Feature", "properties": { "ID-IV": "REPDA-00241", "Nombre/Raz": "unilever mexico s", "Municipio": "CUAUTITLÁN IZCALLI", "Estado": "MÉXICO", "Latitud": 19.6241975, "Longitud": -99.19283389, "Cuenca": "Río Cuautitlán", "Distancia": "11.1", "Río más": "cuautitlan", "País": "México", "Descarga a": "SIN DATO", "Uso": "Industrial", "Prioritari": "No", "Cuerpo de": "Río, arrroyo o cuerpo de agua", "VOLUMEN AN": "270000", "CUERPO REC": "RIO", "FORMA DE D": "SIN DATO", "Cuerpo d_1": "Río, arrroyo o cuerpo de agua", "Actividad": "Elaboración de alimentos", "Parametros": "N/A", "Parametr_1": "N/A", "Parámetro": "0", "Cuerpo r_1": "Río", "Volumen _1": "35,93", "USO_DESTIN": "Descarga a bien nacional", "ACTIVIDAD_": "N/A", "Estatus": "Concluido", "Expediente": "VI/AVM/MEX/2014/00125", "TIPO_DE_VI": "N/A", "OBJETO_DE_": "N/A", "ESTATUS_DE": "N/A", "Ranking Co": "3", "Comentario": null, "Ranking Pr": 9, "A investig": "si", "Comentar_1": null, "Preselecci": true, "Excluida": true, "Inspeccion": true, "En polígo": true, "Quién inv": "Profepa", "Visita rea": true, "Comentar_2": "Irregularidades.\nDescargas residuales no procedió por trámites pendientes.\n", "Parque ind": "FALSE\r" }, "geometry": { "type": "Point", "coordinates": [ -99.19283389, 19.6241975 ] } },
{ "type": "Feature", "properties": { "ID-IV": "REPDA-00213", "Nombre/Raz": "chenille mexicana", "Municipio": "CUAUTITLÁN IZCALLI", "Estado": "MÉXICO", "Latitud": 19.70556389, "Longitud": -99.19444611, "Cuenca": "Río Cuautitlán", "Distancia": "2.9", "Río más": "cuautitlan", "País": "México", "Descarga a": "SIN DATO", "Uso": "Industrial", "Prioritari": "Sí", "Cuerpo de": "Río, arrroyo o cuerpo de agua", "VOLUMEN AN": "142680", "CUERPO REC": "RIO", "FORMA DE D": "SIN DATO", "Cuerpo d_1": "N/A", "Actividad": "N/A", "Parametros": "N/A", "Parametr_1": "N/A", "Parámetro": "N/A", "Cuerpo r_1": "N/A", "Volumen _1": "N/A", "USO_DESTIN": "N/A", "ACTIVIDAD_": "N/A", "Estatus": "Concluido", "Expediente": "VI/AVM/MEX/2017/00145", "TIPO_DE_VI": "N/A", "OBJETO_DE_": "N/A", "ESTATUS_DE": "N/A", "Ranking Co": "5", "Comentario": null, "Ranking Pr": 8, "A investig": "si", "Comentar_1": null, "Preselecci": true, "Excluida": true, "Inspeccion": true, "En polígo": true, "Quién inv": "Profepa", "Visita rea": true, "Comentar_2": "Razón social actual es Hometex SA de CV. Profepa comparte información a Conagua, se revisará si tiene permiso de descarga (a bien nacional).", "Parque ind": "FALSE\r" }, "geometry": { "type": "Point", "coordinates": [ -99.19444611, 19.70556389 ] } },
{ "type": "Feature", "properties": { "ID-IV": "REPDA-01342", "Nombre/Raz": "agropecuaria caliacac s p r r i", "Municipio": "TEOLOYUCAN", "Estado": "MÉXICO", "Latitud": 19.77444444, "Longitud": -99.17527778, "Cuenca": "Río Cuautitlán", "Distancia": "7.2", "Río más": "cuautitlan", "País": "México", "Descarga a": "CANAL DE CASTERA", "Uso": "Industrial", "Prioritari": "Sí", "Cuerpo de": "Canal", "VOLUMEN AN": "14600", "CUERPO REC": "CANAL DE RIEGO", "FORMA DE D": "BOMBEO", "Cuerpo d_1": "N/A", "Actividad": "N/A", "Parametros": "N/A", "Parametr_1": "N/A", "Parámetro": "N/A", "Cuerpo r_1": "N/A", "Volumen _1": "N/A", "USO_DESTIN": "N/A", "ACTIVIDAD_": "N/A", "Estatus": null, "Expediente": "SIN INFORMACION", "TIPO_DE_VI": "N/A", "OBJETO_DE_": "N/A", "ESTATUS_DE": "N/A", "Ranking Co": "12", "Comentario": null, "Ranking Pr": 5, "A investig": "SI", "Comentar_1": "Posible dirección: Gran Canal s/n, Barrio Santa María Caliacac, localidad de Santa María Caliacac, código postal 54783, municipio de Teoloyucan, estado de México.", "Preselecci": true, "Excluida": true, "Inspeccion": true, "En polígo": true, "Quién inv": "Profepa", "Visita rea": false, "Comentar_2": "Razón social actual es Obrador y empacador La Barca.\n2016 Unidad de riego Teoloyucan. Descarga a canaleta al gran canal sin tratamiento a aguas residuales. Profepa comparte documentación. Conagua evalúa con la Subdirección general de jurisdicción ag", "Parque ind": "FALSE\r" }, "geometry": { "type": "Point", "coordinates": [ -99.17527778, 19.77444444 ] } },
{ "type": "Feature", "properties": { "ID-IV": "REPDA-00203", "Nombre/Raz": "bacardi y compania", "Municipio": "TULTITLÁN", "Estado": "MÉXICO", "Latitud": 19.62883611, "Longitud": -99.19200028, "Cuenca": "Río Cuautitlán", "Distancia": "10.6", "Río más": "cuautitlan", "País": "México", "Descarga a": "SIN DATO", "Uso": "Industrial", "Prioritari": "Sí", "Cuerpo de": "Río, arrroyo o cuerpo de agua", "VOLUMEN AN": "11440", "CUERPO REC": "RIO", "FORMA DE D": "SIN DATO", "Cuerpo d_1": "N/A", "Actividad": "N/A", "Parametros": "1", "Parametr_1": "0", "Parámetro": "N/A", "Cuerpo r_1": "N/A", "Volumen _1": "N/A", "USO_DESTIN": "N/A", "ACTIVIDAD_": "Industria de las bebidas, incluyendo no alcohólicas, de cerveza y bebidas alcohólicas fermentadas y destiladas", "Estatus": "Concluido", "Expediente": "GA/AVM/MEX/2011/00007", "TIPO_DE_VI": "N/A", "OBJETO_DE_": "N/A", "ESTATUS_DE": "N/A", "Ranking Co": "13", "Comentario": "Inspección en 2019 sin faltas identificadas.", "Ranking Pr": 6, "A investig": "SI", "Comentar_1": null, "Preselecci": true, "Excluida": true, "Inspeccion": true, "En polígo": true, "Quién inv": "Profepa", "Visita rea": false, "Comentar_2": "En valoración. Descargas residuales.", "Parque ind": "FALSE\r" }, "geometry": { "type": "Point", "coordinates": [ -99.19200028, 19.62883611 ] } },
{ "type": "Feature", "properties": { "ID-IV": "REPDA-01945", "Nombre/Raz": "MULTIBOLSAS PLASTICAS SA DE CV", "Municipio": null, "Estado": null, "Latitud": null, "Longitud": null, "Cuenca": "N/A", "Distancia": "N/A", "Río más": "N/A", "País": "México", "Descarga a": "N/A", "Uso": "N/A", "Prioritari": "Sí", "Cuerpo de": null, "VOLUMEN AN": "N/A", "CUERPO REC": "N/A", "FORMA DE D": "N/A", "Cuerpo d_1": "Río, arrroyo o cuerpo de agua", "Actividad": "Fabricación y venta de empaque flexible", "Parametros": "N/A", "Parametr_1": "N/A", "Parámetro": "5", "Cuerpo r_1": "Río", "Volumen _1": "0", "USO_DESTIN": "-1", "ACTIVIDAD_": "N/A", "Estatus": null, "Expediente": null, "TIPO_DE_VI": "N/A", "OBJETO_DE_": "N/A", "ESTATUS_DE": "N/A", "Ranking Co": null, "Comentario": null, "Ranking Pr": null, "A investig": null, "Comentar_1": null, "Preselecci": false, "Excluida": true, "Inspeccion": true, "En polígo": true, "Quién inv": "FALSE", "Visita rea": false, "Comentar_2": null, "Parque ind": "FALSE\r" }, "geometry": null },
{ "type": "Feature", "properties": { "ID-IV": "REPDA-01941", "Nombre/Raz": "BONAFONT, S. A. DE C. V.", "Municipio": null, "Estado": null, "Latitud": null, "Longitud": null, "Cuenca": "N/A", "Distancia": "N/A", "Río más": "N/A", "País": "México", "Descarga a": "N/A", "Uso": "N/A", "Prioritari": "No", "Cuerpo de": null, "VOLUMEN AN": "N/A", "CUERPO REC": "N/A", "FORMA DE D": "N/A", "Cuerpo d_1": "Río, arrroyo o cuerpo de agua", "Actividad": "PURIFICACION Y EMBOTELLADO DE AGUA.", "Parametros": "N/A", "Parametr_1": "N/A", "Parámetro": "4", "Cuerpo r_1": "Río", "Volumen _1": "55,9", "USO_DESTIN": "Descarga a bien nacional", "ACTIVIDAD_": "N/A", "Estatus": null, "Expediente": null, "TIPO_DE_VI": "N/A", "OBJETO_DE_": "N/A", "ESTATUS_DE": "N/A", "Ranking Co": null, "Comentario": null, "Ranking Pr": null, "A investig": null, "Comentar_1": null, "Preselecci": false, "Excluida": true, "Inspeccion": true, "En polígo": false, "Quién inv": "FALSE", "Visita rea": false, "Comentar_2": "DBO 1336, DQO 6226, Sólidos suspendidos 2239", "Parque ind": "FALSE\r" }, "geometry": null },
{ "type": "Feature", "properties": { "ID-IV": "REPDA-01942", "Nombre/Raz": "Envases Universales de Mexico SAPI de CV", "Municipio": null, "Estado": null, "Latitud": null, "Longitud": null, "Cuenca": "N/A", "Distancia": "N/A", "Río más": "N/A", "País": "México", "Descarga a": "N/A", "Uso": "N/A", "Prioritari": "No", "Cuerpo de": null, "VOLUMEN AN": "N/A", "CUERPO REC": "N/A", "FORMA DE D": "N/A", "Cuerpo d_1": "Río, arrroyo o cuerpo de agua", "Actividad": "Grande Generador de Residuos Peligrosos (GGRP)", "Parametros": "N/A", "Parametr_1": "N/A", "Parámetro": "1", "Cuerpo r_1": "Río", "Volumen _1": "0", "USO_DESTIN": "Descarga a bien nacional", "ACTIVIDAD_": "N/A", "Estatus": null, "Expediente": null, "TIPO_DE_VI": "N/A", "OBJETO_DE_": "N/A", "ESTATUS_DE": "N/A", "Ranking Co": null, "Comentario": null, "Ranking Pr": null, "A investig": null, "Comentar_1": null, "Preselecci": false, "Excluida": true, "Inspeccion": true, "En polígo": false, "Quién inv": "FALSE", "Visita rea": false, "Comentar_2": null, "Parque ind": "FALSE\r" }, "geometry": null },
{ "type": "Feature", "properties": { "ID-IV": "REPDA-01695", "Nombre/Raz": "prologis mexico", "Municipio": "TEPOTZOTLÁN", "Estado": "MÉXICO", "Latitud": 19.70786111, "Longitud": -99.20152778000001, "Cuenca": "Río Cuautitlán", "Distancia": "2.2", "Río más": "cuautitlan", "País": "México", "Descarga a": "RIO CUAUTITLAN", "Uso": "Servicios", "Prioritari": "No", "Cuerpo de": "Suelo o subsuelo", "VOLUMEN AN": "63000", "CUERPO REC": "RIEGO DE AREAS VERDES", "FORMA DE D": "BOMBEO", "Cuerpo d_1": "Río, arrroyo o cuerpo de agua", "Actividad": "Descarga Aguas Residuales (DAR)", "Parametros": "2", "Parametr_1": "0", "Parámetro": "1", "Cuerpo r_1": "Río", "Volumen _1": "14,47", "USO_DESTIN": "Descarga a bien nacional", "ACTIVIDAD_": null, "Estatus": null, "Expediente": null, "TIPO_DE_VI": "N/A", "OBJETO_DE_": "N/A", "ESTATUS_DE": "N/A", "Ranking Co": null, "Comentario": null, "Ranking Pr": null, "A investig": null, "Comentar_1": null, "Preselecci": false, "Excluida": true, "Inspeccion": true, "En polígo": false, "Quién inv": "FALSE", "Visita rea": false, "Comentar_2": null, "Parque ind": "FALSE\r" }, "geometry": { "type": "Point", "coordinates": [ -99.20152778, 19.70786111 ] } },
{ "type": "Feature", "properties": { "ID-IV": "REPDA-01404", "Nombre/Raz": "ford motor company s a c v", "Municipio": "CUAUTITLÁN IZCALLI", "Estado": "MÉXICO", "Latitud": 19.64638889, "Longitud": -99.19111111, "Cuenca": "Río Cuautitlán", "Distancia": "8.8", "Río más": "cuautitlan", "País": "México", "Descarga a": "RIO CUAUTITLAN", "Uso": "Industrial", "Prioritari": "Sí", "Cuerpo de": "Suelo o subsuelo", "VOLUMEN AN": "156000", "CUERPO REC": "RIEGO DE AREAS VERDES TIPO B", "FORMA DE D": "LIBRE CON TUBERIA", "Cuerpo d_1": "N/A", "Actividad": "PRODUCCIÓN DE AUTOMÓVILES Y CAMIONES", "Parametros": "N/A", "Parametr_1": "N/A", "Parámetro": null, "Cuerpo r_1": "Lago", "Volumen _1": "0,3608", "USO_DESTIN": "100082", "ACTIVIDAD_": "N/A", "Estatus": null, "Expediente": null, "TIPO_DE_VI": "N/A", "OBJETO_DE_": "N/A", "ESTATUS_DE": "N/A", "Ranking Co": null, "Comentario": null, "Ranking Pr": null, "A investig": null, "Comentar_1": null, "Preselecci": false, "Excluida": true, "Inspeccion": true, "En polígo": false, "Quién inv": "FALSE", "Visita rea": false, "Comentar_2": null, "Parque ind": "FALSE\r" }, "geometry": { "type": "Point", "coordinates": [ -99.19111111, 19.64638889 ] } },
{ "type": "Feature", "properties": { "ID-IV": null, "Nombre/Raz": "Hules banda, SA DE CV", "Municipio": null, "Estado": null, "Latitud": 19.700461, "Longitud": -99.198367, "Cuenca": null, "Distancia": null, "Río más": null, "País": null, "Descarga a": null, "Uso": null, "Prioritari": null, "Cuerpo de": null, "VOLUMEN AN": null, "CUERPO REC": null, "FORMA DE D": null, "Cuerpo d_1": null, "Actividad": null, "Parametros": null, "Parametr_1": null, "Parámetro": null, "Cuerpo r_1": null, "Volumen _1": null, "USO_DESTIN": null, "ACTIVIDAD_": null, "Estatus": null, "Expediente": null, "TIPO_DE_VI": null, "OBJETO_DE_": null, "ESTATUS_DE": null, "Ranking Co": null, "Comentario": null, "Ranking Pr": null, "A investig": null, "Comentar_1": null, "Preselecci": null, "Excluida": null, "Inspeccion": null, "En polígo": null, "Quién inv": null, "Visita rea": null, "Comentar_2": null, "Parque ind": null }, "geometry": { "type": "Point", "coordinates": [ -99.198367, 19.700461 ] } },
{ "type": "Feature", "properties": { "ID-IV": null, "Nombre/Raz": "ALRETECH", "Municipio": null, "Estado": null, "Latitud": 19.865539, "Longitud": -99.268336, "Cuenca": null, "Distancia": null, "Río más": null, "País": null, "Descarga a": null, "Uso": null, "Prioritari": null, "Cuerpo de": null, "VOLUMEN AN": null, "CUERPO REC": null, "FORMA DE D": null, "Cuerpo d_1": null, "Actividad": null, "Parametros": null, "Parametr_1": null, "Parámetro": null, "Cuerpo r_1": null, "Volumen _1": null, "USO_DESTIN": null, "ACTIVIDAD_": null, "Estatus": null, "Expediente": null, "TIPO_DE_VI": null, "OBJETO_DE_": null, "ESTATUS_DE": null, "Ranking Co": null, "Comentario": null, "Ranking Pr": null, "A investig": null, "Comentar_1": null, "Preselecci": null, "Excluida": null, "Inspeccion": null, "En polígo": null, "Quién inv": null, "Visita rea": null, "Comentar_2": null, "Parque ind": null }, "geometry": { "type": "Point", "coordinates": [ -99.268336, 19.865539 ] } },
{ "type": "Feature", "properties": { "ID-IV": null, "Nombre/Raz": "RS, OPERADO POR TENOSILICATOS DE MEXICO SA DE CV", "Municipio": null, "Estado": null, "Latitud": 19.643417, "Longitud": -99.1845, "Cuenca": null, "Distancia": null, "Río más": null, "País": null, "Descarga a": null, "Uso": null, "Prioritari": null, "Cuerpo de": null, "VOLUMEN AN": null, "CUERPO REC": null, "FORMA DE D": null, "Cuerpo d_1": null, "Actividad": null, "Parametros": null, "Parametr_1": null, "Parámetro": null, "Cuerpo r_1": null, "Volumen _1": null, "USO_DESTIN": null, "ACTIVIDAD_": null, "Estatus": null, "Expediente": null, "TIPO_DE_VI": null, "OBJETO_DE_": null, "ESTATUS_DE": null, "Ranking Co": null, "Comentario": null, "Ranking Pr": null, "A investig": null, "Comentar_1": null, "Preselecci": null, "Excluida": null, "Inspeccion": null, "En polígo": null, "Quién inv": null, "Visita rea": null, "Comentar_2": null, "Parque ind": null }, "geometry": { "type": "Point", "coordinates": [ -99.1845, 19.643417 ] } },
{ "type": "Feature", "properties": { "ID-IV": null, "Nombre/Raz": "BH CONTINENTAL SPINNING MIL", "Municipio": null, "Estado": null, "Latitud": 19.858236, "Longitud": -99.284658, "Cuenca": null, "Distancia": null, "Río más": null, "País": null, "Descarga a": null, "Uso": null, "Prioritari": null, "Cuerpo de": null, "VOLUMEN AN": null, "CUERPO REC": null, "FORMA DE D": null, "Cuerpo d_1": null, "Actividad": null, "Parametros": null, "Parametr_1": null, "Parámetro": null, "Cuerpo r_1": null, "Volumen _1": null, "USO_DESTIN": null, "ACTIVIDAD_": null, "Estatus": null, "Expediente": null, "TIPO_DE_VI": null, "OBJETO_DE_": null, "ESTATUS_DE": null, "Ranking Co": null, "Comentario": null, "Ranking Pr": null, "A investig": null, "Comentar_1": null, "Preselecci": null, "Excluida": null, "Inspeccion": null, "En polígo": null, "Quién inv": null, "Visita rea": null, "Comentar_2": null, "Parque ind": null }, "geometry": { "type": "Point", "coordinates": [ -99.284658, 19.858236 ] } }
]
}
