{
"type": "FeatureCollection",
"name": "nueva_anp",
"crs": { "type": "name", "properties": { "name": "urn:ogc:def:crs:OGC:1.3:CRS84" } },
"features": [
{ "type": "Feature", "properties": { "id": "ID_00000", "Name": "0", "descriptio": "<html xmlns:fo=\"http://www.w3.org/1999/XSL/Format\" xmlns:msxsl=\"urn:schemas-microsoft-com:xslt\">\n\n<head>\n\n<META http-equiv=\"Content-Type\" content=\"text/html\">\n\n<meta http-equiv=\"content-type\" content=\"text/html; charset=UTF-8\">\n\n</head>\n\n<body style=\"mar", "timestamp": null, "begin": null, "end": null, "altitudeMo": "clampToGround", "tessellate": -1, "extrude": 0, "visibility": -1, "drawOrder": null, "icon": null }, "geometry": { "type": "MultiPolygon", "coordinates": [ [ [ [ 463886.840425413451158, 2219009.254893811419606, 0.0 ], [ 463754.960440738650504, 2218997.679683927446604, 0.0 ], [ 463727.785664920695126, 2219089.891050284728408, 0.0 ], [ 463646.550290490617044, 2218907.066643611062318, 0.0 ], [ 463655.706169467943255, 2218724.054247991647571, 0.0 ], [ 463648.378557600139175, 2218590.225475807208568, 0.0 ], [ 463609.086927039956208, 2218439.348820220679045, 0.0 ], [ 463497.278309937682934, 2218311.881810576189309, 0.0 ], [ 463393.846786627545953, 2218225.209393999073654, 0.0 ], [ 463119.617662449134514, 2218159.522521365433931, 0.0 ], [ 462981.997193366813008, 2218377.474811581429094, 0.0 ], [ 462895.630568764754571, 2218321.926286600530148, 0.0 ], [ 462848.469905550882686, 2218373.808846426196396, 0.0 ], [ 462770.058939937211107, 2218354.667162375990301, 0.0 ], [ 462681.998190908110701, 2218282.886465801857412, 0.0 ], [ 462748.815147512126714, 2218115.109595803543925, 0.0 ], [ 462410.541261228441726, 2218157.523448778316379, 0.0 ], [ 462242.227009414869826, 2218367.209983075037599, 0.0 ], [ 461934.636845599045046, 2218786.96378310630098, 0.0 ], [ 461804.620833023800515, 2218998.353230032604188, 0.0 ], [ 461633.944974298530724, 2219067.36221235524863, 0.0 ], [ 461577.430341039958876, 2219261.672703817021102, 0.0 ], [ 461555.680948207096662, 2219440.840662430971861, 0.0 ], [ 461593.75197363056941, 2219490.977442316710949, 0.0 ], [ 461688.774265219049994, 2219546.011268085800111, 0.0 ], [ 461848.717758430517279, 2219634.383965565357357, 0.0 ], [ 462160.415728773339652, 2219683.926000066101551, 0.0 ], [ 462315.603302914067172, 2219768.96519485488534, 0.0 ], [ 461414.613187055278104, 2220022.036965069826692, 0.0 ], [ 461411.927458869875409, 2220237.991611747536808, 0.0 ], [ 461154.351253059809096, 2220340.678466368466616, 0.0 ], [ 461108.902557201276068, 2220528.270182111766189, 0.0 ], [ 460943.337712846172508, 2220752.959085098002106, 0.0 ], [ 460802.957835040520877, 2220922.350302555598319, 0.0 ], [ 460803.416788909991737, 2221126.580154686700553, 0.0 ], [ 460868.530234669859055, 2221246.96365727391094, 0.0 ], [ 460952.66970145504456, 2221389.067101618275046, 0.0 ], [ 461000.425825901678763, 2221527.904231247957796, 0.0 ], [ 461016.749819580058102, 2221755.535035702399909, 0.0 ], [ 461080.337843589601107, 2221902.70713852532208, 0.0 ], [ 461248.453261009824928, 2222118.281825641635805, 0.0 ], [ 461473.51440278289374, 2222342.102270518895239, 0.0 ], [ 461628.785248355008662, 2222474.007713541854173, 0.0 ], [ 461890.033249023719691, 2222617.400630265939981, 0.0 ], [ 461982.031988292408641, 2222744.425555967725813, 0.0 ], [ 462022.03732096683234, 2222960.287500260397792, 0.0 ], [ 462341.727034267038107, 2223076.775393574032933, 0.0 ], [ 462735.843085821717978, 2223243.330470786429942, 0.0 ], [ 462676.469353469263297, 2223578.262433012016118, 0.0 ], [ 461990.981786112650298, 2223565.12560121435672, 0.0 ], [ 461984.266681208333466, 2223608.176770885940641, 0.0 ], [ 461852.634127315250225, 2223935.601730448659509, 0.0 ], [ 461779.343495778273791, 2224193.682973364833742, 0.0 ], [ 461789.404919249995146, 2224297.722826489713043, 0.0 ], [ 461725.774778353341389, 2224450.2542370618321, 0.0 ], [ 461679.345213979831897, 2224674.960818295832723, 0.0 ], [ 461626.823131775308866, 2224989.549139213282615, 0.0 ], [ 462164.154092304466758, 2225318.397922143340111, 0.0 ], [ 462475.145415083155967, 2225466.974144988227636, 0.0 ], [ 462661.192555663175881, 2225525.903548480477184, 0.0 ], [ 462545.522821849561296, 2225100.710614490322769, 0.0 ], [ 462546.88232141348999, 2224987.341125482227653, 0.0 ], [ 462584.201122341444716, 2224940.763763432856649, 0.0 ], [ 462711.2227496826672, 2224901.316377997864038, 0.0 ], [ 462795.677701100124978, 2224858.722254326567054, 0.0 ], [ 462893.276675402477849, 2224758.477530352771282, 0.0 ], [ 462958.054784606909379, 2224651.439602516125888, 0.0 ], [ 463053.404084014415275, 2224608.047993288841099, 0.0 ], [ 463193.54277684702538, 2224555.543532230891287, 0.0 ], [ 463353.833469911012799, 2224564.547900695353746, 0.0 ], [ 463952.290784271841403, 2224554.890107101760805, 0.0 ], [ 464008.824134678638075, 2224311.306344332173467, 0.0 ], [ 464135.835006927780341, 2224270.862394528463483, 0.0 ], [ 464294.292624411755241, 2224276.81542668165639, 0.0 ], [ 464373.033082964015193, 2224274.839735845569521, 0.0 ], [ 464258.776323348516598, 2224060.410664541646838, 0.0 ], [ 464179.058913992368616, 2223742.510138038545847, 0.0 ], [ 464060.230397748469841, 2223630.595399706624448, 0.0 ], [ 464071.143376273219474, 2223451.2343306010589, 0.0 ], [ 464054.155682890384924, 2223337.136710247024894, 0.0 ], [ 464014.350300010759383, 2223122.267540277447551, 0.0 ], [ 464017.673567715333775, 2223079.819913249462843, 0.0 ], [ 463953.285386367235333, 2222925.268420511856675, 0.0 ], [ 463935.975828223396093, 2222890.498679818119854, 0.0 ], [ 463889.045448987861164, 2222835.745129415765405, 0.0 ], [ 463892.196892594743986, 2222765.672238633036613, 0.0 ], [ 463926.618894130806439, 2222671.425111406482756, 0.0 ], [ 463771.135310470766854, 2222793.77739035198465, 0.0 ], [ 463421.968401397170965, 2222946.663720272481441, 0.0 ], [ 463353.786608367692679, 2222945.465598762501031, 0.0 ], [ 463352.359155678481329, 2222866.229263341519982, 0.0 ], [ 463281.360582570021506, 2222780.019302005879581, 0.0 ], [ 463265.231038814934436, 2222654.371149199083447, 0.0 ], [ 463182.186140533536673, 2222337.400561887770891, 0.0 ], [ 463329.583111006126273, 2222050.682411754969507, 0.0 ], [ 463947.328449248685502, 2221032.749128058552742, 0.0 ], [ 464124.990747576230206, 2220678.079972098581493, 0.0 ], [ 464014.307865163544193, 2220634.609444140922278, 0.0 ], [ 464040.3865954108187, 2220182.256942103151232, 0.0 ], [ 464029.830692532705143, 2220146.125005533918738, 0.0 ], [ 464036.570746098062955, 2220053.095405471511185, 0.0 ], [ 464146.937512429896742, 2219812.852299985010177, 0.0 ], [ 464222.281894529704005, 2219536.736223051324487, 0.0 ], [ 464351.117737419961486, 2219467.113465258385986, 0.0 ], [ 464414.120818195166066, 2219296.102685062214732, 0.0 ], [ 464403.526334171707276, 2219187.950228264089674, 0.0 ], [ 464387.870876317319926, 2219114.304182457737625, 0.0 ], [ 464386.074147563544102, 2219010.014635211788118, 0.0 ], [ 464256.654860892565921, 2218946.56027960171923, 0.0 ], [ 464193.694584378565196, 2218947.655874931719154, 0.0 ], [ 464077.476985224755481, 2218937.900531840976328, 0.0 ], [ 463886.840425413451158, 2219009.254893811419606, 0.0 ] ] ] ] } }
]
}
