{
"type": "FeatureCollection",
"name": "pemex",
"crs": { "type": "name", "properties": { "name": "urn:ogc:def:crs:OGC:1.3:CRS84" } },
"features": [
{ "type": "Feature", "properties": { "id": 1, "Plan_pemex": "Planta Coquizadora Tula" }, "geometry": { "type": "MultiPoint", "coordinates": [ [ -99.289024679472035, 20.040243937725368 ] ] } },
{ "type": "Feature", "properties": { "id": null, "Plan_pemex": "PTAR PEMEX" }, "geometry": { "type": "MultiPoint", "coordinates": [ [ -99.263339665248253, 20.057682787685312 ] ] } }
]
}
