{
"type": "FeatureCollection",
"name": "restauracion_forestal",
"crs": { "type": "name", "properties": { "name": "urn:ogc:def:crs:OGC:1.3:CRS84" } },
"features": [
{ "type": "Feature", "properties": { "id": "ID_00000", "Name": "2025", "descriptio": "<html xmlns:fo=\"http://www.w3.org/1999/XSL/Format\" xmlns:msxsl=\"urn:schemas-microsoft-com:xslt\">\n\n<head>\n\n<META http-equiv=\"Content-Type\" content=\"text/html\">\n\n<meta http-equiv=\"content-type\" content=\"text/html; charset=UTF-8\">\n\n</head>\n\n<body style=\"mar", "timestamp": null, "begin": null, "end": null, "altitudeMo": "clampToGround", "tessellate": -1, "extrude": 0, "visibility": -1, "drawOrder": null, "icon": null, "snippet": null, "area": 36 }, "geometry": { "type": "MultiPolygon", "coordinates": [ [ [ [ 451295.629828916396946, 2220059.130967888515443, 0.0 ], [ 451491.165399732359219, 2220140.544541458599269, 0.0 ], [ 451602.478613401821349, 2220032.899425629060715, 0.0 ], [ 451695.220921644417103, 2219937.885255860164762, 0.0 ], [ 451723.388279086851981, 2219761.907772017642856, 0.0 ], [ 451733.906122454383876, 2219666.624179964885116, 0.0 ], [ 451609.699944466236047, 2219644.083330371417105, 0.0 ], [ 451594.011517326172907, 2219517.249931928701699, 0.0 ], [ 451290.640073948772624, 2219660.13530029123649, 0.0 ], [ 451187.499954151455313, 2219706.739904410671443, 0.0 ], [ 451309.43664277746575, 2219987.352427172474563, 0.0 ], [ 451295.629828916396946, 2220059.130967888515443, 0.0 ] ] ], [ [ [ 452803.013757625943981, 2222588.138460934627801, 0.0 ], [ 452599.932785744895227, 2222624.430638591293246, 0.0 ], [ 452587.16771354933735, 2222641.936556446831673, 0.0 ], [ 452610.555287358816713, 2222642.527087454684079, 0.0 ], [ 452613.213934814499225, 2222657.920517464634031, 0.0 ], [ 452613.165811245737132, 2222679.285694541409612, 0.0 ], [ 452618.96121598710306, 2222702.21140379877761, 0.0 ], [ 452646.15251981158508, 2222725.755681227892637, 0.0 ], [ 452644.999327273399103, 2222748.072590364608914, 0.0 ], [ 452650.462574616656639, 2222760.813961187377572, 0.0 ], [ 452642.717464170185849, 2222786.030271362047642, 0.0 ], [ 452668.541710521152709, 2222872.806605268735439, 0.0 ], [ 452695.547133323037997, 2222922.271693088114262, 0.0 ], [ 452703.512939873617142, 2222935.534601035527885, 0.0 ], [ 452711.164150614757091, 2222956.763573189266026, 0.0 ], [ 452723.96077673882246, 2222954.938848915044218, 0.0 ], [ 452743.652675094432198, 2222951.458370029460639, 0.0 ], [ 452775.39892921486171, 2222956.70336104882881, 0.0 ], [ 452788.287189300579485, 2222979.785198409110308, 0.0 ], [ 452867.362288499018177, 2222956.075021121185273, 0.0 ], [ 453056.600926623563282, 2222795.396823665127158, 0.0 ], [ 452981.751471221912652, 2222737.873383247293532, 0.0 ], [ 452818.432463619974442, 2222609.631955702323467, 0.0 ], [ 452803.013757625943981, 2222588.138460934627801, 0.0 ] ] ], [ [ [ 451668.317846677731723, 2222934.16000006813556, 0.0 ], [ 451716.869617083342746, 2222919.565931120421737, 0.0 ], [ 451766.118605616036803, 2222920.857565072365105, 0.0 ], [ 451866.206021268561017, 2222894.311522624455392, 0.0 ], [ 451925.242215314297937, 2222891.189600044861436, 0.0 ], [ 451929.507403907773551, 2222735.320430567953736, 0.0 ], [ 451588.859037050977349, 2222796.102091049775481, 0.0 ], [ 451633.641732939053327, 2222891.212536985520273, 0.0 ], [ 451652.712733541266061, 2222922.089131965767592, 0.0 ], [ 451668.317846677731723, 2222934.16000006813556, 0.0 ] ] ] ] } },
{ "type": "Feature", "properties": { "id": "ID_00001", "Name": "2025", "descriptio": "<html xmlns:fo=\"http://www.w3.org/1999/XSL/Format\" xmlns:msxsl=\"urn:schemas-microsoft-com:xslt\">\n\n<head>\n\n<META http-equiv=\"Content-Type\" content=\"text/html\">\n\n<meta http-equiv=\"content-type\" content=\"text/html; charset=UTF-8\">\n\n</head>\n\n<body style=\"mar", "timestamp": null, "begin": null, "end": null, "altitudeMo": "clampToGround", "tessellate": -1, "extrude": 0, "visibility": -1, "drawOrder": null, "icon": null, "snippet": null, "area": 46 }, "geometry": { "type": "MultiPolygon", "coordinates": [ [ [ [ 456165.699418118107133, 2227378.682704963255674, 0.0 ], [ 456295.254746245918795, 2227487.650652745272964, 0.0 ], [ 456180.958632912137546, 2227655.461171707138419, 0.0 ], [ 456276.321592802880332, 2227775.031901905778795, 0.0 ], [ 456395.146994681039359, 2227862.668937805108726, 0.0 ], [ 456609.988309216627385, 2227733.064084242563695, 0.0 ], [ 456200.709230775479227, 2227069.99316800525412, 0.0 ], [ 455307.672049668559339, 2227034.343596154823899, 0.0 ], [ 455321.210898130666465, 2227187.70136052928865, 0.0 ], [ 455346.664111620339099, 2227384.45630147960037, 0.0 ], [ 455616.282502352434676, 2227420.751125025562942, 0.0 ], [ 455835.246419598872308, 2227435.096145226154476, 0.0 ], [ 455898.488495426543523, 2227336.414540977217257, 0.0 ], [ 456113.035500882251654, 2227450.650331724435091, 0.0 ], [ 456165.699418118107133, 2227378.682704963255674, 0.0 ] ] ] ] } },
{ "type": "Feature", "properties": { "id": "ID_00002", "Name": "2025", "descriptio": "<html xmlns:fo=\"http://www.w3.org/1999/XSL/Format\" xmlns:msxsl=\"urn:schemas-microsoft-com:xslt\">\n\n<head>\n\n<META http-equiv=\"Content-Type\" content=\"text/html\">\n\n<meta http-equiv=\"content-type\" content=\"text/html; charset=UTF-8\">\n\n</head>\n\n<body style=\"mar", "timestamp": null, "begin": null, "end": null, "altitudeMo": "clampToGround", "tessellate": -1, "extrude": 0, "visibility": -1, "drawOrder": null, "icon": null, "snippet": null, "area": 75 }, "geometry": { "type": "MultiPolygon", "coordinates": [ [ [ [ 454724.302278094692156, 2230154.520101704634726, 0.0 ], [ 454621.459672882512677, 2229967.167824044357985, 0.0 ], [ 454542.776202424196526, 2229995.009052709676325, 0.0 ], [ 454496.432253882230725, 2230041.002965215127915, 0.0 ], [ 454465.741917499341071, 2230069.745727991685271, 0.0 ], [ 454424.427127792383544, 2230086.852303445339203, 0.0 ], [ 454263.862118475779425, 2230081.716615961398929, 0.0 ], [ 454271.190893719089217, 2230299.707966156769544, 0.0 ], [ 454451.853235798829701, 2230341.969635113608092, 0.0 ], [ 454648.773537103901617, 2230260.703685816843063, 0.0 ], [ 454724.302278094692156, 2230154.520101704634726, 0.0 ] ], [ [ 454502.950941630464513, 2230170.999043254647404, 0.0 ], [ 454495.903469378943555, 2230219.52334121381864, 0.0 ], [ 454482.834512979839928, 2230247.420027243439108, 0.0 ], [ 454473.819133498123847, 2230289.476793413981795, 0.0 ], [ 454436.6997697277111, 2230305.677404546178877, 0.0 ], [ 454407.515747726894915, 2230263.128594013862312, 0.0 ], [ 454424.578325201349799, 2230194.826080844737589, 0.0 ], [ 454411.950043828110211, 2230193.039781308732927, 0.0 ], [ 454421.148972721362952, 2230162.066521940287203, 0.0 ], [ 454440.172441191156395, 2230147.711223916616291, 0.0 ], [ 454502.950941630464513, 2230170.999043254647404, 0.0 ] ] ], [ [ [ 454940.48969802504871, 2230467.772639411967248, 0.0 ], [ 455033.596408623328898, 2230426.260293650906533, 0.0 ], [ 455009.066729785641655, 2230225.265179752837867, 0.0 ], [ 454982.521557995409239, 2229846.789790982380509, 0.0 ], [ 454622.226429892121814, 2229965.309852998703718, 0.0 ], [ 454639.259636429080274, 2229993.938286820892245, 0.0 ], [ 454727.885638440144248, 2230152.340612671338022, 0.0 ], [ 454651.250120193930343, 2230264.154955396428704, 0.0 ], [ 454453.675632717087865, 2230346.070428507868201, 0.0 ], [ 454267.267908137349878, 2230302.365413974504918, 0.0 ], [ 454260.890705674188212, 2230085.670436587184668, 0.0 ], [ 454233.352551900432445, 2230076.266275105532259, 0.0 ], [ 454205.256766622071154, 2230078.154149625450373, 0.0 ], [ 454160.478756942262407, 2230076.683580614160746, 0.0 ], [ 454125.977818821440451, 2230070.69893702166155, 0.0 ], [ 454090.155396332265809, 2230059.502085418906063, 0.0 ], [ 454069.716450479754712, 2230050.534137845505029, 0.0 ], [ 454030.110849983815569, 2230717.525230248458683, 0.0 ], [ 454005.025695464166347, 2231164.178253245074302, 0.0 ], [ 454096.041877332900185, 2231098.864102578256279, 0.0 ], [ 454205.193817078252323, 2231016.821321139577776, 0.0 ], [ 454258.411779021495022, 2230982.798996197991073, 0.0 ], [ 454278.117301769263577, 2230965.0066327014938, 0.0 ], [ 454345.087656270537991, 2230909.093600132502615, 0.0 ], [ 454470.367885669751558, 2230816.892338309902698, 0.0 ], [ 454488.651782668719534, 2230811.73950858367607, 0.0 ], [ 454594.138828041672241, 2230725.709550475236028, 0.0 ], [ 454678.782520385109819, 2230658.940526386722922, 0.0 ], [ 454883.073881932417862, 2230568.130402151029557, 0.0 ], [ 454940.48969802504871, 2230467.772639411967248, 0.0 ] ] ] ] } },
{ "type": "Feature", "properties": { "id": "ID_00003", "Name": "2025", "descriptio": "<html xmlns:fo=\"http://www.w3.org/1999/XSL/Format\" xmlns:msxsl=\"urn:schemas-microsoft-com:xslt\">\n\n<head>\n\n<META http-equiv=\"Content-Type\" content=\"text/html\">\n\n<meta http-equiv=\"content-type\" content=\"text/html; charset=UTF-8\">\n\n</head>\n\n<body style=\"mar", "timestamp": null, "begin": null, "end": null, "altitudeMo": "clampToGround", "tessellate": -1, "extrude": 0, "visibility": -1, "drawOrder": null, "icon": null, "snippet": null, "area": 57 }, "geometry": { "type": "MultiPolygon", "coordinates": [ [ [ [ 454512.056909439677838, 2235609.02416854724288, 0.0 ], [ 454534.991347129049245, 2235722.560549852438271, 0.0 ], [ 454626.636348967498634, 2235730.57708996348083, 0.0 ], [ 454653.387615037325304, 2235735.1023132908158, 0.0 ], [ 454651.926764582225587, 2235746.975392709020525, 0.0 ], [ 454705.750778984860517, 2235762.226392737589777, 0.0 ], [ 454762.118586284399498, 2235799.916287532541901, 0.0 ], [ 454772.396107444015797, 2235781.543244684115052, 0.0 ], [ 454799.291410148143768, 2235777.023588875308633, 0.0 ], [ 454766.399954771855846, 2235749.792583538684994, 0.0 ], [ 454828.702854889503215, 2235697.627161767333746, 0.0 ], [ 454924.163755888643209, 2235670.08656000206247, 0.0 ], [ 454971.438518844544888, 2235636.640530372038484, 0.0 ], [ 455062.580166891973931, 2235659.821472701616585, 0.0 ], [ 455061.71640899538761, 2235627.674392888788134, 0.0 ], [ 454992.776811315561645, 2235613.138394199777395, 0.0 ], [ 454833.284629310772289, 2235577.908900166861713, 0.0 ], [ 454731.280521999287885, 2235565.185366241261363, 0.0 ], [ 454673.184520969341975, 2235569.305684304330498, 0.0 ], [ 454512.056909439677838, 2235609.02416854724288, 0.0 ] ] ], [ [ [ 457458.112889935669955, 2241278.917046674061567, 0.0 ], [ 457504.04966821114067, 2241347.142431037500501, 0.0 ], [ 457511.395812871982343, 2241439.845365517307073, 0.0 ], [ 457516.824105668521952, 2241539.351917771622539, 0.0 ], [ 457596.819632420898415, 2241509.932346869725734, 0.0 ], [ 457646.643966417526826, 2241590.266174382530153, 0.0 ], [ 457686.839683589932974, 2241561.623393389862031, 0.0 ], [ 457638.005516234552488, 2241465.953782332595438, 0.0 ], [ 457723.669105287001003, 2241391.656512070447206, 0.0 ], [ 457773.888575745397247, 2241501.604324312880635, 0.0 ], [ 457717.906343599664979, 2241544.230586345307529, 0.0 ], [ 457758.69972625025548, 2241604.902314428240061, 0.0 ], [ 457758.819019762100652, 2241663.615859957411885, 0.0 ], [ 457768.648077983001713, 2241666.130722437053919, 0.0 ], [ 457857.679846897663083, 2241657.614574535749853, 0.0 ], [ 457942.936646889778785, 2241639.059261094313115, 0.0 ], [ 458024.016973282967228, 2241591.297774465288967, 0.0 ], [ 458064.877688587759621, 2241545.766284239944071, 0.0 ], [ 458094.358556038932875, 2241511.833537435624748, 0.0 ], [ 458066.076717934687622, 2241469.945116713643074, 0.0 ], [ 458093.283687827410176, 2241394.308829191606492, 0.0 ], [ 458041.165995489282068, 2241435.190057337284088, 0.0 ], [ 458021.130105612159241, 2241407.956226569134742, 0.0 ], [ 457987.080932815617416, 2241393.745165412779897, 0.0 ], [ 457952.809815404587425, 2241387.135593139566481, 0.0 ], [ 457899.562722064787522, 2241393.662260183133185, 0.0 ], [ 457901.563907534698956, 2241353.402018956840038, 0.0 ], [ 457854.376596823509317, 2241331.549545125570148, 0.0 ], [ 457779.996105228550732, 2241322.951627613976598, 0.0 ], [ 457786.720274139603134, 2241090.681603392120451, 0.0 ], [ 457644.753373059735168, 2241108.698433537967503, 0.0 ], [ 457352.454413641127758, 2241144.996190392412245, 0.0 ], [ 457367.912366308737546, 2241194.165197499096394, 0.0 ], [ 457362.782982449862175, 2241231.516190885100514, 0.0 ], [ 457384.334211733657867, 2241227.331832907628268, 0.0 ], [ 457458.112889935669955, 2241278.917046674061567, 0.0 ] ] ], [ [ [ 458302.555554275284521, 2241009.807510814629495, 0.0 ], [ 458302.477647393592633, 2241044.674698401242495, 0.0 ], [ 458306.523260181129444, 2241072.180608498863876, 0.0 ], [ 458316.346547258319333, 2241138.106013312470168, 0.0 ], [ 458307.298926480463706, 2241176.081109825521708, 0.0 ], [ 458299.114468061248772, 2241194.164669486694038, 0.0 ], [ 458285.727996262838133, 2241229.853936173487455, 0.0 ], [ 458280.280687592050526, 2241241.932351936586201, 0.0 ], [ 458266.139757073833607, 2241259.325707948766649, 0.0 ], [ 458254.880238500481937, 2241270.962897836230695, 0.0 ], [ 458238.779293176077772, 2241289.075475621968508, 0.0 ], [ 458202.106820176937617, 2241317.713385284412652, 0.0 ], [ 458211.214765006036032, 2241352.488861091434956, 0.0 ], [ 458221.997106057126075, 2241360.855802445672452, 0.0 ], [ 458239.142087137326598, 2241409.095853412523866, 0.0 ], [ 458238.256240281916689, 2241426.981859320309013, 0.0 ], [ 458214.418028740386944, 2241450.341819853521883, 0.0 ], [ 458155.120763088518288, 2241484.735344235319644, 0.0 ], [ 458159.44577082968317, 2241503.020520492456853, 0.0 ], [ 458173.003090625628829, 2241500.817737241275609, 0.0 ], [ 458188.220774164190516, 2241496.010290808975697, 0.0 ], [ 458243.62701757956529, 2241504.21901819948107, 0.0 ], [ 458201.741137046192307, 2241622.850961875170469, 0.0 ], [ 458172.022497024387121, 2241700.031326748430729, 0.0 ], [ 458128.541626430116594, 2241806.544762513134629, 0.0 ], [ 458116.500495784217492, 2241861.953640708234161, 0.0 ], [ 458105.711822680372279, 2241930.920858640689403, 0.0 ], [ 458116.990887223742902, 2242023.083737554959953, 0.0 ], [ 458409.56084357801592, 2241969.719633002299815, 0.0 ], [ 458421.669240537623409, 2241615.945540953893214, 0.0 ], [ 458427.317188723303843, 2241458.227889961097389, 0.0 ], [ 458433.203401411999948, 2241415.589683907106519, 0.0 ], [ 458437.715426918875892, 2241371.023777069523931, 0.0 ], [ 458445.710244710557163, 2241315.461681345012039, 0.0 ], [ 458467.572262383881025, 2241147.158955588936806, 0.0 ], [ 458391.042256434215233, 2241160.442246202845126, 0.0 ], [ 458319.806048785161693, 2240992.758608465548605, 0.0 ], [ 458307.360786456323694, 2240992.008004545234144, 0.0 ], [ 458302.555554275284521, 2241009.807510814629495, 0.0 ] ] ], [ [ [ 457209.027803289704025, 2242094.093459060881287, 0.0 ], [ 457200.116256982146297, 2242064.658942659851164, 0.0 ], [ 457180.911138291296083, 2241933.081272775772959, 0.0 ], [ 457215.44896124623483, 2241901.856591869611293, 0.0 ], [ 457202.076309038791806, 2241888.867299315519631, 0.0 ], [ 457196.565982745785732, 2241879.810749378055334, 0.0 ], [ 457188.83951966901077, 2241790.601889220066369, 0.0 ], [ 457183.465191822790075, 2241774.668203507084399, 0.0 ], [ 457179.032964168523904, 2241737.333308374974877, 0.0 ], [ 457176.407289971713908, 2241703.278510148636997, 0.0 ], [ 457165.355848075007088, 2241652.774261495564133, 0.0 ], [ 457089.526395775843412, 2241652.933424093294889, 0.0 ], [ 457089.487070065166336, 2241571.255722353234887, 0.0 ], [ 457164.673404264263809, 2241597.915475476067513, 0.0 ], [ 457165.714592016825918, 2241508.555641938000917, 0.0 ], [ 457072.946501394850202, 2241508.203334242571145, 0.0 ], [ 457042.197566943126731, 2241422.876977823674679, 0.0 ], [ 457084.094791094306856, 2241408.900575371924788, 0.0 ], [ 457076.53836284641875, 2241383.696301974821836, 0.0 ], [ 456995.435175155871548, 2241411.597943459637463, 0.0 ], [ 456928.415501669573132, 2241435.79791420372203, 0.0 ], [ 457115.199093651666772, 2242097.104112039785832, 0.0 ], [ 457185.731792803388089, 2242077.546288108453155, 0.0 ], [ 457188.354409684892744, 2242101.590674216859043, 0.0 ], [ 457209.027803289704025, 2242094.093459060881287, 0.0 ] ] ] ] } },
{ "type": "Feature", "properties": { "id": "ID_00004", "Name": "2025", "descriptio": "<html xmlns:fo=\"http://www.w3.org/1999/XSL/Format\" xmlns:msxsl=\"urn:schemas-microsoft-com:xslt\">\n\n<head>\n\n<META http-equiv=\"Content-Type\" content=\"text/html\">\n\n<meta http-equiv=\"content-type\" content=\"text/html; charset=UTF-8\">\n\n</head>\n\n<body style=\"mar", "timestamp": null, "begin": null, "end": null, "altitudeMo": "clampToGround", "tessellate": -1, "extrude": 0, "visibility": -1, "drawOrder": null, "icon": null, "snippet": null, "area": 40 }, "geometry": { "type": "MultiPolygon", "coordinates": [ [ [ [ 455703.729822909110226, 2213978.262264311313629, 0.0 ], [ 455807.64918128575664, 2214048.041254370007664, 0.0 ], [ 455845.664360424270853, 2214039.826493487227708, 0.0 ], [ 455893.580014711013064, 2214025.040243734139949, 0.0 ], [ 455962.476849171391223, 2214002.356181676033884, 0.0 ], [ 456028.180737123358995, 2213982.55057933786884, 0.0 ], [ 456120.559314991929568, 2213951.834993169177324, 0.0 ], [ 456157.931605332065374, 2214007.681839205790311, 0.0 ], [ 456196.996987454826012, 2214062.554783426690847, 0.0 ], [ 456229.170064906531479, 2214020.429667932447046, 0.0 ], [ 456200.87837760290131, 2213969.412753466516733, 0.0 ], [ 456218.855216500349343, 2213918.582531481981277, 0.0 ], [ 456227.676822772889864, 2213890.584800396114588, 0.0 ], [ 456159.420220653933939, 2213835.781007322948426, 0.0 ], [ 456138.961206550011411, 2213814.972682992462069, 0.0 ], [ 456141.56462564348476, 2213790.870124075096101, 0.0 ], [ 456199.705046620336361, 2213720.306075949221849, 0.0 ], [ 456324.842265274084639, 2213590.331239425111562, 0.0 ], [ 456358.200212329160422, 2213566.441075278446078, 0.0 ], [ 456294.578588054515421, 2213510.207716438919306, 0.0 ], [ 456273.580740024626721, 2213499.55127384327352, 0.0 ], [ 456243.714258612832054, 2213485.510696364566684, 0.0 ], [ 456199.179482665203977, 2213464.675844149664044, 0.0 ], [ 456122.718310177617241, 2213466.693917717784643, 0.0 ], [ 456134.224449076806195, 2213309.936009403318167, 0.0 ], [ 456075.979489902500063, 2213322.288960590958595, 0.0 ], [ 455998.315675347694196, 2213336.048295698594302, 0.0 ], [ 455988.958299299003556, 2213311.375328723341227, 0.0 ], [ 455905.900515302433632, 2213331.864010123070329, 0.0 ], [ 455861.328487419406883, 2213368.765316093340516, 0.0 ], [ 455731.351731338014361, 2213453.95958217792213, 0.0 ], [ 455670.624541612400208, 2213476.24788937298581, 0.0 ], [ 455614.439008499088231, 2213478.747597409412265, 0.0 ], [ 455531.788872189936228, 2213426.593131966888905, 0.0 ], [ 455489.914350422448479, 2213461.188089247792959, 0.0 ], [ 455464.730992416327354, 2213514.376271810382605, 0.0 ], [ 455428.401125161151867, 2213548.390132721047848, 0.0 ], [ 455518.041996664309409, 2213606.886498038191348, 0.0 ], [ 455543.66066111571854, 2213618.716396636329591, 0.0 ], [ 455547.376334143918939, 2213642.44789123814553, 0.0 ], [ 455565.309678807971068, 2213693.838886349927634, 0.0 ], [ 455596.004808153491467, 2213729.993601242545992, 0.0 ], [ 455623.838632462138776, 2213884.228841457515955, 0.0 ], [ 455662.107526164618321, 2213929.733446970116347, 0.0 ], [ 455685.1349966446287, 2213957.656128529459238, 0.0 ], [ 455703.729822909110226, 2213978.262264311313629, 0.0 ] ] ] ] } },
{ "type": "Feature", "properties": { "id": "ID_00005", "Name": "2025", "descriptio": "<html xmlns:fo=\"http://www.w3.org/1999/XSL/Format\" xmlns:msxsl=\"urn:schemas-microsoft-com:xslt\">\n\n<head>\n\n<META http-equiv=\"Content-Type\" content=\"text/html\">\n\n<meta http-equiv=\"content-type\" content=\"text/html; charset=UTF-8\">\n\n</head>\n\n<body style=\"mar", "timestamp": null, "begin": null, "end": null, "altitudeMo": "clampToGround", "tessellate": -1, "extrude": 0, "visibility": -1, "drawOrder": null, "icon": null, "snippet": null, "area": 18 }, "geometry": { "type": "MultiPolygon", "coordinates": [ [ [ [ 455037.863059786322992, 2227065.949962561018765, 0.0 ], [ 454921.02717258548364, 2227352.722647495102137, 0.0 ], [ 454789.456757524574641, 2227560.270905012264848, 0.0 ], [ 454762.922598784498405, 2227651.066296193748713, 0.0 ], [ 454878.522663348470815, 2227664.990552910137922, 0.0 ], [ 454907.846995787229389, 2227785.407731594517827, 0.0 ], [ 454974.572139254829381, 2227773.649825819768012, 0.0 ], [ 455007.156918964989018, 2227679.088781477883458, 0.0 ], [ 455060.648289554053918, 2227571.526297274045646, 0.0 ], [ 455131.564968025311828, 2227412.142119195777923, 0.0 ], [ 455212.679274780617561, 2227261.568941045086831, 0.0 ], [ 455322.973140346934088, 2227157.934851428493857, 0.0 ], [ 455305.264471090107691, 2227030.14904758753255, 0.0 ], [ 455037.863059786322992, 2227065.949962561018765, 0.0 ] ] ] ] } },
{ "type": "Feature", "properties": { "id": "ID_00006", "Name": "2025", "descriptio": "<html xmlns:fo=\"http://www.w3.org/1999/XSL/Format\" xmlns:msxsl=\"urn:schemas-microsoft-com:xslt\">\n\n<head>\n\n<META http-equiv=\"Content-Type\" content=\"text/html\">\n\n<meta http-equiv=\"content-type\" content=\"text/html; charset=UTF-8\">\n\n</head>\n\n<body style=\"mar", "timestamp": null, "begin": null, "end": null, "altitudeMo": "clampToGround", "tessellate": -1, "extrude": 0, "visibility": -1, "drawOrder": null, "icon": null, "snippet": null, "area": 60 }, "geometry": { "type": "MultiPolygon", "coordinates": [ [ [ [ 463114.482627356774174, 2232943.889125395566225, 0.0 ], [ 462929.858701574208681, 2233072.942773241084069, 0.0 ], [ 462799.042326068098191, 2233137.127752365078777, 0.0 ], [ 462445.444854027940892, 2233282.897195333149284, 0.0 ], [ 462255.916138054337353, 2233345.799683548975736, 0.0 ], [ 462353.547583317325916, 2233408.506058961618692, 0.0 ], [ 462359.971333442837931, 2233569.647416027262807, 0.0 ], [ 462477.214866019436158, 2233751.442212092224509, 0.0 ], [ 462541.09588216803968, 2233893.186941246967763, 0.0 ], [ 462586.643744851753581, 2233942.60272679105401, 0.0 ], [ 462767.933579777716659, 2233850.484049854334444, 0.0 ], [ 462898.13279808498919, 2233779.406487467698753, 0.0 ], [ 463014.165936518111266, 2233785.339802768081427, 0.0 ], [ 463074.864617657032795, 2233793.576421058736742, 0.0 ], [ 463188.96564423822565, 2233763.593280682340264, 0.0 ], [ 463353.68357249192195, 2233715.39211614895612, 0.0 ], [ 463302.673311740800273, 2233573.523875148966908, 0.0 ], [ 463194.531063843576703, 2233195.889131814241409, 0.0 ], [ 463114.482627356774174, 2232943.889125395566225, 0.0 ] ] ] ] } },
{ "type": "Feature", "properties": { "id": "ID_00007", "Name": "2025", "descriptio": "<html xmlns:fo=\"http://www.w3.org/1999/XSL/Format\" xmlns:msxsl=\"urn:schemas-microsoft-com:xslt\">\n\n<head>\n\n<META http-equiv=\"Content-Type\" content=\"text/html\">\n\n<meta http-equiv=\"content-type\" content=\"text/html; charset=UTF-8\">\n\n</head>\n\n<body style=\"mar", "timestamp": null, "begin": null, "end": null, "altitudeMo": "clampToGround", "tessellate": -1, "extrude": 0, "visibility": -1, "drawOrder": null, "icon": null, "snippet": null, "area": 30 }, "geometry": { "type": "MultiPolygon", "coordinates": [ [ [ [ 456471.96921227889834, 2246137.572192392777652, 0.0 ], [ 456554.91649008897366, 2246068.750168493483216, 0.0 ], [ 456650.262093724973965, 2245988.630819586105645, 0.0 ], [ 456742.312339510186575, 2245912.054661362897605, 0.0 ], [ 456625.179926960321609, 2245752.874437832273543, 0.0 ], [ 456375.595287451695185, 2245813.821832436602563, 0.0 ], [ 456346.952371314982884, 2245791.257347184699029, 0.0 ], [ 456307.484279241762124, 2245761.2168053323403, 0.0 ], [ 456184.660000056785066, 2245814.117871952708811, 0.0 ], [ 456047.00859227712499, 2245873.765718151349574, 0.0 ], [ 456087.632954508764669, 2245934.090153970289975, 0.0 ], [ 456156.230684038135223, 2246037.28080731863156, 0.0 ], [ 456237.988421542104334, 2246007.596957923844457, 0.0 ], [ 456471.96921227889834, 2246137.572192392777652, 0.0 ] ] ], [ [ [ 462825.851150085101835, 2248213.193783332128078, 0.0 ], [ 462807.668217063706834, 2248106.491415353026241, 0.0 ], [ 462779.824980952660553, 2248008.651974236126989, 0.0 ], [ 462742.485505996097345, 2247950.298282274976373, 0.0 ], [ 462673.015700844815001, 2247906.945402154233307, 0.0 ], [ 462592.124771579750814, 2247889.090006900951266, 0.0 ], [ 462544.710423307260498, 2247883.211140725761652, 0.0 ], [ 462420.427748308517039, 2247858.492750233970582, 0.0 ], [ 462361.28341794986045, 2247848.134104722645134, 0.0 ], [ 462358.755048323073424, 2247865.861296577379107, 0.0 ], [ 462328.123903290717863, 2247869.168938392307609, 0.0 ], [ 462305.285615998785943, 2247874.301058470271528, 0.0 ], [ 462257.007843688188586, 2247889.527063966728747, 0.0 ], [ 462240.489708057080861, 2247892.473699686583132, 0.0 ], [ 462195.785881737014279, 2247910.931908997707069, 0.0 ], [ 462173.141936942003667, 2247919.667518988251686, 0.0 ], [ 462134.530045260326006, 2247916.346202003769577, 0.0 ], [ 462119.028283711115364, 2247937.512158885132521, 0.0 ], [ 462136.555875333200675, 2247979.644680808763951, 0.0 ], [ 462211.104478624416515, 2247980.180952847469598, 0.0 ], [ 462255.480990300886333, 2247989.195756395347416, 0.0 ], [ 462305.572730825340841, 2248002.329886754509062, 0.0 ], [ 462347.438249537430238, 2247999.918589802458882, 0.0 ], [ 462366.115407602803316, 2247976.321420958265662, 0.0 ], [ 462377.928397659619804, 2247956.989303593989462, 0.0 ], [ 462408.261112430423964, 2247960.353919361717999, 0.0 ], [ 462425.071084401453845, 2247987.68434254033491, 0.0 ], [ 462570.258675223798491, 2248032.862097694538534, 0.0 ], [ 462584.745737825054675, 2248037.445722470525652, 0.0 ], [ 462646.479998951719608, 2248110.745956212747842, 0.0 ], [ 462662.677187530789524, 2248133.972325704526156, 0.0 ], [ 462662.485464476165362, 2248191.498208386357874, 0.0 ], [ 462622.148542728740722, 2248225.416451957542449, 0.0 ], [ 462532.359891758940648, 2248270.099647711031139, 0.0 ], [ 462483.157380528456997, 2248341.514584910590202, 0.0 ], [ 462545.113796252990142, 2248417.84624077565968, 0.0 ], [ 462691.683624698489439, 2248356.67004112014547, 0.0 ], [ 462751.217822880600579, 2248316.463282507844269, 0.0 ], [ 462805.066831536358222, 2248286.269051702227443, 0.0 ], [ 462825.851150085101835, 2248213.193783332128078, 0.0 ] ] ] ] } },
{ "type": "Feature", "properties": { "id": "ID_00008", "Name": "2025", "descriptio": "<html xmlns:fo=\"http://www.w3.org/1999/XSL/Format\" xmlns:msxsl=\"urn:schemas-microsoft-com:xslt\">\n\n<head>\n\n<META http-equiv=\"Content-Type\" content=\"text/html\">\n\n<meta http-equiv=\"content-type\" content=\"text/html; charset=UTF-8\">\n\n</head>\n\n<body style=\"mar", "timestamp": null, "begin": null, "end": null, "altitudeMo": "clampToGround", "tessellate": -1, "extrude": 0, "visibility": -1, "drawOrder": null, "icon": null, "snippet": null, "area": 45 }, "geometry": { "type": "MultiPolygon", "coordinates": [ [ [ [ 467820.774340588483028, 2234957.696093711536378, 0.0 ], [ 467909.15177078184206, 2234824.244370728731155, 0.0 ], [ 467804.441946022619959, 2234776.256417719647288, 0.0 ], [ 467876.538045957160648, 2234740.29050887003541, 0.0 ], [ 467931.841523286653683, 2234650.554019602946937, 0.0 ], [ 467559.254243615665473, 2234697.593692378606647, 0.0 ], [ 467522.145713283738587, 2234703.364967240020633, 0.0 ], [ 467496.367916760558728, 2234637.102391440421343, 0.0 ], [ 467459.752665720239747, 2234618.558604838326573, 0.0 ], [ 467271.475287543609738, 2234742.861650144681334, 0.0 ], [ 467269.437932625703979, 2234795.932130771223456, 0.0 ], [ 467248.717211741721258, 2235134.507077659480274, 0.0 ], [ 467337.851159218407702, 2235161.716582030523568, 0.0 ], [ 467369.626948773977347, 2235184.304381097201258, 0.0 ], [ 467399.312554254254792, 2235241.73219310445711, 0.0 ], [ 467439.277667011425365, 2235382.359436293598264, 0.0 ], [ 467631.497879206202924, 2235469.661132549401373, 0.0 ], [ 467655.377600615145639, 2235500.930325371213257, 0.0 ], [ 467619.397036790149286, 2235573.723515768535435, 0.0 ], [ 467597.53529236203758, 2235703.889323537237942, 0.0 ], [ 467697.539249586116057, 2235784.785841876640916, 0.0 ], [ 467953.008639534993563, 2235586.373681345488876, 0.0 ], [ 467947.45237842266215, 2235543.511095617897809, 0.0 ], [ 467942.699653802730609, 2235493.11109516536817, 0.0 ], [ 467755.753822943661362, 2235389.097347929608077, 0.0 ], [ 467742.67579275474418, 2235208.285804863553494, 0.0 ], [ 467884.75886737566907, 2235167.991536246612668, 0.0 ], [ 467759.819348442484625, 2235034.161911715287715, 0.0 ], [ 467820.774340588483028, 2234957.696093711536378, 0.0 ] ], [ [ 467656.685571691486984, 2234879.453705982770771, 0.0 ], [ 467669.352727426914498, 2234804.193297808524221, 0.0 ], [ 467796.538104939798359, 2234821.46550276549533, 0.0 ], [ 467787.64365116157569, 2234903.307746065314859, 0.0 ], [ 467656.685571691486984, 2234879.453705982770771, 0.0 ] ] ] ] } },
{ "type": "Feature", "properties": { "id": "ID_00009", "Name": "2025", "descriptio": "<html xmlns:fo=\"http://www.w3.org/1999/XSL/Format\" xmlns:msxsl=\"urn:schemas-microsoft-com:xslt\">\n\n<head>\n\n<META http-equiv=\"Content-Type\" content=\"text/html\">\n\n<meta http-equiv=\"content-type\" content=\"text/html; charset=UTF-8\">\n\n</head>\n\n<body style=\"mar", "timestamp": null, "begin": null, "end": null, "altitudeMo": "clampToGround", "tessellate": -1, "extrude": 0, "visibility": -1, "drawOrder": null, "icon": null, "snippet": null, "area": 22 }, "geometry": { "type": "MultiPolygon", "coordinates": [ [ [ [ 451321.41170344123384, 2227291.911296483594924, 0.0 ], [ 451308.758026690920815, 2227326.767944516148418, 0.0 ], [ 451295.716894819401205, 2227367.568314755801111, 0.0 ], [ 451340.077288503176533, 2227416.10859620757401, 0.0 ], [ 451356.524905461003073, 2227433.215281158220023, 0.0 ], [ 451403.510429947578814, 2227469.561451484449208, 0.0 ], [ 451435.617612210742664, 2227492.446670109406114, 0.0 ], [ 451459.655171795689967, 2227517.397689483128488, 0.0 ], [ 451500.885588546458166, 2227567.240011999383569, 0.0 ], [ 451536.642560119391419, 2227617.982455759774894, 0.0 ], [ 451583.191419929440599, 2227591.5517912292853, 0.0 ], [ 451610.868029493663926, 2227574.9953273832798, 0.0 ], [ 451640.6079107268597, 2227560.104218447115272, 0.0 ], [ 451679.111091893224511, 2227542.300879747606814, 0.0 ], [ 451701.312383335316554, 2227504.129559785593301, 0.0 ], [ 451719.389829406514764, 2227481.105542878620327, 0.0 ], [ 451751.296578331908677, 2227470.189470379147679, 0.0 ], [ 451773.347631617216393, 2227463.033203074708581, 0.0 ], [ 451762.95971469784854, 2227513.316623508930206, 0.0 ], [ 451760.762605708674528, 2227572.331736936699599, 0.0 ], [ 451818.902723244449589, 2227563.37229165295139, 0.0 ], [ 451861.976034934225027, 2227556.039479178376496, 0.0 ], [ 451915.482282497745473, 2227549.582939836662263, 0.0 ], [ 451888.419161255471408, 2227441.951819483656436, 0.0 ], [ 451925.823897126014344, 2227429.482168401125818, 0.0 ], [ 451918.507469359727111, 2227371.063328554388136, 0.0 ], [ 451916.996258208993822, 2227358.649855576921254, 0.0 ], [ 451915.691001939005218, 2227320.256451850757003, 0.0 ], [ 451916.303389447566587, 2227295.400643229484558, 0.0 ], [ 451934.513049843895715, 2227291.782116231974214, 0.0 ], [ 452008.246682150231209, 2227229.578640399966389, 0.0 ], [ 452051.680098531534895, 2227203.213765839114785, 0.0 ], [ 452060.990857204189524, 2227186.969426386058331, 0.0 ], [ 451943.349262887204532, 2227079.44067334709689, 0.0 ], [ 451921.598795561934821, 2227092.165665267035365, 0.0 ], [ 451898.143708063638769, 2227104.322153605055064, 0.0 ], [ 451876.636126839788631, 2227122.309222936630249, 0.0 ], [ 451873.579239411570597, 2227133.32877504453063, 0.0 ], [ 451771.648149447049946, 2227128.371818132698536, 0.0 ], [ 451760.443649996712338, 2227119.804748382419348, 0.0 ], [ 451738.303246565978043, 2227120.34226032346487, 0.0 ], [ 451686.584855495253578, 2227124.930850995704532, 0.0 ], [ 451648.819515986426268, 2227125.95643553417176, 0.0 ], [ 451614.373312327777967, 2227150.699086259119213, 0.0 ], [ 451636.08049791562371, 2227199.141356474719942, 0.0 ], [ 451626.11896969913505, 2227260.982556391041726, 0.0 ], [ 451614.787118517386261, 2227278.911558276973665, 0.0 ], [ 451599.155323079379741, 2227274.747561490163207, 0.0 ], [ 451585.778425319644157, 2227270.773178265895694, 0.0 ], [ 451568.749834360089153, 2227267.417303076945245, 0.0 ], [ 451511.010038864857052, 2227246.458599709905684, 0.0 ], [ 451469.432070103066508, 2227233.781108747236431, 0.0 ], [ 451453.639990988303907, 2227230.82084310380742, 0.0 ], [ 451446.074840541812591, 2227231.136555750854313, 0.0 ], [ 451440.55358350276947, 2227233.923477934673429, 0.0 ], [ 451418.833209175558295, 2227259.393926222342998, 0.0 ], [ 451402.447234662075061, 2227281.058317913208157, 0.0 ], [ 451384.039554191986099, 2227296.210294097661972, 0.0 ], [ 451321.41170344123384, 2227291.911296483594924, 0.0 ] ] ] ] } },
{ "type": "Feature", "properties": { "id": "ID_00010", "Name": "2025", "descriptio": "<html xmlns:fo=\"http://www.w3.org/1999/XSL/Format\" xmlns:msxsl=\"urn:schemas-microsoft-com:xslt\">\n\n<head>\n\n<META http-equiv=\"Content-Type\" content=\"text/html\">\n\n<meta http-equiv=\"content-type\" content=\"text/html; charset=UTF-8\">\n\n</head>\n\n<body style=\"mar", "timestamp": null, "begin": null, "end": null, "altitudeMo": "clampToGround", "tessellate": -1, "extrude": 0, "visibility": -1, "drawOrder": null, "icon": null, "snippet": null, "area": 30 }, "geometry": { "type": "MultiPolygon", "coordinates": [ [ [ [ 456409.652758764277678, 2233103.870328318793327, 0.0 ], [ 456397.879869678639807, 2233094.304352663923055, 0.0 ], [ 456345.203990311478265, 2233111.774174180347472, 0.0 ], [ 456332.337272726465017, 2233107.888020922895521, 0.0 ], [ 456240.814889054687228, 2233098.772167849820107, 0.0 ], [ 456255.266345981159247, 2233139.259056727401912, 0.0 ], [ 456280.267630039947107, 2233210.530489608179778, 0.0 ], [ 456279.308303625846747, 2233250.096242212224752, 0.0 ], [ 456184.523475828114897, 2233222.251054346095771, 0.0 ], [ 456154.102301298233215, 2233139.078218076378107, 0.0 ], [ 456062.846483602072112, 2233151.853695813566446, 0.0 ], [ 456000.842339008813724, 2233166.733854502439499, 0.0 ], [ 455928.117317097319756, 2233169.963178093545139, 0.0 ], [ 455922.367164167342708, 2233183.246695162262768, 0.0 ], [ 455930.521945869433694, 2233200.85807530907914, 0.0 ], [ 455910.582412357442081, 2233227.777237173169851, 0.0 ], [ 455977.391219664248638, 2233282.3593365768902, 0.0 ], [ 456064.858805517025758, 2233547.884465835057199, 0.0 ], [ 456152.123063471924979, 2233545.457303027622402, 0.0 ], [ 456243.688614281418268, 2233545.306846252176911, 0.0 ], [ 456411.040453320660163, 2233528.795498105697334, 0.0 ], [ 456430.454297328076791, 2233473.044243120588362, 0.0 ], [ 456456.196459649247117, 2233460.151010360103101, 0.0 ], [ 456484.510085608111694, 2233465.508391148876399, 0.0 ], [ 456522.726835657900665, 2233496.915303354151547, 0.0 ], [ 456564.283915391017217, 2233519.879231103230268, 0.0 ], [ 456741.630523762665689, 2233504.076660416088998, 0.0 ], [ 456683.378193133918103, 2233259.301338528748602, 0.0 ], [ 456579.970936129742768, 2233257.032833347097039, 0.0 ], [ 456583.009005265543237, 2233272.496690027881414, 0.0 ], [ 456465.508519796654582, 2233274.065964737441391, 0.0 ], [ 456436.50100535195088, 2233083.721292191650718, 0.0 ], [ 456409.652758764277678, 2233103.870328318793327, 0.0 ] ] ], [ [ [ 457339.114706638792995, 2233217.447911539580673, 0.0 ], [ 457262.757974525273312, 2233278.132574129849672, 0.0 ], [ 457173.466136034578085, 2233341.943183365277946, 0.0 ], [ 457042.960105443082284, 2233429.612205184996128, 0.0 ], [ 457248.220893317367882, 2233606.281137603800744, 0.0 ], [ 457262.191173849103507, 2233554.758203717879951, 0.0 ], [ 457263.365680471004453, 2233517.88261551130563, 0.0 ], [ 457428.06012389564421, 2233293.309462215285748, 0.0 ], [ 457401.368599495501257, 2233257.56439860118553, 0.0 ], [ 457339.114706638792995, 2233217.447911539580673, 0.0 ] ] ] ] } },
{ "type": "Feature", "properties": { "id": "ID_00011", "Name": "2025", "descriptio": "<html xmlns:fo=\"http://www.w3.org/1999/XSL/Format\" xmlns:msxsl=\"urn:schemas-microsoft-com:xslt\">\n\n<head>\n\n<META http-equiv=\"Content-Type\" content=\"text/html\">\n\n<meta http-equiv=\"content-type\" content=\"text/html; charset=UTF-8\">\n\n</head>\n\n<body style=\"mar", "timestamp": null, "begin": null, "end": null, "altitudeMo": "clampToGround", "tessellate": -1, "extrude": 0, "visibility": -1, "drawOrder": null, "icon": null, "snippet": null, "area": 30 }, "geometry": { "type": "MultiPolygon", "coordinates": [ [ [ [ 463548.948978644213639, 2248418.338805772829801, 0.0 ], [ 463628.091451091691852, 2248300.550753323361278, 0.0 ], [ 463685.394597636477556, 2248365.071236573159695, 0.0 ], [ 463722.477441026305314, 2248316.145404398441315, 0.0 ], [ 463739.465268352010753, 2248254.843901017680764, 0.0 ], [ 463732.049365745740943, 2248204.410226402338594, 0.0 ], [ 463732.792333439108916, 2248093.303106445353478, 0.0 ], [ 463734.451576172257774, 2248022.252685630694032, 0.0 ], [ 463741.181533256545663, 2247911.426795260515064, 0.0 ], [ 463749.991911672987044, 2247835.234388399869204, 0.0 ], [ 463765.80909481580602, 2247807.757984390947968, 0.0 ], [ 463771.408523492165841, 2247799.330260042566806, 0.0 ], [ 463793.919377552345395, 2247762.308123851194978, 0.0 ], [ 463799.75236801430583, 2247737.503430023323745, 0.0 ], [ 463806.673694422468543, 2247721.466633109375834, 0.0 ], [ 463833.647188440256286, 2247727.040534678380936, 0.0 ], [ 463860.514008254278451, 2247737.104538429994136, 0.0 ], [ 463856.819754022289999, 2247695.670809466391802, 0.0 ], [ 463865.729281260748394, 2247674.774055751040578, 0.0 ], [ 463875.148331271542702, 2247601.47327864356339, 0.0 ], [ 463865.869737468776293, 2247561.43625719845295, 0.0 ], [ 463863.121870857547037, 2247536.068494523875415, 0.0 ], [ 463796.555699000135064, 2247502.038238148204982, 0.0 ], [ 463710.64733854169026, 2247465.170207632705569, 0.0 ], [ 463664.804330748796929, 2247477.169690823182464, 0.0 ], [ 463608.301571238553151, 2247479.044963034335524, 0.0 ], [ 463554.056863815640099, 2247483.729448105674237, 0.0 ], [ 463464.026003930775914, 2247680.627774373628199, 0.0 ], [ 463596.669296956679318, 2247722.881689671427011, 0.0 ], [ 463624.820365215709899, 2247805.083902512677014, 0.0 ], [ 463592.395292393921409, 2247817.814202083274722, 0.0 ], [ 463558.876358625013381, 2247818.699509826023132, 0.0 ], [ 463539.632661408686545, 2247988.088538510259241, 0.0 ], [ 463343.631057147635147, 2247933.97443119622767, 0.0 ], [ 463224.039735453668982, 2248179.652829506900162, 0.0 ], [ 463246.59421683853725, 2248188.831346749793738, 0.0 ], [ 463225.893015679437667, 2248271.217466813046485, 0.0 ], [ 463548.948978644213639, 2248418.338805772829801, 0.0 ] ], [ [ 463615.948825662606396, 2248287.52527861809358, 0.0 ], [ 463495.242509143834468, 2248313.306194331496954, 0.0 ], [ 463508.820445638615638, 2248223.384900425560772, 0.0 ], [ 463616.246771397069097, 2248190.767087968531996, 0.0 ], [ 463615.948825662606396, 2248287.52527861809358, 0.0 ] ] ] ] } },
{ "type": "Feature", "properties": { "id": "ID_00012", "Name": "2025", "descriptio": "<html xmlns:fo=\"http://www.w3.org/1999/XSL/Format\" xmlns:msxsl=\"urn:schemas-microsoft-com:xslt\">\n\n<head>\n\n<META http-equiv=\"Content-Type\" content=\"text/html\">\n\n<meta http-equiv=\"content-type\" content=\"text/html; charset=UTF-8\">\n\n</head>\n\n<body style=\"mar", "timestamp": null, "begin": null, "end": null, "altitudeMo": "clampToGround", "tessellate": -1, "extrude": 0, "visibility": -1, "drawOrder": null, "icon": null, "snippet": null, "area": 31 }, "geometry": { "type": "MultiPolygon", "coordinates": [ [ [ [ 449580.527050802251324, 2229020.659667473752052, 0.0 ], [ 450135.760526041151024, 2229347.324315711855888, 0.0 ], [ 450422.925922623078804, 2229509.49315347475931, 0.0 ], [ 450556.569139190833084, 2229581.915079459082335, 0.0 ], [ 450618.225672219530679, 2229419.382077040150762, 0.0 ], [ 450578.833891929243691, 2229359.120036602485925, 0.0 ], [ 450502.255236674565822, 2229243.318350855261087, 0.0 ], [ 450368.964445356221404, 2229187.475525091867894, 0.0 ], [ 450269.394787200726569, 2229132.173917936626822, 0.0 ], [ 450121.490487774601206, 2229039.808806097600609, 0.0 ], [ 450076.202280248166062, 2228883.52466346649453, 0.0 ], [ 450060.242552622861695, 2228803.118901759386063, 0.0 ], [ 450046.383991650538519, 2228741.908522667363286, 0.0 ], [ 450029.632029031985439, 2228664.761523972265422, 0.0 ], [ 449978.875938774435781, 2228681.802350027486682, 0.0 ], [ 449931.250946351501625, 2228642.875905950088054, 0.0 ], [ 449894.888367114763241, 2228625.239540946204215, 0.0 ], [ 449780.813178927986883, 2228568.884231210686266, 0.0 ], [ 449775.029617999738548, 2228566.881515034474432, 0.0 ], [ 449758.443521059991326, 2228605.559475744143128, 0.0 ], [ 449869.203327192692086, 2228661.275034830439836, 0.0 ], [ 449825.083483136550058, 2228724.811245115008205, 0.0 ], [ 449887.345873823040165, 2228746.408291813917458, 0.0 ], [ 449926.429843408346642, 2228763.859286868479103, 0.0 ], [ 449965.300985262496397, 2228782.154144076630473, 0.0 ], [ 449973.681669833895285, 2228824.681915191933513, 0.0 ], [ 449985.078993174713105, 2228879.89139235438779, 0.0 ], [ 449959.866244056844153, 2228903.20226417388767, 0.0 ], [ 449917.417909078474622, 2228940.547802250832319, 0.0 ], [ 449855.495209321437869, 2228956.266213695518672, 0.0 ], [ 449842.241175166331232, 2228948.184914747718722, 0.0 ], [ 449827.503479259496089, 2228946.438551452942193, 0.0 ], [ 449801.147505869914312, 2228936.168634748551995, 0.0 ], [ 449704.01924710610183, 2228881.381176654715091, 0.0 ], [ 449654.3961243245285, 2228936.052523505873978, 0.0 ], [ 449580.527050802251324, 2229020.659667473752052, 0.0 ] ] ] ] } },
{ "type": "Feature", "properties": { "id": "ID_00013", "Name": "2025", "descriptio": "<html xmlns:fo=\"http://www.w3.org/1999/XSL/Format\" xmlns:msxsl=\"urn:schemas-microsoft-com:xslt\">\n\n<head>\n\n<META http-equiv=\"Content-Type\" content=\"text/html\">\n\n<meta http-equiv=\"content-type\" content=\"text/html; charset=UTF-8\">\n\n</head>\n\n<body style=\"mar", "timestamp": null, "begin": null, "end": null, "altitudeMo": "clampToGround", "tessellate": -1, "extrude": 0, "visibility": -1, "drawOrder": null, "icon": null, "snippet": null, "area": 30 }, "geometry": { "type": "MultiPolygon", "coordinates": [ [ [ [ 459170.461653913313057, 2244311.831348550505936, 0.0 ], [ 459205.84751554968534, 2244320.158358526416123, 0.0 ], [ 459222.741522895987146, 2244289.365343896206468, 0.0 ], [ 459364.004650608985685, 2244307.588766656350344, 0.0 ], [ 459410.08875706064282, 2244323.35851702420041, 0.0 ], [ 459411.392885173670948, 2244270.689485415816307, 0.0 ], [ 459454.606614756397903, 2244268.369751789141446, 0.0 ], [ 459452.684252015431412, 2244313.687574929092079, 0.0 ], [ 459469.328680701379199, 2244315.744247282389551, 0.0 ], [ 459465.651368184539024, 2244328.121026549022645, 0.0 ], [ 459487.082661048101727, 2244343.202306712511927, 0.0 ], [ 459528.357743597473018, 2244367.808605923783034, 0.0 ], [ 459564.076565036375541, 2244340.027300362940878, 0.0 ], [ 459579.28010970359901, 2244342.314902893733233, 0.0 ], [ 459588.018829724926036, 2244369.178247482981533, 0.0 ], [ 459606.665230141486973, 2244383.930088872089982, 0.0 ], [ 459732.541969141282607, 2244432.148583629634231, 0.0 ], [ 459793.085384317673743, 2244496.292680867481977, 0.0 ], [ 459817.510280085669365, 2244546.560565643943846, 0.0 ], [ 459850.14089514844818, 2244543.537737404927611, 0.0 ], [ 459760.238708709715866, 2244357.627899571787566, 0.0 ], [ 459712.881212171283551, 2244264.95843048999086, 0.0 ], [ 459736.34379105863627, 2244242.19879874587059, 0.0 ], [ 459721.624373524391558, 2244208.766371362842619, 0.0 ], [ 459707.627261561865453, 2244172.537061406765133, 0.0 ], [ 459678.256803359487094, 2244162.506412104237825, 0.0 ], [ 459662.086293271102477, 2244060.987594990525395, 0.0 ], [ 459617.000561495602597, 2244044.985516738146544, 0.0 ], [ 459582.77211986068869, 2244075.12939075846225, 0.0 ], [ 459579.77297931391513, 2244112.994786275550723, 0.0 ], [ 459546.547379705181811, 2244172.375075509771705, 0.0 ], [ 459486.310685209988151, 2244195.182247499004006, 0.0 ], [ 459421.310596551571507, 2244215.415344337001443, 0.0 ], [ 459277.460295094526373, 2244221.550219541881233, 0.0 ], [ 459216.50057698180899, 2244210.507341885473579, 0.0 ], [ 459204.220192158187274, 2244244.292485587764531, 0.0 ], [ 459177.349631745892111, 2244251.847181466408074, 0.0 ], [ 459070.892245338880457, 2244251.232956115156412, 0.0 ], [ 459044.433859089098405, 2244281.924684163648635, 0.0 ], [ 459137.52697873901343, 2244299.218693284783512, 0.0 ], [ 459170.461653913313057, 2244311.831348550505936, 0.0 ] ] ], [ [ [ 457226.147620683303103, 2245199.168432774953544, 0.0 ], [ 457299.386960184026975, 2245193.790283476468176, 0.0 ], [ 457310.687896902381908, 2245201.539614733774215, 0.0 ], [ 457372.898470363172237, 2245080.004611196927726, 0.0 ], [ 457592.431084150797687, 2245192.876315840054303, 0.0 ], [ 457578.264503598911688, 2245213.830373649485409, 0.0 ], [ 457754.693408628867473, 2245307.794166380073875, 0.0 ], [ 457740.698483365064021, 2245339.950784079730511, 0.0 ], [ 457747.788965511368588, 2245347.384364233817905, 0.0 ], [ 458030.526892813504674, 2245226.632896950468421, 0.0 ], [ 458087.692672298522666, 2245209.011482181027532, 0.0 ], [ 458056.632133887091186, 2245159.639218930155039, 0.0 ], [ 458060.028816409932915, 2245150.006063159555197, 0.0 ], [ 457997.761760055145714, 2245058.246543463785201, 0.0 ], [ 457991.243577901215758, 2245060.261727528180927, 0.0 ], [ 457920.883267146884464, 2244967.475850228220224, 0.0 ], [ 457655.254224842879921, 2245068.877760373521596, 0.0 ], [ 457630.196291012747679, 2245008.544470592867583, 0.0 ], [ 457514.10321114724502, 2245051.102721931878477, 0.0 ], [ 457440.777183171769138, 2244867.339626735076308, 0.0 ], [ 457154.532811391865835, 2244978.012837116140872, 0.0 ], [ 457226.147620683303103, 2245199.168432774953544, 0.0 ] ] ] ] } },
{ "type": "Feature", "properties": { "id": "ID_00014", "Name": "2025", "descriptio": "<html xmlns:fo=\"http://www.w3.org/1999/XSL/Format\" xmlns:msxsl=\"urn:schemas-microsoft-com:xslt\">\n\n<head>\n\n<META http-equiv=\"Content-Type\" content=\"text/html\">\n\n<meta http-equiv=\"content-type\" content=\"text/html; charset=UTF-8\">\n\n</head>\n\n<body style=\"mar", "timestamp": null, "begin": null, "end": null, "altitudeMo": "clampToGround", "tessellate": -1, "extrude": 0, "visibility": -1, "drawOrder": null, "icon": null, "snippet": null, "area": 61 }, "geometry": { "type": "MultiPolygon", "coordinates": [ [ [ [ 463634.737337596830912, 2232539.808891418855637, 0.0 ], [ 463848.199858015228529, 2232394.636182298418134, 0.0 ], [ 464056.46344498032704, 2232254.673754241317511, 0.0 ], [ 464049.160393620666582, 2232111.884842575527728, 0.0 ], [ 463957.072840178327169, 2232162.248927779961377, 0.0 ], [ 463901.53803734772373, 2232262.20734503492713, 0.0 ], [ 463845.779084613139275, 2232275.916042305994779, 0.0 ], [ 463828.882623489596881, 2232165.555468654260039, 0.0 ], [ 463945.438490450906102, 2232144.541464490815997, 0.0 ], [ 463933.194502841797657, 2232048.455477502662688, 0.0 ], [ 463858.463257916795556, 2232079.764566670171916, 0.0 ], [ 463811.685162810608745, 2232069.325506070163101, 0.0 ], [ 463788.471547085558996, 2232086.143026815727353, 0.0 ], [ 463755.620766707812436, 2232184.20305399550125, 0.0 ], [ 463702.975520315114409, 2232254.259552610106766, 0.0 ], [ 463632.29022774938494, 2232223.388810127973557, 0.0 ], [ 463554.348403768788557, 2232156.352864630986005, 0.0 ], [ 463502.314435715146828, 2232196.547012805473059, 0.0 ], [ 463452.012639130698517, 2232252.819206388667226, 0.0 ], [ 463357.791986424359493, 2232269.941001616884023, 0.0 ], [ 463255.000240808411036, 2232273.532706553116441, 0.0 ], [ 463288.729873814387247, 2232321.907641927711666, 0.0 ], [ 463341.676166971330531, 2232358.844798244070262, 0.0 ], [ 463342.35052152548451, 2232379.028569127898663, 0.0 ], [ 463362.701638393336907, 2232387.777309616096318, 0.0 ], [ 463370.514623938128352, 2232411.983708281535655, 0.0 ], [ 463363.696521094301715, 2232445.853906169999391, 0.0 ], [ 463391.630888484069146, 2232488.98682147404179, 0.0 ], [ 463402.901839425321668, 2232511.375798965804279, 0.0 ], [ 463403.927450634306297, 2232511.33700504200533, 0.0 ], [ 463396.596788800787181, 2232563.399078203365207, 0.0 ], [ 463406.57261205476243, 2232570.915495623834431, 0.0 ], [ 463437.340229619876482, 2232569.014020971488208, 0.0 ], [ 463493.355290469538886, 2232611.006622141227126, 0.0 ], [ 463498.503313484136015, 2232624.384637648705393, 0.0 ], [ 463590.109836151765194, 2232565.958239077124745, 0.0 ], [ 463634.737337596830912, 2232539.808891418855637, 0.0 ] ] ], [ [ [ 463636.159157128073275, 2232702.231550381053239, 0.0 ], [ 463706.76859970233636, 2232983.295550935901701, 0.0 ], [ 463749.031550134473946, 2233180.777895973529667, 0.0 ], [ 463778.896187831647694, 2233318.422960236202925, 0.0 ], [ 463811.60272741666995, 2233373.979072433896363, 0.0 ], [ 463858.653820516890846, 2233366.05229815421626, 0.0 ], [ 463881.76342992275022, 2233394.495380991604179, 0.0 ], [ 463882.163941639941186, 2233446.727974384091794, 0.0 ], [ 463921.212863008957356, 2233479.364298525732011, 0.0 ], [ 463949.043530269176699, 2233528.792695875279605, 0.0 ], [ 463989.0774983332376, 2233556.878367544151843, 0.0 ], [ 464044.956232766329776, 2233592.793088389094919, 0.0 ], [ 464063.730824991187546, 2233610.565501389559358, 0.0 ], [ 464135.419169321714435, 2233673.364008262287825, 0.0 ], [ 464130.320950258988887, 2233625.053673550952226, 0.0 ], [ 464125.463485070562456, 2233562.590514361858368, 0.0 ], [ 464121.216664249484893, 2233516.491604214999825, 0.0 ], [ 464113.757797731901519, 2233405.216523997485638, 0.0 ], [ 464107.948445568734314, 2233281.937809442169964, 0.0 ], [ 464100.651615351089276, 2233177.19372873287648, 0.0 ], [ 464096.737187162274495, 2233093.191798515152186, 0.0 ], [ 464087.947856183222029, 2232941.273918150924146, 0.0 ], [ 464080.115854615229182, 2232761.968289587646723, 0.0 ], [ 464068.067356848390773, 2232569.022968630772084, 0.0 ], [ 464063.520146916678641, 2232415.724258765112609, 0.0 ], [ 464060.152145354426466, 2232312.434789444319904, 0.0 ], [ 463554.743882478505839, 2232645.073165105655789, 0.0 ], [ 463636.159157128073275, 2232702.231550381053239, 0.0 ] ] ] ] } },
{ "type": "Feature", "properties": { "id": "ID_00015", "Name": "2025", "descriptio": "<html xmlns:fo=\"http://www.w3.org/1999/XSL/Format\" xmlns:msxsl=\"urn:schemas-microsoft-com:xslt\">\n\n<head>\n\n<META http-equiv=\"Content-Type\" content=\"text/html\">\n\n<meta http-equiv=\"content-type\" content=\"text/html; charset=UTF-8\">\n\n</head>\n\n<body style=\"mar", "timestamp": null, "begin": null, "end": null, "altitudeMo": "clampToGround", "tessellate": -1, "extrude": 0, "visibility": -1, "drawOrder": null, "icon": null, "snippet": null, "area": 6 }, "geometry": { "type": "MultiPolygon", "coordinates": [ [ [ [ 454676.000000001047738, 2239808.999999999068677, 0.0 ], [ 454569.000000000116415, 2239711.000000000931323, 0.0 ], [ 454475.000000000174623, 2239839.000000000465661, 0.0 ], [ 454410.0000000007567, 2239790.0, 0.0 ], [ 454359.000000001513399, 2239852.0, 0.0 ], [ 454482.000000000349246, 2239965.999999998603016, 0.0 ], [ 454413.000000000523869, 2240072.0, 0.0 ], [ 454406.999999998835847, 2240077.999999999068677, 0.0 ], [ 454388.999999999185093, 2240062.999999999534339, 0.0 ], [ 454383.000000000349246, 2240097.000000000931323, 0.0 ], [ 454347.999999998370185, 2240106.000000000465661, 0.0 ], [ 454346.999999999650754, 2240108.0, 0.0 ], [ 454426.999999999417923, 2240156.000000000931323, 0.0 ], [ 454676.000000001047738, 2239808.999999999068677, 0.0 ] ] ] ] } },
{ "type": "Feature", "properties": { "id": "ID_00016", "Name": "2025", "descriptio": "<html xmlns:fo=\"http://www.w3.org/1999/XSL/Format\" xmlns:msxsl=\"urn:schemas-microsoft-com:xslt\">\n\n<head>\n\n<META http-equiv=\"Content-Type\" content=\"text/html\">\n\n<meta http-equiv=\"content-type\" content=\"text/html; charset=UTF-8\">\n\n</head>\n\n<body style=\"mar", "timestamp": null, "begin": null, "end": null, "altitudeMo": "clampToGround", "tessellate": -1, "extrude": 0, "visibility": -1, "drawOrder": null, "icon": null, "snippet": null, "area": 20 }, "geometry": { "type": "MultiPolygon", "coordinates": [ [ [ [ 460656.324491788749583, 2244918.168594754766673, 0.0 ], [ 460642.013901646423619, 2244929.647778235841542, 0.0 ], [ 460679.305789125559386, 2244991.38491712231189, 0.0 ], [ 460609.925120692059863, 2245047.694738241843879, 0.0 ], [ 460573.273364861030132, 2245079.202944832853973, 0.0 ], [ 460571.127764748816844, 2245086.296183852013201, 0.0 ], [ 460578.922756066836882, 2245101.111527824774384, 0.0 ], [ 460585.540861036337446, 2245122.1806804779917, 0.0 ], [ 460589.911535640188958, 2245131.143023205921054, 0.0 ], [ 460591.959559083508793, 2245143.770382746122777, 0.0 ], [ 460595.924076317518484, 2245173.441319309640676, 0.0 ], [ 460599.016550369909965, 2245194.453744790516794, 0.0 ], [ 460604.040172931912821, 2245211.361638627946377, 0.0 ], [ 460602.440169612877071, 2245232.984003729186952, 0.0 ], [ 460611.692828737548552, 2245237.340417600702494, 0.0 ], [ 460620.165460528514814, 2245248.72355912392959, 0.0 ], [ 460628.254045671026688, 2245261.992095702327788, 0.0 ], [ 460630.479067349457182, 2245285.526700544171035, 0.0 ], [ 460628.49277693964541, 2245300.348210765980184, 0.0 ], [ 460630.90086612617597, 2245315.113609714899212, 0.0 ], [ 460637.663963299070019, 2245324.264480339363217, 0.0 ], [ 460651.0550534541253, 2245340.2606595531106, 0.0 ], [ 460703.132145226758439, 2245322.343266929965466, 0.0 ], [ 460737.847762243589386, 2245262.310635367874056, 0.0 ], [ 460710.890474851534236, 2245232.019795211963356, 0.0 ], [ 460648.671677385398652, 2245257.128039682749659, 0.0 ], [ 460636.323802355851512, 2245231.559125293977559, 0.0 ], [ 460686.853936131868977, 2245201.837643050588667, 0.0 ], [ 460692.005566770792939, 2245171.184884658548981, 0.0 ], [ 460713.279394496930763, 2245143.945941732730716, 0.0 ], [ 460738.530252570344601, 2245132.081302058883011, 0.0 ], [ 460810.655182626040187, 2245063.323673601727933, 0.0 ], [ 460985.441926601866726, 2245157.493171640206128, 0.0 ], [ 461047.307888916751835, 2245078.739287976641208, 0.0 ], [ 460656.324491788749583, 2244918.168594754766673, 0.0 ] ] ], [ [ [ 460032.725349631917197, 2245570.193011071067303, 0.0 ], [ 460100.903341374010779, 2245665.862950190436095, 0.0 ], [ 460280.590408614836633, 2245668.016661217436194, 0.0 ], [ 460236.571247061772738, 2245565.761592707596719, 0.0 ], [ 460424.980618337518536, 2245447.403522758278996, 0.0 ], [ 460422.356913959840313, 2245442.823712799698114, 0.0 ], [ 460471.526919645839371, 2245386.977896193042397, 0.0 ], [ 460492.045817512727808, 2245338.823661362752318, 0.0 ], [ 460448.089539593725931, 2245312.098875829484314, 0.0 ], [ 460401.127076731005218, 2245346.798690397292376, 0.0 ], [ 460370.373812523088418, 2245318.266959282569587, 0.0 ], [ 460331.765002302709036, 2245262.262384506873786, 0.0 ], [ 460302.082677232741844, 2245220.589002757333219, 0.0 ], [ 460278.983642810024321, 2245169.83465356240049, 0.0 ], [ 460258.78561118763173, 2245130.128897549118847, 0.0 ], [ 460051.912448339571711, 2245221.771094548050314, 0.0 ], [ 460046.625992857269011, 2245257.087394690606743, 0.0 ], [ 460057.255071128427517, 2245356.326386399101466, 0.0 ], [ 460056.715960008732509, 2245436.445942108985037, 0.0 ], [ 460015.653973702515941, 2245451.162363087758422, 0.0 ], [ 460032.725349631917197, 2245570.193011071067303, 0.0 ] ], [ [ 460066.838576226029545, 2245407.466812626924366, 0.0 ], [ 460142.146478545444552, 2245319.448240259662271, 0.0 ], [ 460223.280336645082571, 2245430.81276130862534, 0.0 ], [ 460206.475747031159699, 2245458.236949428450316, 0.0 ], [ 460212.292142684222199, 2245463.288991985842586, 0.0 ], [ 460202.450533594877925, 2245480.170781863853335, 0.0 ], [ 460195.339484798139893, 2245475.649981158785522, 0.0 ], [ 460158.373344377498142, 2245534.08973952382803, 0.0 ], [ 460151.421633647521958, 2245532.495363899040967, 0.0 ], [ 460066.838576226029545, 2245407.466812626924366, 0.0 ] ] ] ] } },
{ "type": "Feature", "properties": { "id": "ID_00017", "Name": "2025", "descriptio": "<html xmlns:fo=\"http://www.w3.org/1999/XSL/Format\" xmlns:msxsl=\"urn:schemas-microsoft-com:xslt\">\n\n<head>\n\n<META http-equiv=\"Content-Type\" content=\"text/html\">\n\n<meta http-equiv=\"content-type\" content=\"text/html; charset=UTF-8\">\n\n</head>\n\n<body style=\"mar", "timestamp": null, "begin": null, "end": null, "altitudeMo": "clampToGround", "tessellate": -1, "extrude": 0, "visibility": -1, "drawOrder": null, "icon": null, "snippet": null, "area": 56 }, "geometry": { "type": "MultiPolygon", "coordinates": [ [ [ [ 456193.421092506148852, 2227062.879505791701376, 0.0 ], [ 456173.107743176107761, 2226645.488430649973452, 0.0 ], [ 456171.368246221682057, 2226244.989289032761008, 0.0 ], [ 456051.866384933702648, 2226210.274457040708512, 0.0 ], [ 455964.98370676866034, 2226200.00999202253297, 0.0 ], [ 455854.174385051475838, 2226245.211814579088241, 0.0 ], [ 455793.867225034977309, 2226319.39642225112766, 0.0 ], [ 455706.953933476353996, 2226469.710065049119294, 0.0 ], [ 455625.923322127433494, 2226566.123086251318455, 0.0 ], [ 455526.221633236971684, 2226626.839406659826636, 0.0 ], [ 455373.850861710554454, 2226652.76665871264413, 0.0 ], [ 455308.196877317153849, 2226674.212302245665342, 0.0 ], [ 455318.75251764775021, 2226813.075622757896781, 0.0 ], [ 455288.111861514218617, 2226849.453646654263139, 0.0 ], [ 455198.642972200526856, 2226970.292967689223588, 0.0 ], [ 455165.763546703616157, 2227023.47448112256825, 0.0 ], [ 455235.021994207403623, 2227028.527643315959722, 0.0 ], [ 455409.853166774089914, 2227033.15149376867339, 0.0 ], [ 455781.875032128184102, 2227046.732466870453209, 0.0 ], [ 456193.421092506148852, 2227062.879505791701376, 0.0 ] ] ] ] } }
]
}
