{
"type": "FeatureCollection",
"name": "revegetacion de margenes",
"crs": { "type": "name", "properties": { "name": "urn:ogc:def:crs:OGC:1.3:CRS84" } },
"features": [
{ "type": "Feature", "properties": { "id": null, "Name": "A1 Hidrosiembra", "descriptio": null, "timestamp": null, "begin": null, "end": null, "altitudeMo": null, "tessellate": 1, "extrude": 0, "visibility": -1, "drawOrder": null, "icon": null }, "geometry": { "type": "MultiLineString", "coordinates": [ [ [ -99.338273063279772, 20.048933732290369, 0.0 ], [ -99.338248026907763, 20.048722077570869, 0.0 ], [ -99.338142881833804, 20.048524533893278, 0.0 ], [ -99.337301736450883, 20.04755563288208, 0.0 ], [ -99.337146526606048, 20.04734868326543, 0.0 ], [ -99.337091920994681, 20.04701326534698, 0.0 ], [ -99.337220176204625, 20.046603618579478, 0.0 ] ] ] } },
{ "type": "Feature", "properties": { "id": null, "Name": "TRAYECTORIA DE RODAMIENTO MARGEN IZQUIERDO", "descriptio": null, "timestamp": null, "begin": null, "end": null, "altitudeMo": null, "tessellate": 1, "extrude": 0, "visibility": -1, "drawOrder": null, "icon": null }, "geometry": { "type": "MultiLineString", "coordinates": [ [ [ -99.337223406078436, 20.048018953882281, 0.0 ], [ -99.337348075594178, 20.04815536688276, 0.0 ], [ -99.337431543247234, 20.0482520999023, 0.0 ], [ -99.337544268703525, 20.04834068767552, 0.0 ], [ -99.337761980296591, 20.048589210565339, 0.0 ], [ -99.337817962476848, 20.04868608234775, 0.0 ], [ -99.337819101170467, 20.0486916202846, 0.0 ], [ -99.337844689398963, 20.048752540016469, 0.0 ], [ -99.337840112533115, 20.048831425601382, 0.0 ], [ -99.337817820419687, 20.04891743161237, 0.0 ], [ -99.337804172295606, 20.049008639930719, 0.0 ] ] ] } },
{ "type": "Feature", "properties": { "id": null, "Name": "A2 Hidrosiembra", "descriptio": null, "timestamp": null, "begin": null, "end": null, "altitudeMo": null, "tessellate": 1, "extrude": 0, "visibility": -1, "drawOrder": null, "icon": null }, "geometry": { "type": "MultiLineString", "coordinates": [ [ [ -99.33727357260986, 20.047968723958491, 0.0 ], [ -99.337545089504005, 20.048283252210489, 0.0 ], [ -99.33781676100017, 20.048569974234841, 0.0 ], [ -99.337894938003799, 20.048671410335199, 0.0 ], [ -99.337906105017879, 20.048769365047139, 0.0 ], [ -99.337902379535606, 20.048832344738919, 0.0 ], [ -99.337876308489257, 20.048919827917469, 0.0 ], [ -99.337857683792919, 20.048982824176321, 0.0 ] ] ] } },
{ "type": "Feature", "properties": { "id": null, "Name": "TRAYECTORIA DE RODAMIENTO MARGEN DERECHO", "descriptio": null, "timestamp": null, "begin": null, "end": null, "altitudeMo": null, "tessellate": 1, "extrude": 0, "visibility": -1, "drawOrder": null, "icon": null }, "geometry": { "type": "MultiLineString", "coordinates": [ [ [ -99.337304480497707, 20.046575167082501, 0.0 ], [ -99.337197271325408, 20.04686080627236, 0.0 ], [ -99.337156096802303, 20.046994492599321, 0.0 ], [ -99.337169927072651, 20.047149020313551, 0.0 ], [ -99.337194263390657, 20.047251691564028, 0.0 ], [ -99.337611916595435, 20.04779539236517, 0.0 ], [ -99.338373569503773, 20.04863754772347, 0.0 ], [ -99.338399734339987, 20.0487294925524, 0.0 ], [ -99.338398754893703, 20.048862934869369, 0.0 ] ] ] } }
]
}
