{
"type": "FeatureCollection",
"name": "saneamiento_forestal",
"crs": { "type": "name", "properties": { "name": "urn:ogc:def:crs:OGC:1.3:CRS84" } },
"features": [
{ "type": "Feature", "properties": { "id": null, "Name": "A1 Hidrosiembra", "descriptio": null, "timestamp": null, "begin": null, "end": null, "altitudeMo": null, "tessellate": 1, "extrude": 0, "visibility": -1, "drawOrder": null, "icon": null }, "geometry": { "type": "MultiLineString", "coordinates": [ [ [ 464625.658257939154282, 2216932.129173585213721, 0.0 ], [ 464628.229014580545481, 2216908.701718481723219, 0.0 ], [ 464639.180269432254136, 2216886.818870704155415, 0.0 ], [ 464726.926270535390358, 2216779.42052016267553, 0.0 ], [ 464743.11117100197589, 2216756.486297867726535, 0.0 ], [ 464748.746709847997408, 2216719.356738656759262, 0.0 ], [ 464735.242893461370841, 2216674.051435553934425, 0.0 ] ] ] } },
{ "type": "Feature", "properties": { "id": null, "Name": "TRAYECTORIA DE RODAMIENTO MARGEN IZQUIERDO", "descriptio": null, "timestamp": null, "begin": null, "end": null, "altitudeMo": null, "tessellate": 1, "extrude": 0, "visibility": -1, "drawOrder": null, "icon": null }, "geometry": { "type": "MultiLineString", "coordinates": [ [ [ 464735.221131859987509, 2216830.676056371070445, 0.0 ], [ 464722.214303519634996, 2216845.798113183584064, 0.0 ], [ 464713.507304361148272, 2216856.520411238074303, 0.0 ], [ 464701.738870974164456, 2216866.347522956784815, 0.0 ], [ 464679.027335862629116, 2216893.895581827964634, 0.0 ], [ 464673.194696030172054, 2216904.62744848523289, 0.0 ], [ 464673.076856527826749, 2216905.240528876893222, 0.0 ], [ 464670.414609895320609, 2216911.987443080171943, 0.0 ], [ 464670.910879252827726, 2216920.716119850054383, 0.0 ], [ 464673.261300189886242, 2216930.229013293515891, 0.0 ], [ 464674.70894385536667, 2216940.319432417396456, 0.0 ] ] ] } },
{ "type": "Feature", "properties": { "id": null, "Name": "A2 Hidrosiembra", "descriptio": null, "timestamp": null, "begin": null, "end": null, "altitudeMo": null, "tessellate": 1, "extrude": 0, "visibility": -1, "drawOrder": null, "icon": null }, "geometry": { "type": "MultiLineString", "coordinates": [ [ [ 464729.963756566867232, 2216825.128094215877354, 0.0 ], [ 464701.640199453977402, 2216859.99176777806133, 0.0 ], [ 464673.29436879750574, 2216891.778427485376596, 0.0 ], [ 464665.141741621890105, 2216903.020085423719138, 0.0 ], [ 464663.995873707754072, 2216913.862320276442915, 0.0 ], [ 464664.399554621661082, 2216920.830997422803193, 0.0 ], [ 464667.145488752867095, 2216930.506557585205883, 0.0 ], [ 464669.107245743507519, 2216937.473918434698135, 0.0 ] ] ] } },
{ "type": "Feature", "properties": { "id": null, "Name": "TRAYECTORIA DE RODAMIENTO MARGEN DERECHO", "descriptio": null, "timestamp": null, "begin": null, "end": null, "altitudeMo": null, "tessellate": 1, "extrude": 0, "visibility": -1, "drawOrder": null, "icon": null }, "geometry": { "type": "MultiLineString", "coordinates": [ [ [ 464726.420350542059168, 2216670.920723165385425, 0.0 ], [ 464737.695606419234537, 2216702.507524638436735, 0.0 ], [ 464742.031300150149036, 2216717.292843954637647, 0.0 ], [ 464740.619487983698491, 2216734.396118207369, 0.0 ], [ 464738.097428314329591, 2216745.763065605424345, 0.0 ], [ 464694.542721968959086, 2216806.018294984474778, 0.0 ], [ 464615.081532962911297, 2216899.374043403193355, 0.0 ], [ 464612.365960880881175, 2216909.554391254205257, 0.0 ], [ 464612.498285831301473, 2216924.321191204246134, 0.0 ] ] ] } }
]
}
